"STATION","DATE","REPORT_TYPE","SOURCE","AWND","BackupDirection","BackupDistance","BackupDistanceUnit","BackupElements","BackupElevation","BackupElevationUnit","BackupEquipment","BackupLatitude","BackupLongitude","BackupName","CDSD","CLDD","DSNW","DailyAverageDewPointTemperature","DailyAverageDryBulbTemperature","DailyAverageRelativeHumidity","DailyAverageSeaLevelPressure","DailyAverageStationPressure","DailyAverageWetBulbTemperature","DailyAverageWindSpeed","DailyCoolingDegreeDays","DailyDepartureFromNormalAverageTemperature","DailyHeatingDegreeDays","DailyMaximumDryBulbTemperature","DailyMinimumDryBulbTemperature","DailyPeakWindDirection","DailyPeakWindSpeed","DailyPrecipitation","DailySnowDepth","DailySnowfall","DailySustainedWindDirection","DailySustainedWindSpeed","DailyWeather","HDSD","HTDD","HeavyFog","HourlyAltimeterSetting","HourlyDewPointTemperature","HourlyDryBulbTemperature","HourlyPrecipitation","HourlyPresentWeatherType","HourlyPressureChange","HourlyPressureTendency","HourlyRelativeHumidity","HourlySeaLevelPressure","HourlySkyConditions","HourlyStationPressure","HourlyVisibility","HourlyWetBulbTemperature","HourlyWindDirection","HourlyWindGustSpeed","HourlyWindSpeed","MonthlyAverageRH","MonthlyDaysWithGT001Precip","MonthlyDaysWithGT010Precip","MonthlyDaysWithGT32Temp","MonthlyDaysWithGT90Temp","MonthlyDaysWithLT0Temp","MonthlyDaysWithLT32Temp","MonthlyDepartureFromNormalAverageTemperature","MonthlyDepartureFromNormalCoolingDegreeDays","MonthlyDepartureFromNormalHeatingDegreeDays","MonthlyDepartureFromNormalMaximumTemperature","MonthlyDepartureFromNormalMinimumTemperature","MonthlyDepartureFromNormalPrecipitation","MonthlyDewpointTemperature","MonthlyGreatestPrecip","MonthlyGreatestPrecipDate","MonthlyGreatestSnowDepth","MonthlyGreatestSnowDepthDate","MonthlyGreatestSnowfall","MonthlyGreatestSnowfallDate","MonthlyMaxSeaLevelPressureValue","MonthlyMaxSeaLevelPressureValueDate","MonthlyMaxSeaLevelPressureValueTime","MonthlyMaximumTemperature","MonthlyMeanTemperature","MonthlyMinSeaLevelPressureValue","MonthlyMinSeaLevelPressureValueDate","MonthlyMinSeaLevelPressureValueTime","MonthlyMinimumTemperature","MonthlySeaLevelPressure","MonthlyStationPressure","MonthlyTotalLiquidPrecipitation","MonthlyTotalSnowfall","MonthlyWetBulb","NormalsCoolingDegreeDay","NormalsHeatingDegreeDay","REM","REPORT_TYPE","SOURCE","ShortDurationEndDate005","ShortDurationEndDate010","ShortDurationEndDate015","ShortDurationEndDate020","ShortDurationEndDate030","ShortDurationEndDate045","ShortDurationEndDate060","ShortDurationEndDate080","ShortDurationEndDate100","ShortDurationEndDate120","ShortDurationEndDate150","ShortDurationEndDate180","ShortDurationPrecipitationValue005","ShortDurationPrecipitationValue010","ShortDurationPrecipitationValue015","ShortDurationPrecipitationValue020","ShortDurationPrecipitationValue030","ShortDurationPrecipitationValue045","ShortDurationPrecipitationValue060","ShortDurationPrecipitationValue080","ShortDurationPrecipitationValue100","ShortDurationPrecipitationValue120","ShortDurationPrecipitationValue150","ShortDurationPrecipitationValue180","Sunrise","Sunset","TStorms","WindEquipmentChangeDate"
"74486094789","2020-06-01T00:51:00","FM-15","7",,"ESE","1.5","mi","TEMP, PRECIP, SNOW",,,"PSY, SRG, SNOWBOARD",,,"FAA CWO",,,,,,,,,,,,,,,,,,,,,,,,,,,"30.19","33","55","0.00",,"-0.02","1","44","30.19","CLR:00","30.16","10.00","45","360",,"9",,,,,,,,,,,,,,,,,,,,,,,,,,,,,,,,,,,,,"MET11306/01/20 00:51:02 METAR KJFK 010551Z 36008KT 10SM CLR 13/01 A3019 RMK AO2 SLP224 T01280006 10178 20128 51006 (JC)","FM-15","7",,,,,,,,,,,,,,,,,,,,,,,,,,,,"2009-05-01"
"74486094789","2020-06-01T01:00:00","FM-12","4",,"ESE","1.5","mi","TEMP, PRECIP, SNOW",,,"PSY, SRG, SNOWBOARD",,,"FAA CWO",,,,,,,,,,,,,,,,,,,,,,,,,,,,"33","55",,,"-0.02","1","44","30.19",,"30.16","9.94","45","360",,"9",,,,,,,,,,,,,,,,,,,,,,,,,,,,,,,,,,,,,"SYN08074486 32966 03608 10128 20006 30212 40224 51006 90551 333 10217 20128 555 90106=","FM-12","4",,,,,,,,,,,,,,,,,,,,,,,,,,,,"2009-05-01"
"74486094789","2020-06-01T01:51:00","FM-15","7",,"ESE","1.5","mi","TEMP, PRECIP, SNOW",,,"PSY, SRG, SNOWBOARD",,,"FAA CWO",,,,,,,,,,,,,,,,,,,,,,,,,,,"30.20","34","54","0.00",,,,"47","30.20","CLR:00","30.17","10.00","45","360",,"10",,,,,,,,,,,,,,,,,,,,,,,,,,,,,,,,,,,,,"MET09506/01/20 01:51:02 METAR KJFK 010651Z 36009KT 10SM CLR 12/01 A3020 RMK AO2 SLP226 T01220011 (JC)","FM-15","7",,,,,,,,,,,,,,,,,,,,,,,,,,,,"2009-05-01"
"74486094789","2020-06-01T02:51:00","FM-15","7",,"ESE","1.5","mi","TEMP, PRECIP, SNOW",,,"PSY, SRG, SNOWBOARD",,,"FAA CWO",,,,,,,,,,,,,,,,,,,,,,,,,,,"30.20","34","51","0.00",,,,"52","30.20","CLR:00","30.17","10.00","43","340",,"6",,,,,,,,,,,,,,,,,,,,,,,,,,,,,,,,,,,,,"MET09506/01/20 02:51:02 METAR KJFK 010751Z 34005KT 10SM CLR 11/01 A3020 RMK AO2 SLP227 T01060011 (JC)","FM-15","7",,,,,,,,,,,,,,,,,,,,,,,,,,,,"2009-05-01"
"74486094789","2020-06-01T03:51:00","FM-15","7",,"ESE","1.5","mi","TEMP, PRECIP, SNOW",,,"PSY, SRG, SNOWBOARD",,,"FAA CWO",,,,,,,,,,,,,,,,,,,,,,,,,,,"30.21","33","51","0.00",,"-0.02","2","50","30.21","CLR:00","30.19","10.00","43","330",,"8",,,,,,,,,,,,,,,,,,,,,,,,,,,,,,,,,,,,,"MET10106/01/20 03:51:02 METAR KJFK 010851Z 33007KT 10SM CLR 11/01 A3021 RMK AO2 SLP229 T01060006 52006 (JC)","FM-15","7",,,,,,,,,,,,,,,,,,,,,,,,,,,,"2009-05-01"
"74486094789","2020-06-01T04:00:00","FM-12","4",,"ESE","1.5","mi","TEMP, PRECIP, SNOW",,,"PSY, SRG, SNOWBOARD",,,"FAA CWO",,,,,,,,,,,,,,,,,,,,,,,,,,,,"33","51",,,"-0.02","2","50","30.21",,"30.18","9.94","43","330",,"8",,,,,,,,,,,,,,,,,,,,,,,,,,,,,,,,,,,,,"SYN06474486 32966 03307 10106 20006 30219 40229 52006 90851 555 90109=","FM-12","4",,,,,,,,,,,,,,,,,,,,,,,,,,,,"2009-05-01"
"74486094789","2020-06-01T04:51:00","FM-15","7",,"ESE","1.5","mi","TEMP, PRECIP, SNOW",,,"PSY, SRG, SNOWBOARD",,,"FAA CWO",,,,,,,,,,,,,,,,,,,,,,,,,,,"30.23","33","52","0.00",,,,"49","30.23","FEW:02 250","30.21","10.00","44","330",,"11",,,,,,,,,,,,,,,,,,,,,,,,,,,,,,,,,,,,,"MET09806/01/20 04:51:02 METAR KJFK 010951Z 33010KT 10SM FEW250 11/01 A3023 RMK AO2 SLP237 T01110006 (JC)","FM-15","7",,,,,,,,,,,,,,,,,,,,,,,,,,,,"2009-05-01"
"74486094789","2020-06-01T05:51:00","FM-15","7",,"ESE","1.5","mi","TEMP, PRECIP, SNOW",,,"PSY, SRG, SNOWBOARD",,,"FAA CWO",,,,,,,,,,,,,,,,,,,,,,,,,,,"30.24","34","54","0.00",,,,"47","30.24","FEW:02 250","30.22","10.00","45","330",,"11",,,,,,,,,,,,,,,,,,,,,,,,,,,,,,,,,,,,,"MET09806/01/20 05:51:02 METAR KJFK 011051Z 33010KT 10SM FEW250 12/01 A3024 RMK AO2 SLP240 T01220011 (BH)","FM-15","7",,,,,,,,,,,,,,,,,,,,,,,,,,,,"2009-05-01"
"74486094789","2020-06-01T06:51:00","FM-15","7",,"ESE","1.5","mi","TEMP, PRECIP, SNOW",,,"PSY, SRG, SNOWBOARD",,,"FAA CWO",,,,,,,,,,,,,,,,,,,,,,,,,,,"30.26","35","57","0.00",,"-0.05","1","44","30.26","FEW:02 250","30.24","10.00","47","320",,"11",,,,,,,,,,,,,,,,,,,,,,,,,,,,,,,,,,,,,"MET11606/01/20 06:51:02 METAR KJFK 011151Z 32010KT 10SM FEW250 14/02 A3026 RMK AO2 SLP247 T01390017 10139 20106 51018 (BH)","FM-15","7",,,,,,,,,,,,,,,,,,,,,,,,,,,,"2009-05-01"
"74486094789","2020-06-01T07:00:00","FM-12","4",,"ESE","1.5","mi","TEMP, PRECIP, SNOW",,,"PSY, SRG, SNOWBOARD",,,"FAA CWO",,,,,,,,,,,,,,,,,,,,,,,,,,,,"35","57",,,"-0.05","1","44","30.26",,"30.23","9.94","47","320",,"11",,,,,,,,,,,,,,,,,,,,,,,,,,,,,,,,,,,,,"SYN08074486 32966 23210 10139 20017 30236 40247 51018 91151 333 10228 20106 555 90112=","FM-12","4",,,,,,,,,,,,,,,,,,,,,,,,,,,,"2009-05-01"
"74486094789","2020-06-01T07:51:00","FM-15","7",,"ESE","1.5","mi","TEMP, PRECIP, SNOW",,,"PSY, SRG, SNOWBOARD",,,"FAA CWO",,,,,,,,,,,,,,,,,,,,,,,,,,,"30.27","35","59","0.00",,,,"41","30.27","FEW:02 110 FEW:02 250","30.24","10.00","48","330",,"8",,,,,,,,,,,,,,,,,,,,,,,,,,,,,,,,,,,,,"MET10506/01/20 07:51:02 METAR KJFK 011251Z 33007KT 10SM FEW110 FEW250 15/02 A3027 RMK AO2 SLP249 T01500017 (BH)","FM-15","7",,,,,,,,,,,,,,,,,,,,,,,,,,,,"2009-05-01"
"74486094789","2020-06-01T08:51:00","FM-15","7",,"ESE","1.5","mi","TEMP, PRECIP, SNOW",,,"PSY, SRG, SNOWBOARD",,,"FAA CWO",,,,,,,,,,,,,,,,,,,,,,,,,,,"30.26","35","62","0.00",,,,"37","30.26","FEW:02 55 FEW:02 110 SCT:04 250","30.24","10.00","49","300",,"9",,,,,,,,,,,,,,,,,,,,,,,,,,,,,,,,,,,,,"MET11206/01/20 08:51:02 METAR KJFK 011351Z 30008KT 10SM FEW055 FEW110 SCT250 17/02 A3026 RMK AO2 SLP246 T01670017 (BH)","FM-15","7",,,,,,,,,,,,,,,,,,,,,,,,,,,,"2009-05-01"
"74486094789","2020-06-01T09:51:00","FM-15","7",,"ESE","1.5","mi","TEMP, PRECIP, SNOW",,,"PSY, SRG, SNOWBOARD",,,"FAA CWO",,,,,,,,,,,,,,,,,,,,,,,,,,,"30.24","35","62","0.00",,"+0.02","8","37","30.24","SCT:04 60 SCT:04 110 SCT:04 250","30.22","10.00","49","340","18","8",,,,,,,,,,,,,,,,,,,,,,,,,,,,,,,,,,,,,"MET12106/01/20 09:51:02 METAR KJFK 011451Z 34007G16KT 10SM SCT060 SCT110 SCT250 17/02 A3024 RMK AO2 SLP240 T01670017 58008 (BH)","FM-15","7",,,,,,,,,,,,,,,,,,,,,,,,,,,,"2009-05-01"
"74486094789","2020-06-01T10:00:00","FM-12","4",,"ESE","1.5","mi","TEMP, PRECIP, SNOW",,,"PSY, SRG, SNOWBOARD",,,"FAA CWO",,,,,,,,,,,,,,,,,,,,,,,,,,,,"35","62",,,"+0.02","8","37","30.24","57","30.21","9.94","49","340",,"8",,,,,,,,,,,,,,,,,,,,,,,,,,,,,,,,,,,,,"SYN07474486 32766 43407 10167 20017 30229 40240 58008 91451 333 91016 555 90115=","FM-12","4",,,,,,,,,,,,,,,,,,,,,,,,,,,,"2009-05-01"
"74486094789","2020-06-01T10:51:00","FM-15","7",,"ESE","1.5","mi","TEMP, PRECIP, SNOW",,,"PSY, SRG, SNOWBOARD",,,"FAA CWO",,,,,,,,,,,,,,,,,,,,,,,,,,,"30.21","36","64","0.00",,,,"35","30.21","SCT:04 65 BKN:07 110 BKN:07 250","30.19","10.00","50","300",,"11",,,,,,,,,,,,,,,,,,,,,,,,,,,,,,,,,,,,,"MET11206/01/20 10:51:02 METAR KJFK 011551Z 30010KT 10SM SCT065 BKN110 BKN250 18/02 A3021 RMK AO2 SLP231 T01780022 (BH)","FM-15","7",,,,,,,,,,,,,,,,,,,,,,,,,,,,"2009-05-01"
"74486094789","2020-06-01T11:51:00","FM-15","7",,"ESE","1.5","mi","TEMP, PRECIP, SNOW",,,"PSY, SRG, SNOWBOARD",,,"FAA CWO",,,,,,,,,,,,,,,,,,,,,,,,,,,"30.18","37","63","0.00",,,,"38","30.18","SCT:04 65 BKN:07 85","30.16","10.00","50","250",,"6",,,,,,,,,,,,,,,,,,,,,,,,,,,,,,,,,,,,,"MET10506/01/20 11:51:02 METAR KJFK 011651Z 25005KT 10SM SCT065 BKN085 17/03 A3018 RMK AO2 SLP220 T01720028 (BH)","FM-15","7",,,,,,,,,,,,,,,,,,,,,,,,,,,,"2009-05-01"
"74486094789","2020-06-01T12:21:00","FM-16","7",,"ESE","1.5","mi","TEMP, PRECIP, SNOW",,,"PSY, SRG, SNOWBOARD",,,"FAA CWO",,,,,,,,,,,,,,,,,,,,,,,,,,,"30.17","40","62",,,,,"44",,"BKN:07 70 BKN:07 95","30.14","10.00","51","190",,"14",,,,,,,,,,,,,,,,,,,,,,,,,,,,,,,,,,,,,"MET10906/01/20 12:21:02 SPECI KJFK 011721Z 19012KT 10SM BKN070 BKN095 17/04 A3017 RMK AO2 WSHFT 1705 T01670044 (BH)","FM-16","7",,,,,,,,,,,,,,,,,,,,,,,,,,,,"2009-05-01"
"74486094789","2020-06-01T12:51:00","FM-15","7",,"ESE","1.5","mi","TEMP, PRECIP, SNOW",,,"PSY, SRG, SNOWBOARD",,,"FAA CWO",,,,,,,,,,,,,,,,,,,,,,,,,,,"30.16","40","66","0.00",,"+0.08","7","39","30.15","BKN:07 70 BKN:07 90","30.14","10.00","53","250","17","14",,,,,,,,,,,,,,,,,,,,,,,,,,,,,,,,,,,,,"MET13706/01/20 12:51:02 METAR KJFK 011751Z 25012G15KT 10SM BKN070 BKN090 19/04 A3016 RMK AO2 WSHFT 1705 SLP211 T01890044 10189 20139 57028 (BH)","FM-15","7",,,,,,,,,,,,,,,,,,,,,,,,,,,,"2009-05-01"
"74486094789","2020-06-01T13:00:00","FM-12","4",,"ESE","1.5","mi","TEMP, PRECIP, SNOW",,,"PSY, SRG, SNOWBOARD",,,"FAA CWO",,,,,,,,,,,,,,,,,,,,,,,,,,,,"40","66",,,"+0.08","7","39","30.15","74","30.13","9.94","53","250",,"14",,,,,,,,,,,,,,,,,,,,,,,,,,,,,,,,,,,,,"SYN08674486 32866 62512 10189 20044 30202 40211 57028 91751 333 10189 20139 91015 555 90118=","FM-12","4",,,,,,,,,,,,,,,,,,,,,,,,,,,,"2009-05-01"
"74486094789","2020-06-01T13:51:00","FM-15","7",,"ESE","1.5","mi","TEMP, PRECIP, SNOW",,,"PSY, SRG, SNOWBOARD",,,"FAA CWO",,,,,,,,,,,,,,,,,,,,,,,,,,,"30.13","37","68","0.00",,,,"32","30.13","BKN:07 70 BKN:07 95","30.11","10.00","53","VRB","16","8",,,,,,,,,,,,,,,,,,,,,,,,,,,,,,,,,,,,,"MET10806/01/20 13:51:02 METAR KJFK 011851Z 28007G14KT 10SM BKN070 BKN095 20/03 A3013 RMK AO2 SLP202 T02000028 (RR)","FM-15","7",,,,,,,,,,,,,,,,,,,,,,,,,,,,"2009-05-01"
"74486094789","2020-06-01T14:51:00","FM-15","7",,"ESE","1.5","mi","TEMP, PRECIP, SNOW",,,"PSY, SRG, SNOWBOARD",,,"FAA CWO",,,,,,,,,,,,,,,,,,,,,,,,,,,"30.11","38","67","0.00",,,,"35","30.11","BKN:07 75 BKN:07 90","30.09","10.00","53","240",,"14",,,,,,,,,,,,,,,,,,,,,,,,,,,,,,,,,,,,,"MET10506/01/20 14:51:02 METAR KJFK 011951Z 24012KT 10SM BKN075 BKN090 19/03 A3011 RMK AO2 SLP196 T01940033 (RR)","FM-15","7",,,,,,,,,,,,,,,,,,,,,,,,,,,,"2009-05-01"
"74486094789","2020-06-01T15:51:00","FM-15","7",,"ESE","1.5","mi","TEMP, PRECIP, SNOW",,,"PSY, SRG, SNOWBOARD",,,"FAA CWO",,,,,,,,,,,,,,,,,,,,,,,,,,,"30.09","46","63","0.00",,"+0.06","6","54","30.09","SCT:04 75 BKN:07 90","30.06","10.00","54","180",,"20",,,,,,,,,,,,,,,,,,,,,,,,,,,,,,,,,,,,,"MET11106/01/20 15:51:02 METAR KJFK 012051Z 18017KT 10SM SCT075 BKN090 17/08 A3009 RMK AO2 SLP190 T01720078 56022 (RR)","FM-15","7",,,,,,,,,,,,,,,,,,,,,,,,,,,,"2009-05-01"
"74486094789","2020-06-01T16:00:00","FM-12","4",,"ESE","1.5","mi","TEMP, PRECIP, SNOW",,,"PSY, SRG, SNOWBOARD",,,"FAA CWO",,,,,,,,,,,,,,,,,,,,,,,,,,,,"46","63",,,"+0.06","6","54","30.09","74","30.06","9.94","54","180",,"20",,,,,,,,,,,,,,,,,,,,,,,,,,,,,,,,,,,,,"SYN06474486 32866 61817 10172 20078 30178 40190 56022 92051 555 90121=","FM-12","4",,,,,,,,,,,,,,,,,,,,,,,,,,,,"2009-05-01"
"74486094789","2020-06-01T16:51:00","FM-15","7",,"ESE","1.5","mi","TEMP, PRECIP, SNOW",,,"PSY, SRG, SNOWBOARD",,,"FAA CWO",,,,,,,,,,,,,,,,,,,,,,,,,,,"30.08","48","62","0.00",,,,"60","30.08","SCT:04 75 SCT:04 90","30.06","10.00","55","180",,"14",,,,,,,,,,,,,,,,,,,,,,,,,,,,,,,,,,,,,"MET10506/01/20 16:51:02 METAR KJFK 012151Z 18012KT 10SM SCT075 SCT090 17/09 A3008 RMK AO2 SLP185 T01670089 (RR)","FM-15","7",,,,,,,,,,,,,,,,,,,,,,,,,,,,"2009-05-01"
"74486094789","2020-06-01T17:51:00","FM-15","7",,"ESE","1.5","mi","TEMP, PRECIP, SNOW",,,"PSY, SRG, SNOWBOARD",,,"FAA CWO",,,,,,,,,,,,,,,,,,,,,,,,,,,"30.08","35","69","0.00",,,,"29","30.08","BKN:07 95 BKN:07 140 BKN:07 250","30.06","10.00","52","330",,"16",,,,,,,,,,,,,,,,,,,,,,,,,,,,,,,,,,,,,"MET11206/01/20 17:51:02 METAR KJFK 012251Z 33014KT 10SM BKN095 BKN140 BKN250 21/02 A3008 RMK AO2 SLP186 T02060017 (RR)","FM-15","7",,,,,,,,,,,,,,,,,,,,,,,,,,,,"2009-05-01"
"74486094789","2020-06-01T18:51:00","FM-15","7",,"ESE","1.5","mi","TEMP, PRECIP, SNOW",,,"PSY, SRG, SNOWBOARD",,,"FAA CWO",,,,,,,,,,,,,,,,,,,,,,,,,,,"30.09","36","69","T","-RA:02 |RA |RA","-0.00","3","30","30.09","FEW:02 65 BKN:07 90 BKN:07 110","30.06","10.00","53","330",,"11",,,,,,,,,,,,,,,,,,,,,,,,,,,,,,,,,,,,,"MET15206/01/20 18:51:02 METAR KJFK 012351Z 33010KT 10SM -RA FEW065 BKN090 BKN110 21/02 A3009 RMK AO2 RAB37 SLP190 P0000 60000 T02060022 10222 20167 53001 (RR)","FM-15","7",,,,,,,,,,,,,,,,,,,,,,,,,,,,"2009-05-01"
"74486094789","2020-06-01T19:00:00","FM-12","4",,"ESE","1.5","mi","TEMP, PRECIP, SNOW",,,"PSY, SRG, SNOWBOARD",,,"FAA CWO",,,,,,,,,,,,,,,,,,,,,,,,,,,,"36","69",,"||RA","-0.00","3","30","30.09","57","30.06","9.94","53","330",,"11",,,,,,,,,,,,,,,,,,,,,,,,,,,,,,,,,,,,,"SYN09274486 11766 63310 10206 20022 30178 40190 53001 69901 761// 92351 333 10222 20106 555 90200=","FM-12","4",,,,,,,,,,,,,,,,,,,,,,,,,,,,"2009-05-01"
"74486094789","2020-06-01T19:51:00","FM-15","7",,"ESE","1.5","mi","TEMP, PRECIP, SNOW",,,"PSY, SRG, SNOWBOARD",,,"FAA CWO",,,,,,,,,,,,,,,,,,,,,,,,,,,"30.10","34","66","0.00",,,,"30","30.10","FEW:02 90 SCT:04 120 SCT:04 250","30.08","10.00","51","010",,"8",,,,,,,,,,,,,,,,,,,,,,,,,,,,,,,,,,,,,"MET12106/01/20 19:51:01 METAR KJFK 020051Z 01007KT 10SM FEW090 SCT120 SCT250 19/01 A3010 RMK AO2 RAE2352 SLP192 P0000 T01890011","FM-15","7",,,,,,,,,,,,,,,,,,,,,,,,,,,,"2009-05-01"
"74486094789","2020-06-01T20:51:00","FM-15","7",,"ESE","1.5","mi","TEMP, PRECIP, SNOW",,,"PSY, SRG, SNOWBOARD",,,"FAA CWO",,,,,,,,,,,,,,,,,,,,,,,,,,,"30.12","38","61","0.00",,,,"43","30.11","SCT:04 100 BKN:07 130","30.09","10.00","50","060",,"3",,,,,,,,,,,,,,,,,,,,,,,,,,,,,,,,,,,,,"MET10006/01/20 20:51:01 METAR KJFK 020151Z 06003KT 10SM SCT100 BKN130 16/03 A3012 RMK AO2 SLP198 T01610033","FM-15","7",,,,,,,,,,,,,,,,,,,,,,,,,,,,"2009-05-01"
"74486094789","2020-06-01T21:51:00","FM-15","7",,"ESE","1.5","mi","TEMP, PRECIP, SNOW",,,"PSY, SRG, SNOWBOARD",,,"FAA CWO",,,,,,,,,,,,,,,,,,,,,,,,,,,"30.12","46","59","0.00",,"-0.02","0","62","30.11","BKN:07 120","30.09","10.00","52","130",,"3",,,,,,,,,,,,,,,,,,,,,,,,,,,,,,,,,,,,,"MET10506/01/20 21:51:02 METAR KJFK 020251Z 13003KT 10SM BKN120 15/08 A3012 RMK AO2 SLP197 60000 T01500078 50007","FM-15","7",,,,,,,,,,,,,,,,,,,,,,,,,,,,"2009-05-01"
"74486094789","2020-06-01T22:00:00","FM-12","4",,"ESE","1.5","mi","TEMP, PRECIP, SNOW",,,"PSY, SRG, SNOWBOARD",,,"FAA CWO",,,,,,,,,,,,,,,,,,,,,,,,,,,,"46","59",,,"0.02","9","62","30.11",,"30.09","9.94","52","130",,"3",,,,,,,,,,,,,,,,,,,,,,,,,,,,,,,,,,,,,"SYN07074486 12966 61303 10150 20078 30188 40197 50007 69907 90251 555 90203=","FM-12","4",,,,,,,,,,,,,,,,,,,,,,,,,,,,"2009-05-01"
"74486094789","2020-06-01T22:51:00","FM-15","7",,"ESE","1.5","mi","TEMP, PRECIP, SNOW",,,"PSY, SRG, SNOWBOARD",,,"FAA CWO",,,,,,,,,,,,,,,,,,,,,,,,,,,"30.11","50","57","0.00",,,,"78","30.11","SCT:04 120","30.09","10.00","53","000",,"0",,,,,,,,,,,,,,,,,,,,,,,,,,,,,,,,,,,,,"MET09306/01/20 22:51:02 METAR KJFK 020351Z 00000KT 10SM SCT120 14/10 A3011 RMK AO2 SLP195 T01390100","FM-15","7",,,,,,,,,,,,,,,,,,,,,,,,,,,,"2009-05-01"
"74486094789","2020-06-01T23:51:00","FM-15","7",,"ESE","1.5","mi","TEMP, PRECIP, SNOW",,,"PSY, SRG, SNOWBOARD",,,"FAA CWO",,,,,,,,,,,,,,,,,,,,,,,,,,,"30.10","49","55","0.00",,,,"80","30.09","SCT:04 95","30.08","10.00","52","210",,"6",,,,,,,,,,,,,,,,,,,,,,,,,,,,,,,,,,,,,"MET10306/01/20 23:51:02 METAR KJFK 020451Z 21005KT 10SM SCT095 13/09 A3010 RMK AO2 SLP191 T01280094 402220106","FM-15","7",,,,,,,,,,,,,,,,,,,,,,,,,,,,"2009-05-01"
"74486094789","2020-06-01T23:59:00","SOD  ","6",,"ESE","1.5","mi","TEMP, PRECIP, SNOW",,,"PSY, SRG, SNOWBOARD",,,"FAA CWO",,,,"38","62","46","30.16","30.15","50","9.5","0","-3.8","3","72","51","280","26","T","0","0.0","190","22","RA",,,,,,,,,,,,,,,,,,,,,,,,,,,,,,,,,,,,,,,,,,,,,,,,,,,,,,,,"SOD73924 HR PRECIPITATION (IN):    T SNOW DEPTH (IN):0     24 HR SNOWFALL (IN):0.0  24 HR MAX TEMP (F): 7224 HR MIN TEMP (F): 51AVERAGE STATION PRESSURE:30.150 MINIMUM SEA LEVEL PRESSURE:30.06 TIME OF OCCURRENCE:1704 PEAK WIND SPEED (MPH): 26 PEAK WIND DIR (DEG):280 PEAK WIND TIME (LST):      FASTEST 2MIN SPEED (MPH): 22FASTEST 2MIN DIR (DEG):190 FASTEST 2MIN TIME (LST):     AVERAGE WIND SPEED (MPH): 9.5 24 HR AVG TEMP (F): 62DEPART FROM NORMAL: -4  HEATING DEGREE DAYS:  3 COOLING DEGREE DAYS:  0 LATEST DAY MAX TEMP (0700-1900 LST):72  LATEST NIGHT MIN TEMP(1900-0800 LST):51 HOURLY INCREMENTAL PRECIPITATION VALUES (IN):.00 0.00 0.00 0.00 0.00 0.00 0.00 0.00 0.00 0.00 0.00 0.00 0.00 0.00 0.00 0.00 0.00 0.00 T    0.00 0.00 0.00 0.00 0.00","SOD  ","6",,,,,,,,,,,,,,,,,,,,,,,,,"0426","1920",,"2009-05-01"
"74486094789","2020-06-02T00:51:00","FM-15","7",,"ESE","1.5","mi","TEMP, PRECIP, SNOW",,,"PSY, SRG, SNOWBOARD",,,"FAA CWO",,,,,,,,,,,,,,,,,,,,,,,,,,,"30.08","48","58","0.00",,"+0.03","8","70","30.08","SCT:04 95 BKN:07 250","30.06","10.00","53","230",,"6",,,,,,,,,,,,,,,,,,,,,,,,,,,,,,,,,,,,,"MET12906/02/20 00:51:02 METAR KJFK 020551Z 23005KT 10SM SCT095 BKN250 14/09 A3008 RMK AO2 SLP187 60000 T01440089 10206 20122 58011 (JC)","FM-15","7",,,,,,,,,,,,,,,,,,,,,,,,,,,,"2009-05-01"
"74486094789","2020-06-02T01:00:00","FM-12","4",,"ESE","1.5","mi","TEMP, PRECIP, SNOW",,,"PSY, SRG, SNOWBOARD",,,"FAA CWO",,,,,,,,,,,,,,,,,,,,,,,,,,,,"48","58",,,"+0.03","8","70","30.08",,"30.05","9.94","53","230",,"6",,,,,,,,,,,,,,,,,,,,,,,,,,,,,,,,,,,,,"SYN08674486 12966 62305 10144 20089 30175 40187 58011 69901 90551 333 10206 20106 555 90206=","FM-12","4",,,,,,,,,,,,,,,,,,,,,,,,,,,,"2009-05-01"
"74486094789","2020-06-02T01:51:00","FM-15","7",,"ESE","1.5","mi","TEMP, PRECIP, SNOW",,,"PSY, SRG, SNOWBOARD",,,"FAA CWO",,,,,,,,,,,,,,,,,,,,,,,,,,,"30.07","46","59","0.00",,,,"62","30.07","SCT:04 100 SCT:04 250","30.04","10.00","52","230",,"6",,,,,,,,,,,,,,,,,,,,,,,,,,,,,,,,,,,,,"MET10506/02/20 01:51:02 METAR KJFK 020651Z 23005KT 10SM SCT100 SCT250 15/08 A3007 RMK AO2 SLP182 T01500078 (JC)","FM-15","7",,,,,,,,,,,,,,,,,,,,,,,,,,,,"2009-05-01"
"74486094789","2020-06-02T02:51:00","FM-15","7",,"ESE","1.5","mi","TEMP, PRECIP, SNOW",,,"PSY, SRG, SNOWBOARD",,,"FAA CWO",,,,,,,,,,,,,,,,,,,,,,,,,,,"30.06","51","58","0.00",,,,"78","30.06","FEW:02 100 BKN:07 250","30.03","10.00","54","240",,"10",,,,,,,,,,,,,,,,,,,,,,,,,,,,,,,,,,,,,"MET10506/02/20 02:51:02 METAR KJFK 020751Z 24009KT 10SM FEW100 BKN250 14/11 A3006 RMK AO2 SLP180 T01440106 (JC)","FM-15","7",,,,,,,,,,,,,,,,,,,,,,,,,,,,"2009-05-01"
"74486094789","2020-06-02T03:51:00","FM-15","7",,"ESE","1.5","mi","TEMP, PRECIP, SNOW",,,"PSY, SRG, SNOWBOARD",,,"FAA CWO",,,,,,,,,,,,,,,,,,,,,,,,,,,"30.07","48","59","0.00",,"+0.01","5","67","30.07","SCT:04 100 BKN:07 250","30.04","10.00","53","260",,"8",,,,,,,,,,,,,,,,,,,,,,,,,,,,,,,,,,,,,"MET11106/02/20 03:51:02 METAR KJFK 020851Z 26007KT 10SM SCT100 BKN250 15/09 A3007 RMK AO2 SLP182 T01500089 55005 (JC)","FM-15","7",,,,,,,,,,,,,,,,,,,,,,,,,,,,"2009-05-01"
"74486094789","2020-06-02T04:00:00","FM-12","4",,"ESE","1.5","mi","TEMP, PRECIP, SNOW",,,"PSY, SRG, SNOWBOARD",,,"FAA CWO",,,,,,,,,,,,,,,,,,,,,,,,,,,,"48","59",,,"+0.01","5","67","30.07",,"30.04","9.94","53","260",,"8",,,,,,,,,,,,,,,,,,,,,,,,,,,,,,,,,,,,,"SYN06474486 32966 62607 10150 20089 30172 40182 55005 90851 555 90209=","FM-12","4",,,,,,,,,,,,,,,,,,,,,,,,,,,,"2009-05-01"
"74486094789","2020-06-02T04:51:00","FM-15","7",,"ESE","1.5","mi","TEMP, PRECIP, SNOW",,,"PSY, SRG, SNOWBOARD",,,"FAA CWO",,,,,,,,,,,,,,,,,,,,,,,,,,,"30.08","43","60","0.00",,,,"53","30.08","BKN:07 95 BKN:07 170 BKN:07 250","30.06","10.00","51","270",,"9",,,,,,,,,,,,,,,,,,,,,,,,,,,,,,,,,,,,,"MET11206/02/20 04:51:02 METAR KJFK 020951Z 27008KT 10SM BKN095 BKN170 BKN250 16/06 A3008 RMK AO2 SLP185 T01560061 (JC)","FM-15","7",,,,,,,,,,,,,,,,,,,,,,,,,,,,"2009-05-01"
"74486094789","2020-06-02T05:51:00","FM-15","7",,"ESE","1.5","mi","TEMP, PRECIP, SNOW",,,"PSY, SRG, SNOWBOARD",,,"FAA CWO",,,,,,,,,,,,,,,,,,,,,,,,,,,"30.08","46","61","0.00",,,,"58","30.08","SCT:04 110 BKN:07 180 BKN:07 250","30.06","10.00","53","240",,"9",,,,,,,,,,,,,,,,,,,,,,,,,,,,,,,,,,,,,"MET11206/02/20 05:51:02 METAR KJFK 021051Z 24008KT 10SM SCT110 BKN180 BKN250 16/08 A3008 RMK AO2 SLP186 T01610078 (BH)","FM-15","7",,,,,,,,,,,,,,,,,,,,,,,,,,,,"2009-05-01"
"74486094789","2020-06-02T06:51:00","FM-15","7",,"ESE","1.5","mi","TEMP, PRECIP, SNOW",,,"PSY, SRG, SNOWBOARD",,,"FAA CWO",,,,,,,,,,,,,,,,,,,,,,,,,,,"30.07","44","64","0.00",,"+0.00","8","48","30.06","FEW:02 120 BKN:07 180 BKN:07 250","30.04","10.00","54","270",,"7",,,,,,,,,,,,,,,,,,,,,,,,,,,,,,,,,,,,,"MET13006/02/20 06:51:02 METAR KJFK 021151Z 27006KT 10SM FEW120 BKN180 BKN250 18/07 A3007 RMK AO2 SLP181 T01780067 10178 20122 58001 (BH)","FM-15","7",,,,,,,,,,,,,,,,,,,,,,,,,,,,"2009-05-01"
"74486094789","2020-06-02T07:00:00","FM-12","4",,"ESE","1.5","mi","TEMP, PRECIP, SNOW",,,"PSY, SRG, SNOWBOARD",,,"FAA CWO",,,,,,,,,,,,,,,,,,,,,,,,,,,,"44","64",,,"+0.00","8","48","30.06",,"30.04","9.94","54","270",,"7",,,,,,,,,,,,,,,,,,,,,,,,,,,,,,,,,,,,,"SYN08074486 32966 62706 10178 20067 30172 40181 58001 91151 333 10222 20122 555 90212=","FM-12","4",,,,,,,,,,,,,,,,,,,,,,,,,,,,"2009-05-01"
"74486094789","2020-06-02T07:51:00","FM-15","7",,"ESE","1.5","mi","TEMP, PRECIP, SNOW",,,"PSY, SRG, SNOWBOARD",,,"FAA CWO",,,,,,,,,,,,,,,,,,,,,,,,,,,"30.07","46","65","0.00",,,,"51","30.06","BKN:07 130 BKN:07 180 BKN:07 250","30.04","10.00","55","240",,"10",,,,,,,,,,,,,,,,,,,,,,,,,,,,,,,,,,,,,"MET11206/02/20 07:51:02 METAR KJFK 021251Z 24009KT 10SM BKN130 BKN180 BKN250 18/08 A3007 RMK AO2 SLP181 T01830078 (BH)","FM-15","7",,,,,,,,,,,,,,,,,,,,,,,,,,,,"2009-05-01"
"74486094789","2020-06-02T08:51:00","FM-15","7",,"ESE","1.5","mi","TEMP, PRECIP, SNOW",,,"PSY, SRG, SNOWBOARD",,,"FAA CWO",,,,,,,,,,,,,,,,,,,,,,,,,,,"30.06","50","66","0.00",,,,"56","30.05","FEW:02 120 BKN:07 160 BKN:07 250","30.03","10.00","57","230",,"8",,,,,,,,,,,,,,,,,,,,,,,,,,,,,,,,,,,,,"MET11206/02/20 08:51:02 METAR KJFK 021351Z 23007KT 10SM FEW120 BKN160 BKN250 19/10 A3006 RMK AO2 SLP177 T01890100 (BH)","FM-15","7",,,,,,,,,,,,,,,,,,,,,,,,,,,,"2009-05-01"
"74486094789","2020-06-02T09:51:00","FM-15","7",,"ESE","1.5","mi","TEMP, PRECIP, SNOW",,,"PSY, SRG, SNOWBOARD",,,"FAA CWO",,,,,,,,,,,,,,,,,,,,,,,,,,,"30.03","49","70","0.00",,"+0.04","8","47","30.03","BKN:07 120 BKN:07 250","30.01","10.00","58","230",,"10",,,,,,,,,,,,,,,,,,,,,,,,,,,,,,,,,,,,,"MET11106/02/20 09:51:02 METAR KJFK 021451Z 23009KT 10SM BKN120 BKN250 21/09 A3003 RMK AO2 SLP169 T02110094 58012 (BH)","FM-15","7",,,,,,,,,,,,,,,,,,,,,,,,,,,,"2009-05-01"
"74486094789","2020-06-02T10:00:00","FM-12","4",,"ESE","1.5","mi","TEMP, PRECIP, SNOW",,,"PSY, SRG, SNOWBOARD",,,"FAA CWO",,,,,,,,,,,,,,,,,,,,,,,,,,,,"49","70",,,"+0.04","8","47","30.03",,"30.00","9.94","58","230",,"10",,,,,,,,,,,,,,,,,,,,,,,,,,,,,,,,,,,,,"SYN06474486 32966 62309 10211 20094 30158 40169 58012 91451 555 90215=","FM-12","4",,,,,,,,,,,,,,,,,,,,,,,,,,,,"2009-05-01"
"74486094789","2020-06-02T10:51:00","FM-15","7",,"ESE","1.5","mi","TEMP, PRECIP, SNOW",,,"PSY, SRG, SNOWBOARD",,,"FAA CWO",,,,,,,,,,,,,,,,,,,,,,,,,,,"30.02","49","67","0.00",,,,"53","30.02","BKN:07 100 OVC:08 250","30.00","10.00","57","240","24","18",,,,,,,,,,,,,,,,,,,,,,,,,,,,,,,,,,,,,"MET10806/02/20 10:51:02 METAR KJFK 021551Z 24016G21KT 10SM BKN100 OVC250 19/09 A3002 RMK AO2 SLP166 T01940094 (BH)","FM-15","7",,,,,,,,,,,,,,,,,,,,,,,,,,,,"2009-05-01"
"74486094789","2020-06-02T11:51:00","FM-15","7",,"ESE","1.5","mi","TEMP, PRECIP, SNOW",,,"PSY, SRG, SNOWBOARD",,,"FAA CWO",,,,,,,,,,,,,,,,,,,,,,,,,,,"30.01","50","68","0.00",,,,"53","30.00","BKN:07 100 OVC:08 250","29.98","10.00","58","230",,"13",,,,,,,,,,,,,,,,,,,,,,,,,,,,,,,,,,,,,"MET10506/02/20 11:51:02 METAR KJFK 021651Z 23011KT 10SM BKN100 OVC250 20/10 A3001 RMK AO2 SLP160 T02000100 (BH)","FM-15","7",,,,,,,,,,,,,,,,,,,,,,,,,,,,"2009-05-01"
"74486094789","2020-06-02T12:51:00","FM-15","7",,"ESE","1.5","mi","TEMP, PRECIP, SNOW",,,"PSY, SRG, SNOWBOARD",,,"FAA CWO",,,,,,,,,,,,,,,,,,,,,,,,,,,"29.97","48","70","0.00",,"+0.06","8","46","29.97","FEW:02 47 BKN:07 100 BKN:07 250","29.95","10.00","58","230",,"15",,,,,,,,,,,,,,,,,,,,,,,,,,,,,,,,,,,,,"MET13006/02/20 12:51:02 METAR KJFK 021751Z 23013KT 10SM FEW047 BKN100 BKN250 21/09 A2997 RMK AO2 SLP149 T02110089 10217 20172 58020 (BH)","FM-15","7",,,,,,,,,,,,,,,,,,,,,,,,,,,,"2009-05-01"
"74486094789","2020-06-02T13:00:00","FM-12","4",,"ESE","1.5","mi","TEMP, PRECIP, SNOW",,,"PSY, SRG, SNOWBOARD",,,"FAA CWO",,,,,,,,,,,,,,,,,,,,,,,,,,,,"48","70",,,"+0.06","8","46","29.97","41","29.94","9.94","58","230",,"15",,,,,,,,,,,,,,,,,,,,,,,,,,,,,,,,,,,,,"SYN08074486 32666 62313 10211 20089 30138 40149 58020 91751 333 10217 20167 555 90218=","FM-12","4",,,,,,,,,,,,,,,,,,,,,,,,,,,,"2009-05-01"
"74486094789","2020-06-02T13:51:00","FM-15","7",,"ESE","1.5","mi","TEMP, PRECIP, SNOW",,,"PSY, SRG, SNOWBOARD",,,"FAA CWO",,,,,,,,,,,,,,,,,,,,,,,,,,,"29.95","45","73","0.00",,,,"37","29.94","FEW:02 50 BKN:07 90 BKN:07 130","29.93","10.00","58","240",,"13",,,,,,,,,,,,,,,,,,,,,,,,,,,,,,,,,,,,,"MET11206/02/20 13:51:02 METAR KJFK 021851Z 24011KT 10SM FEW050 BKN090 BKN130 23/07 A2995 RMK AO2 SLP140 T02280072 (RR)","FM-15","7",,,,,,,,,,,,,,,,,,,,,,,,,,,,"2009-05-01"
"74486094789","2020-06-02T14:51:00","FM-15","7",,"ESE","1.5","mi","TEMP, PRECIP, SNOW",,,"PSY, SRG, SNOWBOARD",,,"FAA CWO",,,,,,,,,,,,,,,,,,,,,,,,,,,"29.91","48","73","0.00",,,,"41","29.91","FEW:02 50 FEW:02 85 BKN:07 140","29.88","10.00","59","240",,"10",,,,,,,,,,,,,,,,,,,,,,,,,,,,,,,,,,,,,"MET11206/02/20 14:51:02 METAR KJFK 021951Z 24009KT 10SM FEW050 FEW085 BKN140 23/09 A2991 RMK AO2 SLP128 T02280089 (RR)","FM-15","7",,,,,,,,,,,,,,,,,,,,,,,,,,,,"2009-05-01"
"74486094789","2020-06-02T15:49:00","FM-16","7",,"ESE","1.5","mi","TEMP, PRECIP, SNOW",,,"PSY, SRG, SNOWBOARD",,,"FAA CWO",,,,,,,,,,,,,,,,,,,,,,,,,,,"29.88","48","72",,,,,"44",,"FEW:02 50 BKN:07 85 BKN:07 130","29.85","10.00","59","180",,"14",,,,,,,,,,,,,,,,,,,,,,,,,,,,,,,,,,,,,"MET10606/02/20 15:49:02 SPECI KJFK 022049Z 18012KT 10SM FEW050 BKN085 BKN130 22/09 A2988 RMK AO2 WSHFT 2033 (RR)","FM-16","7",,,,,,,,,,,,,,,,,,,,,,,,,,,,"2009-05-01"
"74486094789","2020-06-02T15:51:00","FM-15","7",,"ESE","1.5","mi","TEMP, PRECIP, SNOW",,,"PSY, SRG, SNOWBOARD",,,"FAA CWO",,,,,,,,,,,,,,,,,,,,,,,,,,,"29.88","49","71","0.00",,"+0.07","6","46","29.88","FEW:02 50 BKN:07 85 BKN:07 130","29.85","10.00","59","190",,"13",,,,,,,,,,,,,,,,,,,,,,,,,,,,,,,,,,,,,"MET12906/02/20 15:51:02 METAR KJFK 022051Z 19011KT 10SM FEW050 BKN085 BKN130 22/09 A2988 RMK AO2 WSHFT 2033 SLP117 T02170094 56023 (RR)","FM-15","7",,,,,,,,,,,,,,,,,,,,,,,,,,,,"2009-05-01"
"74486094789","2020-06-02T16:00:00","FM-12","4",,"ESE","1.5","mi","TEMP, PRECIP, SNOW",,,"PSY, SRG, SNOWBOARD",,,"FAA CWO",,,,,,,,,,,,,,,,,,,,,,,,,,,,"49","71",,,"+0.07","6","46","29.88","57","29.85","9.94","59","190",,"13",,,,,,,,,,,,,,,,,,,,,,,,,,,,,,,,,,,,,"SYN06474486 32766 61911 10217 20094 30107 40117 56023 92051 555 90221=","FM-12","4",,,,,,,,,,,,,,,,,,,,,,,,,,,,"2009-05-01"
"74486094789","2020-06-02T16:51:00","FM-15","7",,"ESE","1.5","mi","TEMP, PRECIP, SNOW",,,"PSY, SRG, SNOWBOARD",,,"FAA CWO",,,,,,,,,,,,,,,,,,,,,,,,,,,"29.86","53","67","0.00",,,,"61","29.85","BKN:07 75 BKN:07 130 BKN:07 250","29.83","10.00","59","180",,"13",,,,,,,,,,,,,,,,,,,,,,,,,,,,,,,,,,,,,"MET11206/02/20 16:51:02 METAR KJFK 022151Z 18011KT 10SM BKN075 BKN130 BKN250 19/12 A2986 RMK AO2 SLP110 T01940117 (RR)","FM-15","7",,,,,,,,,,,,,,,,,,,,,,,,,,,,"2009-05-01"
"74486094789","2020-06-02T17:51:00","FM-15","7",,"ESE","1.5","mi","TEMP, PRECIP, SNOW",,,"PSY, SRG, SNOWBOARD",,,"FAA CWO",,,,,,,,,,,,,,,,,,,,,,,,,,,"29.85","52","68","0.00",,,,"57","29.85","BKN:07 70 BKN:07 120 BKN:07 250","29.83","10.00","59","210",,"7",,,,,,,,,,,,,,,,,,,,,,,,,,,,,,,,,,,,,"MET11206/02/20 17:51:02 METAR KJFK 022251Z 21006KT 10SM BKN070 BKN120 BKN250 20/11 A2985 RMK AO2 SLP107 T02000111 (RR)","FM-15","7",,,,,,,,,,,,,,,,,,,,,,,,,,,,"2009-05-01"
"74486094789","2020-06-02T18:51:00","FM-15","7",,"ESE","1.5","mi","TEMP, PRECIP, SNOW",,,"PSY, SRG, SNOWBOARD",,,"FAA CWO",,,,,,,,,,,,,,,,,,,,,,,,,,,"29.86","51","69","0.00",,"+0.02","5","53","29.85","FEW:02 80 BKN:07 100 BKN:07 120","29.83","10.00","59","240",,"14",,,,,,,,,,,,,,,,,,,,,,,,,,,,,,,,,,,,,"MET13006/02/20 18:51:02 METAR KJFK 022351Z 24012KT 10SM FEW080 BKN100 BKN120 21/11 A2986 RMK AO2 SLP110 T02060106 10239 20194 55007 (RR)","FM-15","7",,,,,,,,,,,,,,,,,,,,,,,,,,,,"2009-05-01"
"74486094789","2020-06-02T19:00:00","FM-12","4",,"ESE","1.5","mi","TEMP, PRECIP, SNOW",,,"PSY, SRG, SNOWBOARD",,,"FAA CWO",,,,,,,,,,,,,,,,,,,,,,,,,,,,"51","69",,,"+0.02","5","53","29.85","74","29.83","9.94","59","240",,"14",,,,,,,,,,,,,,,,,,,,,,,,,,,,,,,,,,,,,"SYN08074486 32866 62412 10206 20106 30100 40110 55007 92351 333 10239 20122 555 90300=","FM-12","4",,,,,,,,,,,,,,,,,,,,,,,,,,,,"2009-05-01"
"74486094789","2020-06-02T19:51:00","FM-15","7",,"ESE","1.5","mi","TEMP, PRECIP, SNOW",,,"PSY, SRG, SNOWBOARD",,,"FAA CWO",,,,,,,,,,,,,,,,,,,,,,,,,,,"29.86","51","68","0.00",,,,"55","29.85","BKN:07 65 BKN:07 85 BKN:07 120","29.83","10.00","58","230",,"11",,,,,,,,,,,,,,,,,,,,,,,,,,,,,,,,,,,,,"MET10706/02/20 19:51:01 METAR KJFK 030051Z 23010KT 10SM BKN065 BKN085 BKN120 20/11 A2986 RMK AO2 SLP110 T02000106","FM-15","7",,,,,,,,,,,,,,,,,,,,,,,,,,,,"2009-05-01"
"74486094789","2020-06-02T20:51:00","FM-15","7",,"ESE","1.5","mi","TEMP, PRECIP, SNOW",,,"PSY, SRG, SNOWBOARD",,,"FAA CWO",,,,,,,,,,,,,,,,,,,,,,,,,,,"29.87","52","67","0.00",,,,"59","29.86","BKN:07 65 BKN:07 110 BKN:07 250","29.85","10.00","59","230",,"10",,,,,,,,,,,,,,,,,,,,,,,,,,,,,,,,,,,,,"MET10706/02/20 20:51:01 METAR KJFK 030151Z 23009KT 10SM BKN065 BKN110 BKN250 19/11 A2987 RMK AO2 SLP113 T01940111","FM-15","7",,,,,,,,,,,,,,,,,,,,,,,,,,,,"2009-05-01"
"74486094789","2020-06-02T21:51:00","FM-15","7",,"ESE","1.5","mi","TEMP, PRECIP, SNOW",,,"PSY, SRG, SNOWBOARD",,,"FAA CWO",,,,,,,,,,,,,,,,,,,,,,,,,,,"29.85","53","65","0.00",,"+0.00","8","66","29.85","BKN:07 60","29.83","10.00","58","200",,"6",,,,,,,,,,,,,,,,,,,,,,,,,,,,,,,,,,,,,"MET09906/02/20 21:51:01 METAR KJFK 030251Z 20005KT 10SM BKN060 18/12 A2985 RMK AO2 SLP109 T01830117 58001","FM-15","7",,,,,,,,,,,,,,,,,,,,,,,,,,,,"2009-05-01"
"74486094789","2020-06-02T22:00:00","FM-12","4",,"ESE","1.5","mi","TEMP, PRECIP, SNOW",,,"PSY, SRG, SNOWBOARD",,,"FAA CWO",,,,,,,,,,,,,,,,,,,,,,,,,,,,"53","65",,,"+0.00","8","66","29.85","57","29.82","9.94","58","200",,"6",,,,,,,,,,,,,,,,,,,,,,,,,,,,,,,,,,,,,"SYN06474486 32766 62005 10183 20117 30097 40109 58001 90251 555 90303=","FM-12","4",,,,,,,,,,,,,,,,,,,,,,,,,,,,"2009-05-01"
"74486094789","2020-06-02T22:51:00","FM-15","7",,"ESE","1.5","mi","TEMP, PRECIP, SNOW",,,"PSY, SRG, SNOWBOARD",,,"FAA CWO",,,,,,,,,,,,,,,,,,,,,,,,,,,"29.83","52","64","0.00",,,,"65","29.83","BKN:07 55 BKN:07 250","29.80","10.00","57","210",,"8",,,,,,,,,,,,,,,,,,,,,,,,,,,,,,,,,,,,,"MET10006/02/20 22:51:02 METAR KJFK 030351Z 21007KT 10SM BKN055 BKN250 18/11 A2983 RMK AO2 SLP100 T01780111","FM-15","7",,,,,,,,,,,,,,,,,,,,,,,,,,,,"2009-05-01"
"74486094789","2020-06-02T23:51:00","FM-15","7",,"ESE","1.5","mi","TEMP, PRECIP, SNOW",,,"PSY, SRG, SNOWBOARD",,,"FAA CWO",,,,,,,,,,,,,,,,,,,,,,,,,,,"29.79","53","63","0.00",,,,"70","29.79","FEW:02 55 BKN:07 80 OVC:08 250","29.77","10.00","57","190",,"9",,,,,,,,,,,,,,,,,,,,,,,,,,,,,,,,,,,,,"MET17006/02/20 23:51:02 METAR KJFK 030451Z 19008KT 10SM FEW055 BKN080 OVC250 17/12 A2979 RMK AO2 LTG DSNT W SLP089 FRQ LTGICCG DSNT SW-W CB DSNT SW-W MOV SE T01720117 402390122","FM-15","7",,,,,,,,,,,,,,,,,,,,,,,,,,,,"2009-05-01"
"74486094789","2020-06-02T23:59:00","SOD  ","6",,"ESE","1.5","mi","TEMP, PRECIP, SNOW",,,"PSY, SRG, SNOWBOARD",,,"FAA CWO",,,,"49","65","56","29.96","29.96","56","10.2","0","-1.1","0","75","54","230","24","0.00","0","0.0","230","18",,,,,,,,,,,,,,,,,,,,,,,,,,,,,,,,,,,,,,,,,,,,,,,,,,,,,,,,,"SOD73924 HR PRECIPITATION (IN): 0.00 SNOW DEPTH (IN):0     24 HR SNOWFALL (IN):0.0  24 HR MAX TEMP (F): 7524 HR MIN TEMP (F): 54AVERAGE STATION PRESSURE:29.965 MINIMUM SEA LEVEL PRESSURE:29.78 TIME OF OCCURRENCE:2359 PEAK WIND SPEED (MPH): 24 PEAK WIND DIR (DEG):230 PEAK WIND TIME (LST):      FASTEST 2MIN SPEED (MPH): 18FASTEST 2MIN DIR (DEG):230 FASTEST 2MIN TIME (LST):     AVERAGE WIND SPEED (MPH):10.2 24 HR AVG TEMP (F): 65DEPART FROM NORMAL: -1  HEATING DEGREE DAYS:  0 COOLING DEGREE DAYS:  0 LATEST DAY MAX TEMP (0700-1900 LST):75  LATEST NIGHT MIN TEMP(1900-0800 LST):54 HOURLY INCREMENTAL PRECIPITATION VALUES (IN):.00 0.00 0.00 0.00 0.00 0.00 0.00 0.00 0.00 0.00 0.00 0.00 0.00 0.00 0.00 0.00 0.00 0.00 0.00 0.00 0.00 0.00 0.00 0.00","SOD  ","6",,,,,,,,,,,,,,,,,,,,,,,,,"0426","1921",,"2009-05-01"
"74486094789","2020-06-03T00:51:00","FM-15","7",,"ESE","1.5","mi","TEMP, PRECIP, SNOW",,,"PSY, SRG, SNOWBOARD",,,"FAA CWO",,,,,,,,,,,,,,,,,,,,,,,,,,,"29.78","56","62","T","-RA:02 |RA |RA","+0.08","6","80","29.78","FEW:02 50 SCT:04 90 OVC:08 140","29.75","10.00","59","220",,"8",,,,,,,,,,,,,,,,,,,,,,,,,,,,,,,,,,,,,"MET19806/03/20 00:51:02 METAR KJFK 030551Z 22007KT 10SM -RA FEW050 SCT090 OVC140 17/13 A2978 RMK AO2 LTG DSNT SW RAB02 SLP083 FRQ LTGIC DSNT S CB DSNT S MOV SE P0000 60000 T01670133 10211 20167 56026 (JC)","FM-15","7",,,,,,,,,,,,,,,,,,,,,,,,,,,,"2009-05-01"
"74486094789","2020-06-03T01:00:00","FM-12","4",,"ESE","1.5","mi","TEMP, PRECIP, SNOW",,,"PSY, SRG, SNOWBOARD",,,"FAA CWO",,,,,,,,,,,,,,,,,,,,,,,,,,,,"56","62",,"||RA","+0.08","6","80","29.78","57","29.75","9.94","59","220",,"8",,,,,,,,,,,,,,,,,,,,,,,,,,,,,,,,,,,,,"SYN09274486 11766 82207 10167 20133 30073 40083 56026 69901 761// 90551 333 10211 20122 555 90306=","FM-12","4",,,,,,,,,,,,,,,,,,,,,,,,,,,,"2009-05-01"
"74486094789","2020-06-03T01:51:00","FM-15","7",,"ESE","1.5","mi","TEMP, PRECIP, SNOW",,,"PSY, SRG, SNOWBOARD",,,"FAA CWO",,,,,,,,,,,,,,,,,,,,,,,,,,,"29.74","56","61","T",,,,"84","29.74","FEW:02 50 OVC:08 90","29.72","10.00","58","210",,"10",,,,,,,,,,,,,,,,,,,,,,,,,,,,,,,,,,,,,"MET17606/03/20 01:51:02 METAR KJFK 030651Z 21009KT 10SM FEW050 OVC090 16/13 A2974 RMK AO2 LTG DSNT SW AND W RAE02 SLP070 OCNL LTGIC DSNT SW-W CB DSNT SW-W MOV SE P0000 T01610133 (JC)","FM-15","7",,,,,,,,,,,,,,,,,,,,,,,,,,,,"2009-05-01"
"74486094789","2020-06-03T02:51:00","FM-15","7",,"ESE","1.5","mi","TEMP, PRECIP, SNOW",,,"PSY, SRG, SNOWBOARD",,,"FAA CWO",,,,,,,,,,,,,,,,,,,,,,,,,,,"29.73","59","60","0.03","-RA:02 |RA |RA",,,"96","29.72","BKN:07 55 OVC:08 110","29.70","10.00","59","240",,"9",,,,,,,,,,,,,,,,,,,,,,,,,,,,,,,,,,,,,"MET17606/03/20 02:51:02 METAR KJFK 030751Z 24008KT 10SM -RA BKN055 OVC110 16/15 A2973 RMK AO2 LTG DSNT S-NW RAB10 SLP066 OCNL LTGIC DSNT S-SW CB DSNT S-SW MOV SE P0001 T01560150 (JC)","FM-15","7",,,,,,,,,,,,,,,,,,,,,,,,,,,,"2009-05-01"
"74486094789","2020-06-03T03:13:00","FM-16","7",,"ESE","1.5","mi","TEMP, PRECIP, SNOW",,,"PSY, SRG, SNOWBOARD",,,"FAA CWO",,,,,,,,,,,,,,,,,,,,,,,,,,,"29.74","60","61","0.04","TS:7 RA:02 BR:1 |RA TS |RA",,,"97",,"BKN:07 55 OVC:08 110","29.72","4.00","60","260",,"10",,,,,,,,,,,,,,,,,,,,,,,,,,,,,,,,,,,,,"MET18406/03/20 03:13:02 SPECI KJFK 030813Z 26009KT 4SM R04R/5500VP6000FT TSRA BR BKN055CB OVC110 16/16 A2974 RMK AO2 LTG DSNT S-NW TSB12 OCNL LTGIC OHD-S TS OHD-S MOV SE P0004 T01610156 (JC)","FM-16","7",,,,,,,,,,,,,,,,,,,,,,,,,,,,"2009-05-01"
"74486094789","2020-06-03T03:49:00","FM-16","6",,"ESE","1.5","mi","TEMP, PRECIP, SNOW",,,"PSY, SRG, SNOWBOARD",,,"FAA CWO",,,,,,,,,,,,,,,,,,,,,,,,,,,"29.71","63","63",,"-RA:02 |RA |RA",,,"100",,"BKN:07 50 BKN:07 100","29.69","8.00","63","230",,"10",,,,,,,,,,,,,,,,,,,,,,,,,,,,,,,,,,,,,"MET15606/03/20 03:49:02 SPECI KJFK 030849Z 23009KT 8SM -RA BKN050 BKN100 17/17 A2971 RMK AO2 LTG DSNT S TSB12E49 FRQ LTGIC DSNT S CB DSNT S MOV SE P0026 FIBI (JC)","FM-16","6",,,,,,,,,,,,,,,,,,,,,,,,,,,,"2009-05-01"
"74486094789","2020-06-03T03:51:00","FM-15","7",,"ESE","1.5","mi","TEMP, PRECIP, SNOW",,,"PSY, SRG, SNOWBOARD",,,"FAA CWO",,,,,,,,,,,,,,,,,,,,,,,,,,,"29.71","62","63","0.24","-RA:02 |RA |RA","+0.07","6","97","29.71","BKN:07 50 BKN:07 100","29.69","8.00","62","230",,"10",,,,,,,,,,,,,,,,,,,,,,,,,,,,,,,,,,,,,"MET18006/03/20 03:51:02 METAR KJFK 030851Z 23009KT 8SM -RA BKN050 BKN100 17/17 A2971 RMK AO2 LTG DSNT S TSB12E49 SLP060 FRQ LTGIC DSNT S CB DSNT S MOV SE P0026 60027 T01720167 56023 (JC)","FM-15","7",,,,,,,,,,,,,,,,,,,,,,,,,,,,"2009-05-01"
"74486094789","2020-06-03T04:00:00","FM-12","4",,"ESE","1.5","mi","TEMP, PRECIP, SNOW",,,"PSY, SRG, SNOWBOARD",,,"FAA CWO",,,,,,,,,,,,,,,,,,,,,,,,,,,,"62","63",,"||RA","+0.07","6","97","29.71","57","29.68","7.46","62","230",,"10",,,,,,,,,,,,,,,,,,,,,,,,,,,,,,,,,,,,,"SYN07674486 11762 62309 10172 20167 30050 40060 56023 60077 761// 90851 555 90309=","FM-12","4",,,,,,,,,,,,,,,,,,,,,,,,,,,,"2009-05-01"
"74486094789","2020-06-03T04:51:00","FM-15","7",,"ESE","1.5","mi","TEMP, PRECIP, SNOW",,,"PSY, SRG, SNOWBOARD",,,"FAA CWO",,,,,,,,,,,,,,,,,,,,,,,,,,,"29.70","61","63","0.00",,,,"93","29.70","FEW:02 50 BKN:07 120 BKN:07 250","29.67","10.00","62","220",,"9",,,,,,,,,,,,,,,,,,,,,,,,,,,,,,,,,,,,,"MET12606/03/20 04:51:02 METAR KJFK 030951Z 22008KT 10SM FEW050 BKN120 BKN250 17/16 A2970 RMK AO2 RAE0855 SLP056 P0000 T01720161 (JC)","FM-15","7",,,,,,,,,,,,,,,,,,,,,,,,,,,,"2009-05-01"
"74486094789","2020-06-03T05:51:00","FM-15","7",,"ESE","1.5","mi","TEMP, PRECIP, SNOW",,,"PSY, SRG, SNOWBOARD",,,"FAA CWO",,,,,,,,,,,,,,,,,,,,,,,,,,,"29.69","60","64","0.00",,,,"87","29.69","FEW:02 50 FEW:02 120 BKN:07 250","29.67","10.00","62","220",,"16",,,,,,,,,,,,,,,,,,,,,,,,,,,,,,,,,,,,,"MET11206/03/20 05:51:02 METAR KJFK 031051Z 22014KT 10SM FEW050 FEW120 BKN250 18/16 A2969 RMK AO2 SLP053 T01780156 (BH)","FM-15","7",,,,,,,,,,,,,,,,,,,,,,,,,,,,"2009-05-01"
"74486094789","2020-06-03T06:51:00","FM-15","7",,"ESE","1.5","mi","TEMP, PRECIP, SNOW",,,"PSY, SRG, SNOWBOARD",,,"FAA CWO",,,,,,,,,,,,,,,,,,,,,,,,,,,"29.69","60","66","0.00",,"+0.02","6","81","29.68","SCT:04 80 SCT:04 120 BKN:07 250","29.67","10.00","62","220",,"11",,,,,,,,,,,,,,,,,,,,,,,,,,,,,,,,,,,,,"MET14206/03/20 06:51:02 METAR KJFK 031151Z 22010KT 10SM SCT080 SCT120 BKN250 19/16 A2969 RMK AO2 SLP052 60027 70027 T01890156 10189 20156 56008 (BH)","FM-15","7",,,,,,,,,,,,,,,,,,,,,,,,,,,,"2009-05-01"
"74486094789","2020-06-03T07:00:00","FM-12","4",,"ESE","1.5","mi","TEMP, PRECIP, SNOW",,,"PSY, SRG, SNOWBOARD",,,"FAA CWO",,,,,,,,,,,,,,,,,,,,,,,,,,,,"60","66",,,"+0.02","6","81","29.68","74","29.66","9.94","62","220",,"11",,,,,,,,,,,,,,,,,,,,,,,,,,,,,,,,,,,,,"SYN09274486 12866 62210 10189 20156 30043 40052 56008 60071 91151 333 10239 20156 70069 555 90312=","FM-12","4",,,,,,,,,,,,,,,,,,,,,,,,,,,,"2009-05-01"
"74486094789","2020-06-03T07:51:00","FM-15","7",,"ESE","1.5","mi","TEMP, PRECIP, SNOW",,,"PSY, SRG, SNOWBOARD",,,"FAA CWO",,,,,,,,,,,,,,,,,,,,,,,,,,,"29.67","61","69","0.00",,,,"76","29.67","FEW:02 80 BKN:07 250","29.65","10.00","64","210",,"11",,,,,,,,,,,,,,,,,,,,,,,,,,,,,,,,,,,,,"MET10506/03/20 07:51:02 METAR KJFK 031251Z 21010KT 10SM FEW080 BKN250 21/16 A2967 RMK AO2 SLP047 T02060161 (BH)","FM-15","7",,,,,,,,,,,,,,,,,,,,,,,,,,,,"2009-05-01"
"74486094789","2020-06-03T08:51:00","FM-15","7",,"ESE","1.5","mi","TEMP, PRECIP, SNOW",,,"PSY, SRG, SNOWBOARD",,,"FAA CWO",,,,,,,,,,,,,,,,,,,,,,,,,,,"29.66","61","69","0.00",,,,"76","29.66","FEW:02 95 BKN:07 200 BKN:07 250","29.64","10.00","64","200",,"13",,,,,,,,,,,,,,,,,,,,,,,,,,,,,,,,,,,,,"MET11206/03/20 08:51:02 METAR KJFK 031351Z 20011KT 10SM FEW095 BKN200 BKN250 21/16 A2966 RMK AO2 SLP043 T02060161 (BH)","FM-15","7",,,,,,,,,,,,,,,,,,,,,,,,,,,,"2009-05-01"
"74486094789","2020-06-03T09:51:00","FM-15","7",,"ESE","1.5","mi","TEMP, PRECIP, SNOW",,,"PSY, SRG, SNOWBOARD",,,"FAA CWO",,,,,,,,,,,,,,,,,,,,,,,,,,,"29.66","62","70","0.00",,"+0.03","6","76","29.65","FEW:02 50 FEW:02 110 SCT:04 200","29.64","10.00","65","190",,"11",,,,,,,,,,,,,,,,,,,,,,,,,,,,,,,,,,,,,"MET11806/03/20 09:51:02 METAR KJFK 031451Z 19010KT 10SM FEW050 FEW110 SCT200 21/17 A2966 RMK AO2 SLP042 T02110167 56011 (BH)","FM-15","7",,,,,,,,,,,,,,,,,,,,,,,,,,,,"2009-05-01"
"74486094789","2020-06-03T10:00:00","FM-12","4",,"ESE","1.5","mi","TEMP, PRECIP, SNOW",,,"PSY, SRG, SNOWBOARD",,,"FAA CWO",,,,,,,,,,,,,,,,,,,,,,,,,,,,"62","70",,,"+0.03","6","76","29.65","57","29.63","9.94","65","190",,"11",,,,,,,,,,,,,,,,,,,,,,,,,,,,,,,,,,,,,"SYN06474486 32766 61910 10211 20167 30033 40042 56011 91451 555 90315=","FM-12","4",,,,,,,,,,,,,,,,,,,,,,,,,,,,"2009-05-01"
"74486094789","2020-06-03T10:51:00","FM-15","7",,"ESE","1.5","mi","TEMP, PRECIP, SNOW",,,"PSY, SRG, SNOWBOARD",,,"FAA CWO",,,,,,,,,,,,,,,,,,,,,,,,,,,"29.62","62","73","0.00",,,,"69","29.62","FEW:02 50 BKN:07 180 BKN:07 250","29.59","10.00","66","180",,"10",,,,,,,,,,,,,,,,,,,,,,,,,,,,,,,,,,,,,"MET12106/03/20 10:51:02 METAR KJFK 031551Z 18009KT 10SM FEW050 BKN180 BKN250 23/17 A2962 RMK AO2 SLP030 VIRGA NW T02280167 (BH)","FM-15","7",,,,,,,,,,,,,,,,,,,,,,,,,,,,"2009-05-01"
"74486094789","2020-06-03T11:51:00","FM-15","7",,"ESE","1.5","mi","TEMP, PRECIP, SNOW",,,"PSY, SRG, SNOWBOARD",,,"FAA CWO",,,,,,,,,,,,,,,,,,,,,,,,,,,"29.64","63","76","0.00",,,,"64","29.64","FEW:02 50 BKN:07 140 BKN:07 250","29.62","10.00","68","240",,"7",,,,,,,,,,,,,,,,,,,,,,,,,,,,,,,,,,,,,"MET13006/03/20 11:51:02 METAR KJFK 031651Z 24006KT 10SM FEW050 BKN140 BKN250 24/17 A2964 RMK AO2 SLP037 CB DSNT SW MOV SE T02440172 (BH)","FM-15","7",,,,,,,,,,,,,,,,,,,,,,,,,,,,"2009-05-01"
"74486094789","2020-06-03T12:51:00","FM-15","7",,"ESE","1.5","mi","TEMP, PRECIP, SNOW",,,"PSY, SRG, SNOWBOARD",,,"FAA CWO",,,,,,,,,,,,,,,,,,,,,,,,,,,"29.64","65","74","0.03s","RA:02 |RA |RA","+0.01","6","74","29.64","FEW:02 35 BKN:07 95 OVC:08 140","29.62","7.00","68","270","25","21",,,,,,,,,,,,,,,,,,,,,,,,,,,,,,,,,,,,,"MET15306/03/20 12:51:02 METAR KJFK 031751Z 27018G22KT 7SM RA FEW035 BKN095 OVC140 23/18 A2964 RMK AO2 RAB29 SLP037 P0001 60001 T02330183 10261 20189 56005 (BH)","FM-15","7",,,,,,,,,,,,,,,,,,,,,,,,,,,,"2009-05-01"
"74486094789","2020-06-03T13:00:00","FM-12","4",,"ESE","1.5","mi","TEMP, PRECIP, SNOW",,,"PSY, SRG, SNOWBOARD",,,"FAA CWO",,,,,,,,,,,,,,,,,,,,,,,,,,,,"65","74",,"||RA","+0.01","6","74","29.64","41","29.61","6.84","68","270",,"21",,,,,,,,,,,,,,,,,,,,,,,,,,,,,,,,,,,,,"SYN09874486 11661 82718 10233 20183 30026 40037 56005 69931 763// 91751 333 10261 20189 91022 555 90318=","FM-12","4",,,,,,,,,,,,,,,,,,,,,,,,,,,,"2009-05-01"
"74486094789","2020-06-03T13:16:00","FM-16","7",,"ESE","1.5","mi","TEMP, PRECIP, SNOW",,,"PSY, SRG, SNOWBOARD",,,"FAA CWO",,,,,,,,,,,,,,,,,,,,,,,,,,,"29.57","67","69","0.07","RA:02 BR:1 |RA |RA",,,"93",,"FEW:02 35 BKN:07 100 OVC:08 120","29.54","5.00","68","180",,"8",,,,,,,,,,,,,,,,,,,,,,,,,,,,,,,,,,,,,"MET13406/03/20 13:16:02 SPECI KJFK 031816Z 18007KT 5SM RA BR FEW035 BKN100 OVC120 21/19 A2957 RMK AO2 WSHFT 1756 PRESFR P0007 T02060194 (RR)","FM-16","7",,,,,,,,,,,,,,,,,,,,,,,,,,,,"2009-05-01"
"74486094789","2020-06-03T13:51:00","FM-15","7",,"ESE","1.5","mi","TEMP, PRECIP, SNOW",,,"PSY, SRG, SNOWBOARD",,,"FAA CWO",,,,,,,,,,,,,,,,,,,,,,,,,,,"29.63","70","74","0.06",,,,"88","29.63","FEW:02 37 SCT:04 110 BKN:07 140","29.61","10.00","71","250",,"10",,,,,,,,,,,,,,,,,,,,,,,,,,,,,,,,,,,,,"MET13506/03/20 13:51:02 METAR KJFK 031851Z 25009KT 10SM FEW037 SCT110 BKN140 23/21 A2963 RMK AO2 WSHFT 1756 RAE38 SLP033 P0008 T02330211 (RR)","FM-15","7",,,,,,,,,,,,,,,,,,,,,,,,,,,,"2009-05-01"
"74486094789","2020-06-03T14:51:00","FM-15","7",,"ESE","1.5","mi","TEMP, PRECIP, SNOW",,,"PSY, SRG, SNOWBOARD",,,"FAA CWO",,,,,,,,,,,,,,,,,,,,,,,,,,,"29.64","68","76","0.00",,,,"77","29.63","FEW:02 17 FEW:02 37 SCT:04 110","29.62","10.00","71","250",,"15",,,,,,,,,,,,,,,,,,,,,,,,,,,,,,,,,,,,,"MET11206/03/20 14:51:02 METAR KJFK 031951Z 25013KT 10SM FEW017 FEW037 SCT110 24/20 A2964 RMK AO2 SLP035 T02440200 (RR)","FM-15","7",,,,,,,,,,,,,,,,,,,,,,,,,,,,"2009-05-01"
"74486094789","2020-06-03T15:51:00","FM-15","7",,"ESE","1.5","mi","TEMP, PRECIP, SNOW",,,"PSY, SRG, SNOWBOARD",,,"FAA CWO",,,,,,,,,,,,,,,,,,,,,,,,,,,"29.62","67","76","0.00",,"+0.02","8","74","29.62","FEW:02 17 FEW:02 37 FEW:02 110","29.59","10.00","70","230",,"16",,,,,,,,,,,,,,,,,,,,,,,,,,,,,,,,,,,,,"MET12406/03/20 15:51:02 METAR KJFK 032051Z 23014KT 10SM FEW017 FEW037 FEW110 24/19 A2962 RMK AO2 SLP031 60008 T02440194 58006 (RR)","FM-15","7",,,,,,,,,,,,,,,,,,,,,,,,,,,,"2009-05-01"
"74486094789","2020-06-03T16:00:00","FM-12","4",,"ESE","1.5","mi","TEMP, PRECIP, SNOW",,,"PSY, SRG, SNOWBOARD",,,"FAA CWO",,,,,,,,,,,,,,,,,,,,,,,,,,,,"67","76",,,"+0.02","8","74","29.62","15","29.59","9.94","70","230",,"16",,,,,,,,,,,,,,,,,,,,,,,,,,,,,,,,,,,,,"SYN07074486 12466 42314 10244 20194 30019 40031 58006 60027 92051 555 90321=","FM-12","4",,,,,,,,,,,,,,,,,,,,,,,,,,,,"2009-05-01"
"74486094789","2020-06-03T16:51:00","FM-15","7",,"ESE","1.5","mi","TEMP, PRECIP, SNOW",,,"PSY, SRG, SNOWBOARD",,,"FAA CWO",,,,,,,,,,,,,,,,,,,,,,,,,,,"29.64","67","78","0.00",,,,"69","29.64","FEW:02 34 FEW:02 110 SCT:04 250","29.62","10.00","71","250",,"13",,,,,,,,,,,,,,,,,,,,,,,,,,,,,,,,,,,,,"MET11206/03/20 16:51:02 METAR KJFK 032151Z 25011KT 10SM FEW034 FEW110 SCT250 26/19 A2964 RMK AO2 SLP037 T02560194 (RR)","FM-15","7",,,,,,,,,,,,,,,,,,,,,,,,,,,,"2009-05-01"
"74486094789","2020-06-03T17:51:00","FM-15","7",,"ESE","1.5","mi","TEMP, PRECIP, SNOW",,,"PSY, SRG, SNOWBOARD",,,"FAA CWO",,,,,,,,,,,,,,,,,,,,,,,,,,,"29.63","65","79","0.00",,,,"62","29.63","FEW:02 20 FEW:02 34 SCT:04 120","29.61","10.00","70","250",,"11",,,,,,,,,,,,,,,,,,,,,,,,,,,,,,,,,,,,,"MET12306/03/20 17:51:02 METAR KJFK 032251Z 25010KT 10SM FEW020 FEW034 SCT120 26/18 A2963 RMK AO2 SLP034 TCU DSNT S T02610183 (RR)","FM-15","7",,,,,,,,,,,,,,,,,,,,,,,,,,,,"2009-05-01"
"74486094789","2020-06-03T18:51:00","FM-15","7",,"ESE","1.5","mi","TEMP, PRECIP, SNOW",,,"PSY, SRG, SNOWBOARD",,,"FAA CWO",,,,,,,,,,,,,,,,,,,,,,,,,,,"29.63","64","74","0.00",,"-0.01","1","71","29.63","FEW:02 34 SCT:04 120 BKN:07 180","29.61","10.00","68","170",,"7",,,,,,,,,,,,,,,,,,,,,,,,,,,,,,,,,,,,,"MET14606/03/20 18:51:02 METAR KJFK 032351Z 17006KT 10SM FEW034 SCT120 BKN180 23/18 A2963 RMK AO2 SLP034 CB DSNT S 60008 T02330178 10267 20206 51003 (RR)","FM-15","7",,,,,,,,,,,,,,,,,,,,,,,,,,,,"2009-05-01"
"74486094789","2020-06-03T19:00:00","FM-12","4",,"ESE","1.5","mi","TEMP, PRECIP, SNOW",,,"PSY, SRG, SNOWBOARD",,,"FAA CWO",,,,,,,,,,,,,,,,,,,,,,,,,,,,"64","74",,,"-0.01","1","71","29.63","41","29.60","9.94","68","170",,"7",,,,,,,,,,,,,,,,,,,,,,,,,,,,,,,,,,,,,"SYN08674486 12666 61706 10233 20178 30023 40034 51003 60021 92351 333 10267 20156 555 90400=","FM-12","4",,,,,,,,,,,,,,,,,,,,,,,,,,,,"2009-05-01"
"74486094789","2020-06-03T19:51:00","FM-15","7",,"ESE","1.5","mi","TEMP, PRECIP, SNOW",,,"PSY, SRG, SNOWBOARD",,,"FAA CWO",,,,,,,,,,,,,,,,,,,,,,,,,,,"29.67","63","68","0.00",,,,"84","29.67","SCT:04 55 BKN:07 70 BKN:07 150","29.65","10.00","65","190",,"15",,,,,,,,,,,,,,,,,,,,,,,,,,,,,,,,,,,,,"MET14806/03/20 19:51:01 METAR KJFK 040051Z 19013KT 10SM SCT055 BKN070 BKN150 20/17 A2967 RMK AO2 LTG DSNT N SLP047 OCNL LTGIC DSNT NW CB DSNT NW T02000172","FM-15","7",,,,,,,,,,,,,,,,,,,,,,,,,,,,"2009-05-01"
"74486094789","2020-06-03T20:35:00","FM-16","7",,"ESE","1.5","mi","TEMP, PRECIP, SNOW",,,"PSY, SRG, SNOWBOARD",,,"FAA CWO",,,,,,,,,,,,,,,,,,,,,,,,,,,"29.71","65","67","0.17","TS:7 +RA:02 BR:1 |RA TS |RA",,,"93",,"SCT:04 18 BKN:07 34 OVC:08 110","29.69","4.00","66","000",,"0",,,,,,,,,,,,,,,,,,,,,,,,,,,,,,,,,,,,,"MET21306/03/20 20:35:01 SPECI KJFK 040135Z 00000KT 4SM R04R/2400VP6000FT +TSRA BR SCT018 BKN034CB OVC110 19/18 A2971 RMK AO2 LTG DSNT NE AND E RAB22 TSB35 OCNL LTGIC OHD AND SE-SW TS OHD AND SE-SW MOV SE P0017 T01940183","FM-16","7",,,,,,,,,,,,,,,,,,,,,,,,,,,,"2009-05-01"
"74486094789","2020-06-03T20:51:00","FM-15","7",,"ESE","1.5","mi","TEMP, PRECIP, SNOW",,,"PSY, SRG, SNOWBOARD",,,"FAA CWO",,,,,,,,,,,,,,,,,,,,,,,,,,,"29.71","65","67","0.19","TS:7 |TS |RA",,,"93","29.71","FEW:02 22 BKN:07 44 BKN:07 80","29.69","10.00","66","070",,"6",,,,,,,,,,,,,,,,,,,,,,,,,,,,,,,,,,,,,"MET15906/03/20 20:51:01 METAR KJFK 040151Z 07005KT 10SM TS FEW022 BKN044CB BKN0 19/18 A2971 RMK AO2 RAB22E50 TSB35 SLP061 FRQ LTGIC E-S TS E-S MOV SE P0019 T01940183","FM-15","7",,,,,,,,,,,,,,,,,,,,,,,,,,,,"2009-05-01"
"74486094789","2020-06-03T21:00:00","FM-16","7",,"ESE","1.5","mi","TEMP, PRECIP, SNOW",,,"PSY, SRG, SNOWBOARD",,,"FAA CWO",,,,,,,,,,,,,,,,,,,,,,,,,,,"29.71","65","67",,,,,"93",,"FEW:02 32 SCT:04 44 BKN:07 80","29.69","10.00","66","050",,"6",,,,,,,,,,,,,,,,,,,,,,,,,,,,,,,,,,,,,"MET15506/03/20 21:00:01 SPECI KJFK 040200Z 05005KT 10SM FEW032 SCT044 BKN080 19/18 A2971 RMK AO2 LTG DSNT E AND S TSE00 OCNL LTGIC DSNT E-S CB DSNT E-S T01940183","FM-16","7",,,,,,,,,,,,,,,,,,,,,,,,,,,,"2009-05-01"
"74486094789","2020-06-03T21:51:00","FM-15","7",,"ESE","1.5","mi","TEMP, PRECIP, SNOW",,,"PSY, SRG, SNOWBOARD",,,"FAA CWO",,,,,,,,,,,,,,,,,,,,,,,,,,,"29.71","65","66","0.00",,"-0.07","0","96","29.70","FEW:02 45 SCT:04 130 BKN:07 250","29.69","10.00","65","070",,"3",,,,,,,,,,,,,,,,,,,,,,,,,,,,,,,,,,,,,"MET16806/03/20 21:51:01 METAR KJFK 040251Z 07003KT 10SM FEW045 SCT130 BKN250 19/18 A2971 RMK AO2 TSE00 SLP059 OCNL LTGICCA DSNT E-SE CB DSNT E-SE MOV SE 60019 T01890183 50025","FM-15","7",,,,,,,,,,,,,,,,,,,,,,,,,,,,"2009-05-01"
"74486094789","2020-06-03T22:00:00","FM-12","4",,"ESE","1.5","mi","TEMP, PRECIP, SNOW",,,"PSY, SRG, SNOWBOARD",,,"FAA CWO",,,,,,,,,,,,,,,,,,,,,,,,,,,,"65","66",,,"0.07","9","96","29.70","41","29.68","9.94","65","070",,"3",,,,,,,,,,,,,,,,,,,,,,,,,,,,,,,,,,,,,"SYN07074486 12666 60703 10189 20183 30050 40059 50025 60057 90251 555 90403=","FM-12","4",,,,,,,,,,,,,,,,,,,,,,,,,,,,"2009-05-01"
"74486094789","2020-06-03T22:51:00","FM-15","7",,"ESE","1.5","mi","TEMP, PRECIP, SNOW",,,"PSY, SRG, SNOWBOARD",,,"FAA CWO",,,,,,,,,,,,,,,,,,,,,,,,,,,"29.73","64","64","0.00",,,,"100","29.73","SCT:04 80 BKN:07 250","29.70","10.00","64","200",,"5",,,,,,,,,,,,,,,,,,,,,,,,,,,,,,,,,,,,,"MET10006/03/20 22:51:02 METAR KJFK 040351Z 20004KT 10SM SCT080 BKN250 18/18 A2973 RMK AO2 SLP067 T01780178","FM-15","7",,,,,,,,,,,,,,,,,,,,,,,,,,,,"2009-05-01"
"74486094789","2020-06-03T23:51:00","FM-15","7",,"ESE","1.5","mi","TEMP, PRECIP, SNOW",,,"PSY, SRG, SNOWBOARD",,,"FAA CWO",,,,,,,,,,,,,,,,,,,,,,,,,,,"29.75","64","65","0.00",,,,"97","29.75","SCT:04 60 BKN:07 250","29.72","8.00","64","220",,"7",,,,,,,,,,,,,,,,,,,,,,,,,,,,,,,,,,,,,"MET10906/03/20 23:51:02 METAR KJFK 040451Z 22006KT 8SM SCT060 BKN250 18/18 A2975 RMK AO2 SLP073 T01830178 402670156","FM-15","7",,,,,,,,,,,,,,,,,,,,,,,,,,,,"2009-05-01"
"74486094789","2020-06-03T23:59:00","SOD  ","6",,"ESE","1.5","mi","TEMP, PRECIP, SNOW",,,"PSY, SRG, SNOWBOARD",,,"FAA CWO",,,,"63","70","82","29.68","29.65","65","10.7","5","3.6","0","80","60","270","29","0.55","0","0.0","270","22","TS RA BR",,,,,,,,,,,,,,,,,,,,,,,,,,,,,,,,,,,,,,,,,,,,,,,,,,,,,,,,"SOD75724 HR PRECIPITATION (IN): 0.55 SNOW DEPTH (IN):0     24 HR SNOWFALL (IN):0.0  WEATHER(CODE):13  24 HR MAX TEMP (F): 8024 HR MIN TEMP (F): 60AVERAGE STATION PRESSURE:29.655 MINIMUM SEA LEVEL PRESSURE:29.57 TIME OF OCCURRENCE:1322 PEAK WIND SPEED (MPH): 29 PEAK WIND DIR (DEG):270 PEAK WIND TIME (LST):      FASTEST 2MIN SPEED (MPH): 22FASTEST 2MIN DIR (DEG):270 FASTEST 2MIN TIME (LST):     AVERAGE WIND SPEED (MPH):10.7 24 HR AVG TEMP (F): 70DEPART FROM NORMAL:  4  HEATING DEGREE DAYS:  0 COOLING DEGREE DAYS:  5 LATEST DAY MAX TEMP (0700-1900 LST):80  LATEST NIGHT MIN TEMP(1900-0800 LST):60 HOURLY INCREMENTAL PRECIPITATION VALUES (IN):    T    0.03 0.24 0.00 0.00 0.00 0.00 0.00 0.00 0.00 0.00 0.03 0.06 0.00 0.00 0.00 0.00 0.00 0.00 0.19 0.00 0.00 0.00","SOD  ","6",,,,,,,,,,,,,,,,,,,,,,,,,"0425","1922",,"2009-05-01"
"74486094789","2020-06-04T00:51:00","FM-15","7",,"ESE","1.5","mi","TEMP, PRECIP, SNOW",,,"PSY, SRG, SNOWBOARD",,,"FAA CWO",,,,,,,,,,,,,,,,,,,,,,,,,,,"29.75","65","66","0.00",,"-0.04","1","96","29.75","SCT:04 60 BKN:07 250","29.72","9.00","65","240",,"6",,,,,,,,,,,,,,,,,,,,,,,,,,,,,,,,,,,,,"MET12806/04/20 00:51:02 METAR KJFK 040551Z 24005KT 9SM SCT060 BKN250 19/18 A2975 RMK AO2 SLP074 60019 T01890183 10233 20172 51015 (JC)","FM-15","7",,,,,,,,,,,,,,,,,,,,,,,,,,,,"2009-05-01"
"74486094789","2020-06-04T01:00:00","FM-12","4",,"ESE","1.5","mi","TEMP, PRECIP, SNOW",,,"PSY, SRG, SNOWBOARD",,,"FAA CWO",,,,,,,,,,,,,,,,,,,,,,,,,,,,"65","66",,,"-0.04","1","96","29.75","57","29.72","8.70","65","240",,"6",,,,,,,,,,,,,,,,,,,,,,,,,,,,,,,,,,,,,"SYN08674486 12764 62405 10189 20183 30063 40074 51015 60051 90551 333 10233 20156 555 90406=","FM-12","4",,,,,,,,,,,,,,,,,,,,,,,,,,,,"2009-05-01"
"74486094789","2020-06-04T01:51:00","FM-15","7",,"ESE","1.5","mi","TEMP, PRECIP, SNOW",,,"PSY, SRG, SNOWBOARD",,,"FAA CWO",,,,,,,,,,,,,,,,,,,,,,,,,,,"29.76","64","67","0.00",,,,"91","29.76","SCT:04 65 BKN:07 250","29.74","10.00","65","290",,"5",,,,,,,,,,,,,,,,,,,,,,,,,,,,,,,,,,,,,"MET10506/04/20 01:51:02 METAR KJFK 040651Z 29004KT 10SM SCT065 BKN250 19/18 A2976 RMK AO2 SLP078 T01940178 (JC)","FM-15","7",,,,,,,,,,,,,,,,,,,,,,,,,,,,"2009-05-01"
"74486094789","2020-06-04T02:51:00","FM-15","7",,"ESE","1.5","mi","TEMP, PRECIP, SNOW",,,"PSY, SRG, SNOWBOARD",,,"FAA CWO",,,,,,,,,,,,,,,,,,,,,,,,,,,"29.77","64","65","0.00",,,,"97","29.77","BKN:07 230","29.75","10.00","64","230",,"7",,,,,,,,,,,,,,,,,,,,,,,,,,,,,,,,,,,,,"MET09806/04/20 02:51:02 METAR KJFK 040751Z 23006KT 10SM BKN230 18/18 A2977 RMK AO2 SLP081 T01830178 (JC)","FM-15","7",,,,,,,,,,,,,,,,,,,,,,,,,,,,"2009-05-01"
"74486094789","2020-06-04T03:51:00","FM-15","7",,"ESE","1.5","mi","TEMP, PRECIP, SNOW",,,"PSY, SRG, SNOWBOARD",,,"FAA CWO",,,,,,,,,,,,,,,,,,,,,,,,,,,"29.78","63","67","0.00",,"-0.04","3","87","29.78","BKN:07 250","29.75","10.00","65","310",,"3",,,,,,,,,,,,,,,,,,,,,,,,,,,,,,,,,,,,,"MET10406/04/20 03:51:02 METAR KJFK 040851Z 31003KT 10SM BKN250 19/17 A2978 RMK AO2 SLP085 T01940172 53012 (JC)","FM-15","7",,,,,,,,,,,,,,,,,,,,,,,,,,,,"2009-05-01"
"74486094789","2020-06-04T04:00:00","FM-12","4",,"ESE","1.5","mi","TEMP, PRECIP, SNOW",,,"PSY, SRG, SNOWBOARD",,,"FAA CWO",,,,,,,,,,,,,,,,,,,,,,,,,,,,"63","67",,,"-0.04","3","87","29.78",,"29.75","9.94","65","310",,"3",,,,,,,,,,,,,,,,,,,,,,,,,,,,,,,,,,,,,"SYN06474486 32966 63103 10194 20172 30073 40085 53012 90851 555 90409=","FM-12","4",,,,,,,,,,,,,,,,,,,,,,,,,,,,"2009-05-01"
"74486094789","2020-06-04T04:51:00","FM-15","7",,"ESE","1.5","mi","TEMP, PRECIP, SNOW",,,"PSY, SRG, SNOWBOARD",,,"FAA CWO",,,,,,,,,,,,,,,,,,,,,,,,,,,"29.81","63","65","0.00",,,,"93","29.81","FEW:02 60 BKN:07 250","29.78","10.00","64","230",,"3",,,,,,,,,,,,,,,,,,,,,,,,,,,,,,,,,,,,,"MET10506/04/20 04:51:02 METAR KJFK 040951Z 23003KT 10SM FEW060 BKN250 18/17 A2981 RMK AO2 SLP095 T01830172 (JC)","FM-15","7",,,,,,,,,,,,,,,,,,,,,,,,,,,,"2009-05-01"
"74486094789","2020-06-04T05:51:00","FM-15","7",,"ESE","1.5","mi","TEMP, PRECIP, SNOW",,,"PSY, SRG, SNOWBOARD",,,"FAA CWO",,,,,,,,,,,,,,,,,,,,,,,,,,,"29.83","66","68","0.00",,,,"93","29.83","FEW:02 60 FEW:02 110 BKN:07 250","29.80","10.00","67","230",,"3",,,,,,,,,,,,,,,,,,,,,,,,,,,,,,,,,,,,,"MET11206/04/20 05:51:02 METAR KJFK 041051Z 23003KT 10SM FEW060 FEW110 BKN250 20/19 A2983 RMK AO2 SLP102 T02000189 (JC)","FM-15","7",,,,,,,,,,,,,,,,,,,,,,,,,,,,"2009-05-01"
"74486094789","2020-06-04T06:51:00","FM-15","7",,"ESE","1.5","mi","TEMP, PRECIP, SNOW",,,"PSY, SRG, SNOWBOARD",,,"FAA CWO",,,,,,,,,,,,,,,,,,,,,,,,,,,"29.85","65","72","0.00",,"-0.06","1","79","29.85","FEW:02 110 BKN:07 250","29.83","10.00","68","270",,"3",,,,,,,,,,,,,,,,,,,,,,,,,,,,,,,,,,,,,"MET12906/04/20 06:51:02 METAR KJFK 041151Z 27003KT 10SM FEW110 BKN250 22/18 A2985 RMK AO2 SLP107 70028 T02220183 10222 20172 51021 (JC)","FM-15","7",,,,,,,,,,,,,,,,,,,,,,,,,,,,"2009-05-01"
"74486094789","2020-06-04T07:00:00","FM-12","4",,"ESE","1.5","mi","TEMP, PRECIP, SNOW",,,"PSY, SRG, SNOWBOARD",,,"FAA CWO",,,,,,,,,,,,,,,,,,,,,,,,,,,,"65","72",,,"-0.06","1","79","29.85",,"29.82","9.94","68","270",,"3",,,,,,,,,,,,,,,,,,,,,,,,,,,,,,,,,,,,,"SYN08674486 32966 62703 10222 20183 30097 40107 51021 91151 333 10267 20172 70071 555 90412=","FM-12","4",,,,,,,,,,,,,,,,,,,,,,,,,,,,"2009-05-01"
"74486094789","2020-06-04T07:51:00","FM-15","7",,"ESE","1.5","mi","TEMP, PRECIP, SNOW",,,"PSY, SRG, SNOWBOARD",,,"FAA CWO",,,,,,,,,,,,,,,,,,,,,,,,,,,"29.86","66","73","0.00",,,,"79","29.86","FEW:02 110 BKN:07 250","29.83","10.00","69","240",,"6",,,,,,,,,,,,,,,,,,,,,,,,,,,,,,,,,,,,,"MET10506/04/20 07:51:02 METAR KJFK 041251Z 24005KT 10SM FEW110 BKN250 23/19 A2986 RMK AO2 SLP111 T02280189 (BH)","FM-15","7",,,,,,,,,,,,,,,,,,,,,,,,,,,,"2009-05-01"
"74486094789","2020-06-04T08:51:00","FM-15","6",,"ESE","1.5","mi","TEMP, PRECIP, SNOW",,,"PSY, SRG, SNOWBOARD",,,"FAA CWO",,,,,,,,,,,,,,,,,,,,,,,,,,,"29.88","67","78","0.00",,,,"69","29.88","FEW:02 110 FEW:02 170 BKN:07 250","29.85","10.00","71","230",,"7",,,,,,,,,,,,,,,,,,,,,,,,,,,,,,,,,,,,,"MET11206/04/20 08:51:02 METAR KJFK 041351Z 23006KT 10SM FEW110 FEW170 BKN250 26/19 A2988 RMK AO2 SLP118 T02560194 (BH)","FM-15","6",,,,,,,,,,,,,,,,,,,,,,,,,,,,"2009-05-01"
"74486094789","2020-06-04T09:51:00","FM-15","6",,"ESE","1.5","mi","TEMP, PRECIP, SNOW",,,"PSY, SRG, SNOWBOARD",,,"FAA CWO",,,,,,,,,,,,,,,,,,,,,,,,,,,"29.89","64","81","0.00",,"-0.04","1","57","29.89","FEW:02 42 FEW:02 110 FEW:02 170","29.87","10.00","70","260",,"7",,,,,,,,,,,,,,,,,,,,,,,,,,,,,,,,,,,,,"MET11806/04/20 09:51:02 METAR KJFK 041451Z 26006KT 10SM FEW042 FEW110 FEW170 27/18 A2989 RMK AO2 SLP121 T02720178 51014 (BH)","FM-15","6",,,,,,,,,,,,,,,,,,,,,,,,,,,,"2009-05-01"
"74486094789","2020-06-04T10:51:00","FM-15","7",,"ESE","1.5","mi","TEMP, PRECIP, SNOW",,,"PSY, SRG, SNOWBOARD",,,"FAA CWO",,,,,,,,,,,,,,,,,,,,,,,,,,,"29.89","64","82","0.00",,,,"55","29.89","FEW:02 50 FEW:02 160 BKN:07 250","29.87","10.00","70","190",,"10",,,,,,,,,,,,,,,,,,,,,,,,,,,,,,,,,,,,,"MET11206/04/20 10:51:02 METAR KJFK 041551Z 19009KT 10SM FEW050 FEW160 BKN250 28/18 A2989 RMK AO2 SLP123 T02780178 (BH)","FM-15","7",,,,,,,,,,,,,,,,,,,,,,,,,,,,"2009-05-01"
"74486094789","2020-06-04T11:51:00","FM-15","7",,"ESE","1.5","mi","TEMP, PRECIP, SNOW",,,"PSY, SRG, SNOWBOARD",,,"FAA CWO",,,,,,,,,,,,,,,,,,,,,,,,,,,"29.90","65","79","0.00",,,,"62","29.90","FEW:02 50 BKN:07 170 BKN:07 250","29.88","10.00","70","200",,"13",,,,,,,,,,,,,,,,,,,,,,,,,,,,,,,,,,,,,"MET11206/04/20 11:51:02 METAR KJFK 041651Z 20011KT 10SM FEW050 BKN170 BKN250 26/18 A2990 RMK AO2 SLP125 T02610183 (BH)","FM-15","7",,,,,,,,,,,,,,,,,,,,,,,,,,,,"2009-05-01"
"74486094789","2020-06-04T12:51:00","FM-15","7",,"ESE","1.5","mi","TEMP, PRECIP, SNOW",,,"PSY, SRG, SNOWBOARD",,,"FAA CWO",,,,,,,,,,,,,,,,,,,,,,,,,,,"29.90","65","77","0.00",,"-0.01","0","66","29.89","FEW:02 50 SCT:04 120 BKN:07 170","29.88","10.00","69","190",,"10",,,,,,,,,,,,,,,,,,,,,,,,,,,,,,,,,,,,,"MET13006/04/20 12:51:02 METAR KJFK 041751Z 19009KT 10SM FEW050 SCT120 BKN170 25/18 A2990 RMK AO2 SLP123 T02500183 10283 20222 50002 (BH)","FM-15","7",,,,,,,,,,,,,,,,,,,,,,,,,,,,"2009-05-01"
"74486094789","2020-06-04T13:00:00","FM-12","4",,"ESE","1.5","mi","TEMP, PRECIP, SNOW",,,"PSY, SRG, SNOWBOARD",,,"FAA CWO",,,,,,,,,,,,,,,,,,,,,,,,,,,,"65","77",,,"0.01","9","66","29.89","57","29.87","9.94","69","190",,"10",,,,,,,,,,,,,,,,,,,,,,,,,,,,,,,,,,,,,"SYN08074486 32766 61909 10250 20183 30114 40123 50002 91751 333 10283 20206 555 90418=","FM-12","4",,,,,,,,,,,,,,,,,,,,,,,,,,,,"2009-05-01"
"74486094789","2020-06-04T13:51:00","FM-15","7",,"ESE","1.5","mi","TEMP, PRECIP, SNOW",,,"PSY, SRG, SNOWBOARD",,,"FAA CWO",,,,,,,,,,,,,,,,,,,,,,,,,,,"29.89","65","80","0.00",,,,"60","29.89","FEW:02 50 FEW:02 100 SCT:04 140","29.87","10.00","70","180",,"11",,,,,,,,,,,,,,,,,,,,,,,,,,,,,,,,,,,,,"MET11206/04/20 13:51:02 METAR KJFK 041851Z 18010KT 10SM FEW050 FEW100 SCT140 27/18 A2989 RMK AO2 SLP123 T02670183 (RR)","FM-15","7",,,,,,,,,,,,,,,,,,,,,,,,,,,,"2009-05-01"
"74486094789","2020-06-04T14:51:00","FM-15","7",,"ESE","1.5","mi","TEMP, PRECIP, SNOW",,,"PSY, SRG, SNOWBOARD",,,"FAA CWO",,,,,,,,,,,,,,,,,,,,,,,,,,,"29.89","65","78","0.00",,,,"64","29.89","FEW:02 50 SCT:04 140 BKN:07 250","29.87","10.00","70","160",,"14",,,,,,,,,,,,,,,,,,,,,,,,,,,,,,,,,,,,,"MET11206/04/20 14:51:02 METAR KJFK 041951Z 16012KT 10SM FEW050 SCT140 BKN250 26/18 A2989 RMK AO2 SLP121 T02560183 (RR)","FM-15","7",,,,,,,,,,,,,,,,,,,,,,,,,,,,"2009-05-01"
"74486094789","2020-06-04T15:51:00","FM-15","7",,"ESE","1.5","mi","TEMP, PRECIP, SNOW",,,"PSY, SRG, SNOWBOARD",,,"FAA CWO",,,,,,,,,,,,,,,,,,,,,,,,,,,"29.88","63","78","0.00",,"+0.01","8","60","29.88","FEW:02 60 SCT:04 100 SCT:04 140","29.85","10.00","68","180",,"17",,,,,,,,,,,,,,,,,,,,,,,,,,,,,,,,,,,,,"MET11806/04/20 15:51:02 METAR KJFK 042051Z 18015KT 10SM FEW060 SCT100 SCT140 26/17 A2988 RMK AO2 SLP119 T02560172 58005 (RR)","FM-15","7",,,,,,,,,,,,,,,,,,,,,,,,,,,,"2009-05-01"
"74486094789","2020-06-04T16:00:00","FM-12","4",,"ESE","1.5","mi","TEMP, PRECIP, SNOW",,,"PSY, SRG, SNOWBOARD",,,"FAA CWO",,,,,,,,,,,,,,,,,,,,,,,,,,,,"63","78",,,"+0.01","8","60","29.88","57","29.85","9.94","68","180",,"17",,,,,,,,,,,,,,,,,,,,,,,,,,,,,,,,,,,,,"SYN06474486 32766 61815 10256 20172 30107 40119 58005 92051 555 90421=","FM-12","4",,,,,,,,,,,,,,,,,,,,,,,,,,,,"2009-05-01"
"74486094789","2020-06-04T16:51:00","FM-15","7",,"ESE","1.5","mi","TEMP, PRECIP, SNOW",,,"PSY, SRG, SNOWBOARD",,,"FAA CWO",,,,,,,,,,,,,,,,,,,,,,,,,,,"29.87","63","75","0.00",,,,"66","29.87","FEW:02 60 FEW:02 140 BKN:07 250","29.85","10.00","67","170",,"14",,,,,,,,,,,,,,,,,,,,,,,,,,,,,,,,,,,,,"MET11206/04/20 16:51:02 METAR KJFK 042151Z 17012KT 10SM FEW060 FEW140 BKN250 24/17 A2987 RMK AO2 SLP116 T02390172 (RR)","FM-15","7",,,,,,,,,,,,,,,,,,,,,,,,,,,,"2009-05-01"
"74486094789","2020-06-04T17:51:00","FM-15","7",,"ESE","1.5","mi","TEMP, PRECIP, SNOW",,,"PSY, SRG, SNOWBOARD",,,"FAA CWO",,,,,,,,,,,,,,,,,,,,,,,,,,,"29.88","62","72","0.00",,,,"71","29.88","FEW:02 60 SCT:04 110 BKN:07 250","29.85","10.00","66","170",,"15",,,,,,,,,,,,,,,,,,,,,,,,,,,,,,,,,,,,,"MET11206/04/20 17:51:02 METAR KJFK 042251Z 17013KT 10SM FEW060 SCT110 BKN250 22/17 A2988 RMK AO2 SLP117 T02220167 (RR)","FM-15","7",,,,,,,,,,,,,,,,,,,,,,,,,,,,"2009-05-01"
"74486094789","2020-06-04T18:51:00","FM-15","7",,"ESE","1.5","mi","TEMP, PRECIP, SNOW",,,"PSY, SRG, SNOWBOARD",,,"FAA CWO",,,,,,,,,,,,,,,,,,,,,,,,,,,"29.89","63","70","0.00",,"-0.01","3","79","29.89","SCT:04 110 OVC:08 250","29.87","10.00","66","180",,"17",,,,,,,,,,,,,,,,,,,,,,,,,,,,,,,,,,,,,"MET12306/04/20 18:51:02 METAR KJFK 042351Z 18015KT 10SM SCT110 OVC250 21/17 A2989 RMK AO2 SLP121 T02110172 10272 20211 53002 (RR)","FM-15","7",,,,,,,,,,,,,,,,,,,,,,,,,,,,"2009-05-01"
"74486094789","2020-06-04T19:00:00","FM-12","4",,"ESE","1.5","mi","TEMP, PRECIP, SNOW",,,"PSY, SRG, SNOWBOARD",,,"FAA CWO",,,,,,,,,,,,,,,,,,,,,,,,,,,,"63","70",,,"-0.01","3","79","29.89",,"29.86","9.94","66","180",,"17",,,,,,,,,,,,,,,,,,,,,,,,,,,,,,,,,,,,,"SYN08074486 32966 81815 10211 20172 30111 40121 53002 92351 333 10283 20172 555 90500=","FM-12","4",,,,,,,,,,,,,,,,,,,,,,,,,,,,"2009-05-01"
"74486094789","2020-06-04T19:51:00","FM-15","7",,"ESE","1.5","mi","TEMP, PRECIP, SNOW",,,"PSY, SRG, SNOWBOARD",,,"FAA CWO",,,,,,,,,,,,,,,,,,,,,,,,,,,"29.89","63","70","0.00",,,,"79","29.89","BKN:07 200 OVC:08 250","29.87","10.00","66","180",,"21",,,,,,,,,,,,,,,,,,,,,,,,,,,,,,,,,,,,,"MET10006/04/20 19:51:01 METAR KJFK 050051Z 18018KT 10SM BKN200 OVC250 21/17 A2989 RMK AO2 SLP123 T02110172","FM-15","7",,,,,,,,,,,,,,,,,,,,,,,,,,,,"2009-05-01"
"74486094789","2020-06-04T20:51:00","FM-15","7",,"ESE","1.5","mi","TEMP, PRECIP, SNOW",,,"PSY, SRG, SNOWBOARD",,,"FAA CWO",,,,,,,,,,,,,,,,,,,,,,,,,,,"29.90","63","70","0.00",,,,"79","29.90","FEW:02 110 BKN:07 190 OVC:08 250","29.88","10.00","66","190",,"18",,,,,,,,,,,,,,,,,,,,,,,,,,,,,,,,,,,,,"MET10706/04/20 20:51:01 METAR KJFK 050151Z 19016KT 10SM FEW110 BKN190 OVC250 21/17 A2990 RMK AO2 SLP125 T02110172","FM-15","7",,,,,,,,,,,,,,,,,,,,,,,,,,,,"2009-05-01"
"74486094789","2020-06-04T21:51:00","FM-15","7",,"ESE","1.5","mi","TEMP, PRECIP, SNOW",,,"PSY, SRG, SNOWBOARD",,,"FAA CWO",,,,,,,,,,,,,,,,,,,,,,,,,,,"29.90","63","69","0.00",,"-0.01","1","81","29.90","FEW:02 95 OVC:08 170","29.88","10.00","65","190",,"17",,,,,,,,,,,,,,,,,,,,,,,,,,,,,,,,,,,,,"MET10606/04/20 21:51:01 METAR KJFK 050251Z 19015KT 10SM FEW095 OVC170 21/17 A2990 RMK AO2 SLP125 T02060172 51004","FM-15","7",,,,,,,,,,,,,,,,,,,,,,,,,,,,"2009-05-01"
"74486094789","2020-06-04T22:00:00","FM-12","4",,"ESE","1.5","mi","TEMP, PRECIP, SNOW",,,"PSY, SRG, SNOWBOARD",,,"FAA CWO",,,,,,,,,,,,,,,,,,,,,,,,,,,,"63","69",,,"-0.01","1","81","29.90",,"29.87","9.94","65","190",,"17",,,,,,,,,,,,,,,,,,,,,,,,,,,,,,,,,,,,,"SYN06474486 32966 81915 10206 20172 30114 40125 51004 90251 555 90503=","FM-12","4",,,,,,,,,,,,,,,,,,,,,,,,,,,,"2009-05-01"
"74486094789","2020-06-04T22:51:00","FM-15","7",,"ESE","1.5","mi","TEMP, PRECIP, SNOW",,,"PSY, SRG, SNOWBOARD",,,"FAA CWO",,,,,,,,,,,,,,,,,,,,,,,,,,,"29.91","63","66","0.00",,,,"90","29.91","FEW:02 60 SCT:04 120 OVC:08 190","29.88","10.00","64","210",,"7",,,,,,,,,,,,,,,,,,,,,,,,,,,,,,,,,,,,,"MET14806/04/20 22:51:02 METAR KJFK 050351Z 21006KT 10SM FEW060 SCT120 OVC190 19/17 A2991 RMK AO2 SLP128 OCNL LTGIC DSNT SW-W CB DSNT SW-W MOV NE T01890172","FM-15","7",,,,,,,,,,,,,,,,,,,,,,,,,,,,"2009-05-01"
"74486094789","2020-06-04T23:51:00","FM-15","7",,"ESE","1.5","mi","TEMP, PRECIP, SNOW",,,"PSY, SRG, SNOWBOARD",,,"FAA CWO",,,,,,,,,,,,,,,,,,,,,,,,,,,"29.96","63","66","0.10","|RA |RA",,,"90","29.96","FEW:02 24 SCT:04 60 BKN:07 120","29.93","9.00","64","220","23","20",,,,,,,,,,,,,,,,,,,,,,,,,,,,,,,,,,,,,"MET20006/04/20 23:51:02 METAR KJFK 050451Z 22017G20KT 9SM -RA FEW024 SCT060 BKN120 19/17 A2996 RMK AO2 LTG DSNT S-NW RAB34 PRESRR SLP146 FRQ LTGICCACG DSNT S-SW CB DSNT S-SW MOV NE P0000 T01890172 402830172","FM-15","7",,,,,,,,,,,,,,,,,,,,,,,,,,,,"2009-05-01"
"74486094789","2020-06-04T23:56:00","FM-16","7",,"ESE","1.5","mi","TEMP, PRECIP, SNOW",,,"PSY, SRG, SNOWBOARD",,,"FAA CWO",,,,,,,,,,,,,,,,,,,,,,,,,,,"29.96","63","65","0.02","TS:7 -RA:02 BR:1 |RA TS |RA",,,"93",,"FEW:02 25 BKN:07 60 OVC:08 110","29.93","6.00","64","230","23","17",,,,,,,,,,,,,,,,,,,,,,,,,,,,,,,,,,,,,"MET17306/04/20 23:56:02 SPECI KJFK 050456Z 23015G20KT 6SM -TSRA BR FEW025 BKN060CB OVC110 18/17 A2996 RMK AO2 LTG DSNT S-W TSB56 OCNL LTGICCA SE-SW TS SE-SW MOV NE P0002 T01830172","FM-16","7",,,,,,,,,,,,,,,,,,,,,,,,,,,,"2009-05-01"
"74486094789","2020-06-04T23:59:00","SOD  ","6",,"ESE","1.5","mi","TEMP, PRECIP, SNOW",,,"PSY, SRG, SNOWBOARD",,,"FAA CWO",,,,"64","73","76","29.86","29.82","67","10.6","8","6.2","0","83","63","190","28","0.10","0","0.0","190","21","TS RA BR",,,,,,,,,,,,,,,,,,,,,,,,,,,,,,,,,,,,,,,,,,,,,,,,,,,,,,,,"SOD75824 HR PRECIPITATION (IN): 0.10 SNOW DEPTH (IN):0     24 HR SNOWFALL (IN):0.0  WEATHER(CODE):138  24 HR MAX TEMP (F): 8324 HR MIN TEMP (F): 63AVERAGE STATION PRESSURE:29.815 MINIMUM SEA LEVEL PRESSURE:29.75 TIME OF OCCURRENCE:0135 PEAK WIND SPEED (MPH): 28 PEAK WIND DIR (DEG):190 PEAK WIND TIME (LST):      FASTEST 2MIN SPEED (MPH): 21FASTEST 2MIN DIR (DEG):190 FASTEST 2MIN TIME (LST):     AVERAGE WIND SPEED (MPH):10.6 24 HR AVG TEMP (F): 73DEPART FROM NORMAL:  6  HEATING DEGREE DAYS:  0 COOLING DEGREE DAYS:  8 LATEST DAY MAX TEMP (0700-1900 LST):83  LATEST NIGHT MIN TEMP(1900-0800 LST):63 HOURLY INCREMENTAL PRECIPITATION VALUES (IN):.00 0.00 0.00 0.00 0.00 0.00 0.00 0.00 0.00 0.00 0.00 0.00 0.00 0.00 0.00 0.00 0.00 0.00 0.00 0.00 0.00 0.00 0.00 0.10","SOD  ","6",,,,,,,,,,,,,,,,,,,,,,,,,"0425","1922",,"2009-05-01"
"74486094789","2020-06-05T00:51:00","FM-15","7",,"ESE","1.5","mi","TEMP, PRECIP, SNOW",,,"PSY, SRG, SNOWBOARD",,,"FAA CWO",,,,,,,,,,,,,,,,,,,,,,,,,,,"29.89","68","69","0.29","TS:7 +RA:02 BR:1 |RA TS |RA","+0.01","8","96","29.89","SCT:04 60 OVC:08 110","29.87","5.00","68","060",,"6",,,,,,,,,,,,,,,,,,,,,,,,,,,,,,,,,,,,,"MET20506/05/20 00:51:02 METAR KJFK 050551Z 06005KT 5SM +TSRA BR SCT060CB OVC110 21/20 A2989 RMK AO2 LTG DSNT SE AND S TSB0456 PRESFR SLP122 OCNL LTGIC SE TS SE MOV NE P0038 60038 T02060200 10211 20183 58003 (JC)","FM-15","7",,,,,,,,,,,,,,,,,,,,,,,,,,,,"2009-05-01"
"74486094789","2020-06-05T01:00:00","FM-12","4",,"ESE","1.5","mi","TEMP, PRECIP, SNOW",,,"PSY, SRG, SNOWBOARD",,,"FAA CWO",,,,,,,,,,,,,,,,,,,,,,,,,,,,"68","69",,,"+0.01","8","96","29.89","57","29.86","4.97","68","060",,"6",,,,,,,,,,,,,,,,,,,,,,,,,,,,,,,,,,,,,"SYN09874486 11758 80605 10206 20200 30111 40122 58003 60101 710// 90551 333 10222 20172 96010 555 90506=","FM-12","4",,,,,,,,,,,,,,,,,,,,,,,,,,,,"2009-05-01"
"74486094789","2020-06-05T01:04:00","FM-16","7",,"ESE","1.5","mi","TEMP, PRECIP, SNOW",,,"PSY, SRG, SNOWBOARD",,,"FAA CWO",,,,,,,,,,,,,,,,,,,,,,,,,,,"29.90","67","68","0.01","-RA:02 |RA |RA",,,"96",,"FEW:02 60 OVC:08 110","29.88","10.00","67","120",,"7",,,,,,,,,,,,,,,,,,,,,,,,,,,,,,,,,,,,,"MET11406/05/20 01:04:02 SPECI KJFK 050604Z 12006KT 10SM -RA FEW060 OVC110 20/19 A2990 RMK AO2 TSE04 P0001 T02000194 (JC)","FM-16","7",,,,,,,,,,,,,,,,,,,,,,,,,,,,"2009-05-01"
"74486094789","2020-06-05T01:51:00","FM-15","7",,"ESE","1.5","mi","TEMP, PRECIP, SNOW",,,"PSY, SRG, SNOWBOARD",,,"FAA CWO",,,,,,,,,,,,,,,,,,,,,,,,,,,"29.88","67","68","T","-RA:02 |RA |RA",,,"96","29.88","FEW:02 55 BKN:07 80 OVC:08 130","29.85","9.00","67","130",,"6",,,,,,,,,,,,,,,,,,,,,,,,,,,,,,,,,,,,,"MET13606/05/20 01:51:02 METAR KJFK 050651Z 13005KT 9SM -RA FEW055 BKN080 OVC130 20/19 A2988 RMK AO2 RAE05B45 TSE04 SLP119 P0001 T02000194 (JC)","FM-15","7",,,,,,,,,,,,,,,,,,,,,,,,,,,,"2009-05-01"
"74486094789","2020-06-05T02:51:00","FM-15","7",,"ESE","1.5","mi","TEMP, PRECIP, SNOW",,,"PSY, SRG, SNOWBOARD",,,"FAA CWO",,,,,,,,,,,,,,,,,,,,,,,,,,,"29.90","66","66","0.03","-RA:02 |RA |RA",,,"100","29.89","FEW:02 55 SCT:04 95 OVC:08 120","29.88","7.00","66","210",,"6",,,,,,,,,,,,,,,,,,,,,,,,,,,,,,,,,,,,,"MET12106/05/20 02:51:02 METAR KJFK 050751Z 21005KT 7SM -RA FEW055 SCT095 OVC120 19/19 A2990 RMK AO2 SLP123 P0003 T01890189 (JC)","FM-15","7",,,,,,,,,,,,,,,,,,,,,,,,,,,,"2009-05-01"
"74486094789","2020-06-05T03:51:00","FM-15","7",,"ESE","1.5","mi","TEMP, PRECIP, SNOW",,,"PSY, SRG, SNOWBOARD",,,"FAA CWO",,,,,,,,,,,,,,,,,,,,,,,,,,,"29.87","67","69","0.01","-RA:02 |RA |RA","+0.02","8","93","29.87","SCT:04 55 OVC:08 120","29.85","10.00","68","260",,"8",,,,,,,,,,,,,,,,,,,,,,,,,,,,,,,,,,,,,"MET12706/05/20 03:51:02 METAR KJFK 050851Z 26007KT 10SM -RA SCT055 OVC120 21/19 A2987 RMK AO2 SLP116 P0000 60004 T02060194 58007 (JC)","FM-15","7",,,,,,,,,,,,,,,,,,,,,,,,,,,,"2009-05-01"
"74486094789","2020-06-05T04:00:00","FM-12","4",,"ESE","1.5","mi","TEMP, PRECIP, SNOW",,,"PSY, SRG, SNOWBOARD",,,"FAA CWO",,,,,,,,,,,,,,,,,,,,,,,,,,,,"67","69",,"||RA","+0.02","8","93","29.87","57","29.84","9.94","68","260",,"8",,,,,,,,,,,,,,,,,,,,,,,,,,,,,,,,,,,,,"SYN07674486 11766 82607 10206 20194 30104 40116 58007 60017 761// 90851 555 90509=","FM-12","4",,,,,,,,,,,,,,,,,,,,,,,,,,,,"2009-05-01"
"74486094789","2020-06-05T04:51:00","FM-15","7",,"ESE","1.5","mi","TEMP, PRECIP, SNOW",,,"PSY, SRG, SNOWBOARD",,,"FAA CWO",,,,,,,,,,,,,,,,,,,,,,,,,,,"29.88","64","65","T","-RA:02 |RA |RA",,,"97","29.88","FEW:02 95 OVC:08 140","29.85","10.00","64","170",,"13",,,,,,,,,,,,,,,,,,,,,,,,,,,,,,,,,,,,,"MET12406/05/20 04:51:02 METAR KJFK 050951Z 17011KT 10SM -RA FEW095 OVC140 18/18 A2988 RMK AO2 RAE02B27 SLP117 P0001 T01830178 (JC)","FM-15","7",,,,,,,,,,,,,,,,,,,,,,,,,,,,"2009-05-01"
"74486094789","2020-06-05T05:49:00","FM-16","6",,"ESE","1.5","mi","TEMP, PRECIP, SNOW",,,"PSY, SRG, SNOWBOARD",,,"FAA CWO",,,,,,,,,,,,,,,,,,,,,,,,,,,"29.91","63","64",,,,,"94",,"FEW:02 8 SCT:04 20 SCT:04 110","29.88","10.00","63","200",,"14",,,,,,,,,,,,,,,,,,,,,,,,,,,,,,,,,,,,,"MET11406/05/20 05:49:02 SPECI KJFK 051049Z 20012KT 10SM FEW008 SCT020 SCT110 18/17 A2991 RMK AO2 RAE0955 P0000 FIBI (BH)","FM-16","6",,,,,,,,,,,,,,,,,,,,,,,,,,,,"2009-05-01"
"74486094789","2020-06-05T05:51:00","FM-15","7",,"ESE","1.5","mi","TEMP, PRECIP, SNOW",,,"PSY, SRG, SNOWBOARD",,,"FAA CWO",,,,,,,,,,,,,,,,,,,,,,,,,,,"29.91","63","65","0.00",,,,"93","29.91","FEW:02 8 SCT:04 17 SCT:04 110","29.88","10.00","64","190",,"13",,,,,,,,,,,,,,,,,,,,,,,,,,,,,,,,,,,,,"MET12606/05/20 05:51:02 METAR KJFK 051051Z 19011KT 10SM FEW008 SCT017 SCT110 18/17 A2991 RMK AO2 RAE0955 SLP128 P0000 T01830172 (BH)","FM-15","7",,,,,,,,,,,,,,,,,,,,,,,,,,,,"2009-05-01"
"74486094789","2020-06-05T06:10:00","FM-16","7",,"ESE","1.5","mi","TEMP, PRECIP, SNOW",,,"PSY, SRG, SNOWBOARD",,,"FAA CWO",,,,,,,,,,,,,,,,,,,,,,,,,,,"29.92","63","64",,,,,"96",,"FEW:02 8 BKN:07 18 OVC:08 150","29.90","10.00","63","190",,"14",,,,,,,,,,,,,,,,,,,,,,,,,,,,,,,,,,,,,"MET10506/05/20 06:10:02 SPECI KJFK 051110Z 19012KT 10SM FEW008 BKN018 OVC150 18/17 A2992 RMK AO2 T01780172 (BH)","FM-16","7",,,,,,,,,,,,,,,,,,,,,,,,,,,,"2009-05-01"
"74486094789","2020-06-05T06:51:00","FM-15","7",,"ESE","1.5","mi","TEMP, PRECIP, SNOW",,,"PSY, SRG, SNOWBOARD",,,"FAA CWO",,,,,,,,,,,,,,,,,,,,,,,,,,,"29.93","63","65","0.00",,"-0.06","3","93","29.93","FEW:02 7 BKN:07 18 BKN:07 100","29.91","10.00","64","190",,"13",,,,,,,,,,,,,,,,,,,,,,,,,,,,,,,,,,,,,"MET15506/05/20 06:51:02 METAR KJFK 051151Z 19011KT 10SM FEW007 BKN018 BKN100 18/17 A2993 RMK AO2 SLP135 BKN018 V SCT 60005 70043 T01830172 10206 20178 53020 (BH)","FM-15","7",,,,,,,,,,,,,,,,,,,,,,,,,,,,"2009-05-01"
"74486094789","2020-06-05T07:00:00","FM-12","4",,"ESE","1.5","mi","TEMP, PRECIP, SNOW",,,"PSY, SRG, SNOWBOARD",,,"FAA CWO",,,,,,,,,,,,,,,,,,,,,,,,,,,,"63","65",,,"-0.06","3","93","29.93","8","29.90","9.94","64","190",,"13",,,,,,,,,,,,,,,,,,,,,,,,,,,,,,,,,,,,,"SYN09274486 12366 81911 10183 20172 30124 40135 53020 60011 91151 333 10283 20178 70109 555 90512=","FM-12","4",,,,,,,,,,,,,,,,,,,,,,,,,,,,"2009-05-01"
"74486094789","2020-06-05T07:16:00","FM-16","7",,"ESE","1.5","mi","TEMP, PRECIP, SNOW",,,"PSY, SRG, SNOWBOARD",,,"FAA CWO",,,,,,,,,,,,,,,,,,,,,,,,,,,"29.94","64","66",,,,,"93",,"BKN:07 8 BKN:07 18 OVC:08 120","29.91","10.00","65","190",,"9",,,,,,,,,,,,,,,,,,,,,,,,,,,,,,,,,,,,,"MET10506/05/20 07:16:02 SPECI KJFK 051216Z 19008KT 10SM BKN008 BKN018 OVC120 19/18 A2994 RMK AO2 T01890178 (BH)","FM-16","7",,,,,,,,,,,,,,,,,,,,,,,,,,,,"2009-05-01"
"74486094789","2020-06-05T07:49:00","FM-16","6",,"ESE","1.5","mi","TEMP, PRECIP, SNOW",,,"PSY, SRG, SNOWBOARD",,,"FAA CWO",,,,,,,,,,,,,,,,,,,,,,,,,,,"29.93","64","66",,"-RA:02 |RA |RA",,,"94",,"FEW:02 7 BKN:07 11 OVC:08 120","29.91","10.00","65","180",,"9",,,,,,,,,,,,,,,,,,,,,,,,,,,,,,,,,,,,,"MET11606/05/20 07:49:02 SPECI KJFK 051249Z 18008KT 10SM -RA FEW007 BKN011 OVC120 19/18 A2993 RMK AO2 RAB28 P0000 FIBI (BH)","FM-16","6",,,,,,,,,,,,,,,,,,,,,,,,,,,,"2009-05-01"
"74486094789","2020-06-05T07:51:00","FM-15","7",,"ESE","1.5","mi","TEMP, PRECIP, SNOW",,,"PSY, SRG, SNOWBOARD",,,"FAA CWO",,,,,,,,,,,,,,,,,,,,,,,,,,,"29.94","65","67","T","-RA:02 |RA |RA",,,"93","29.93","FEW:02 7 BKN:07 11 OVC:08 120","29.91","10.00","66","180",,"9",,,,,,,,,,,,,,,,,,,,,,,,,,,,,,,,,,,,,"MET12806/05/20 07:51:02 METAR KJFK 051251Z 18008KT 10SM -RA FEW007 BKN011 OVC120 19/18 A2994 RMK AO2 RAB28 SLP137 P0000 T01940183 (BH)","FM-15","7",,,,,,,,,,,,,,,,,,,,,,,,,,,,"2009-05-01"
"74486094789","2020-06-05T08:51:00","FM-15","7",,"ESE","1.5","mi","TEMP, PRECIP, SNOW",,,"PSY, SRG, SNOWBOARD",,,"FAA CWO",,,,,,,,,,,,,,,,,,,,,,,,,,,"29.94","67","69","T","-RA:02 |RA |RA",,,"93","29.94","FEW:02 7 OVC:08 13","29.91","10.00","68","190",,"8",,,,,,,,,,,,,,,,,,,,,,,,,,,,,,,,,,,,,"MET12606/05/20 08:51:02 METAR KJFK 051351Z 19007KT 10SM -RA FEW007 OVC013 21/19 A2994 RMK AO2 RAE1253B47 SLP138 P0000 T02060194 (BH)","FM-15","7",,,,,,,,,,,,,,,,,,,,,,,,,,,,"2009-05-01"
"74486094789","2020-06-05T09:45:00","FM-16","7",,"ESE","1.5","mi","TEMP, PRECIP, SNOW",,,"PSY, SRG, SNOWBOARD",,,"FAA CWO",,,,,,,,,,,,,,,,,,,,,,,,,,,"29.93","66","70","T",,,,"88",,"SCT:04 14 BKN:07 19 BKN:07 120","29.91","10.00","67","190",,"9",,,,,,,,,,,,,,,,,,,,,,,,,,,,,,,,,,,,,"MET11106/05/20 09:45:02 SPECI KJFK 051445Z 19008KT 10SM SCT014 BKN019 BKN120 21/19 A2993 RMK AO2 RAE1357 P0000 $ (RM)","FM-16","7",,,,,,,,,,,,,,,,,,,,,,,,,,,,"2009-05-01"
"74486094789","2020-06-05T09:51:00","FM-15","7",,"ESE","1.5","mi","TEMP, PRECIP, SNOW",,,"PSY, SRG, SNOWBOARD",,,"FAA CWO",,,,,,,,,,,,,,,,,,,,,,,,,,,"29.93","67","70","0.00",,"+0.00","8","90","29.93","SCT:04 14 BKN:07 19 BKN:07 120","29.91","10.00","68","190",,"9",,,,,,,,,,,,,,,,,,,,,,,,,,,,,,,,,,,,,"MET14006/05/20 09:51:02 METAR KJFK 051451Z 19008KT 10SM SCT014 BKN019 BKN120 21/19 A2993 RMK AO2 RAE1357 SLP136 P0000 60000 T02110194 58001 $ (RM)","FM-15","7",,,,,,,,,,,,,,,,,,,,,,,,,,,,"2009-05-01"
"74486094789","2020-06-05T10:00:00","FM-12","4",,"ESE","1.5","mi","TEMP, PRECIP, SNOW",,,"PSY, SRG, SNOWBOARD",,,"FAA CWO",,,,,,,,,,,,,,,,,,,,,,,,,,,,"67","70",,,"+0.00","8","90","29.93","15","29.90","9.94","68","190",,"9",,,,,,,,,,,,,,,,,,,,,,,,,,,,,,,,,,,,,"SYN07074486 12466 61908 10211 20194 30124 40136 58001 69907 91451 555 90515=","FM-12","4",,,,,,,,,,,,,,,,,,,,,,,,,,,,"2009-05-01"
"74486094789","2020-06-05T10:51:00","FM-15","7",,"ESE","1.5","mi","TEMP, PRECIP, SNOW",,,"PSY, SRG, SNOWBOARD",,,"FAA CWO",,,,,,,,,,,,,,,,,,,,,,,,,,,"29.93","68","72","0.00",,,,"87","29.93","BKN:07 21 BKN:07 170","29.91","10.00","69","210",,"7",,,,,,,,,,,,,,,,,,,,,,,,,,,,,,,,,,,,,"MET10706/05/20 10:51:02 METAR KJFK 051551Z 21006KT 10SM BKN021 BKN170 22/20 A2993 RMK AO2 SLP136 T02220200 $ (RM)","FM-15","7",,,,,,,,,,,,,,,,,,,,,,,,,,,,"2009-05-01"
"74486094789","2020-06-05T11:51:00","FM-15","7",,"ESE","1.5","mi","TEMP, PRECIP, SNOW",,,"PSY, SRG, SNOWBOARD",,,"FAA CWO",,,,,,,,,,,,,,,,,,,,,,,,,,,"29.93","69","76","0.00",,,,"79","29.93","BKN:07 21 BKN:07 140 BKN:07 250","29.91","10.00","71","240",,"7",,,,,,,,,,,,,,,,,,,,,,,,,,,,,,,,,,,,,"MET11406/05/20 11:51:02 METAR KJFK 051651Z 24006KT 10SM BKN021 BKN140 BKN250 24/21 A2993 RMK AO2 SLP135 T02440206 $ (RM)","FM-15","7",,,,,,,,,,,,,,,,,,,,,,,,,,,,"2009-05-01"
"74486094789","2020-06-05T12:42:00","FM-16","7",,"ESE","1.5","mi","TEMP, PRECIP, SNOW",,,"PSY, SRG, SNOWBOARD",,,"FAA CWO",,,,,,,,,,,,,,,,,,,,,,,,,,,"29.91","69","77",,,,,"77",,"BKN:07 31 BKN:07 150 BKN:07 250","29.88","10.00","72","200",,"6",,,,,,,,,,,,,,,,,,,,,,,,,,,,,,,,,,,,,"MET12006/05/20 12:42:02 SPECI KJFK 051742Z 20005KT 10SM BKN031 BKN150 BKN250 25/21 A2991 RMK AO2 BKN031 V SCT T02500206 $ (RM)","FM-16","7",,,,,,,,,,,,,,,,,,,,,,,,,,,,"2009-05-01"
"74486094789","2020-06-05T12:51:00","FM-15","7",,"ESE","1.5","mi","TEMP, PRECIP, SNOW",,,"PSY, SRG, SNOWBOARD",,,"FAA CWO",,,,,,,,,,,,,,,,,,,,,,,,,,,"29.91","69","77","0.00",,"+0.02","8","77","29.91","BKN:07 31 BKN:07 150 BKN:07 250","29.88","10.00","72","220",,"6",,,,,,,,,,,,,,,,,,,,,,,,,,,,,,,,,,,,,"MET15106/05/20 12:51:02 METAR KJFK 051751Z 22005KT 10SM BKN031 BKN150 BKN250 25/21 A2991 RMK AO2 SLP128 BKN031 V SCT 60000 T02500206 10256 20183 58008 $ (RM)","FM-15","7",,,,,,,,,,,,,,,,,,,,,,,,,,,,"2009-05-01"
"74486094789","2020-06-05T13:00:00","FM-12","4",,"ESE","1.5","mi","TEMP, PRECIP, SNOW",,,"PSY, SRG, SNOWBOARD",,,"FAA CWO",,,,,,,,,,,,,,,,,,,,,,,,,,,,"69","77",,,"+0.02","8","77","29.91","26","29.88","9.94","72","220",,"6",,,,,,,,,,,,,,,,,,,,,,,,,,,,,,,,,,,,,"SYN08674486 12566 62205 10250 20206 30117 40128 58008 69901 91751 333 10256 20183 555 90518=","FM-12","4",,,,,,,,,,,,,,,,,,,,,,,,,,,,"2009-05-01"
"74486094789","2020-06-05T13:51:00","FM-15","7",,"ESE","1.5","mi","TEMP, PRECIP, SNOW",,,"PSY, SRG, SNOWBOARD",,,"FAA CWO",,,,,,,,,,,,,,,,,,,,,,,,,,,"29.91","69","75","0.00",,,,"82","29.91","SCT:04 32 SCT:04 80 SCT:04 110","29.88","10.00","71","170",,"8",,,,,,,,,,,,,,,,,,,,,,,,,,,,,,,,,,,,,"MET12306/05/20 13:51:02 METAR KJFK 051851Z 17007KT 10SM SCT032 SCT080 SCT110 24/21 A2991 RMK AO2 SLP127 TCU DSNT S T02390206 (RR)","FM-15","7",,,,,,,,,,,,,,,,,,,,,,,,,,,,"2009-05-01"
"74486094789","2020-06-05T14:51:00","FM-15","7",,"ESE","1.5","mi","TEMP, PRECIP, SNOW",,,"PSY, SRG, SNOWBOARD",,,"FAA CWO",,,,,,,,,,,,,,,,,,,,,,,,,,,"29.89","69","77","0.00",,,,"77","29.89","SCT:04 32 BKN:07 80 BKN:07 160","29.87","10.00","72","160",,"9",,,,,,,,,,,,,,,,,,,,,,,,,,,,,,,,,,,,,"MET13506/05/20 14:51:02 METAR KJFK 051951Z 16008KT 10SM SCT032 BKN080 BKN160 25/21 A2989 RMK AO2 LTG DSNT SW SLP121 TCU DSNT S T02500206 (RR)","FM-15","7",,,,,,,,,,,,,,,,,,,,,,,,,,,,"2009-05-01"
"74486094789","2020-06-05T15:51:00","FM-15","7",,"ESE","1.5","mi","TEMP, PRECIP, SNOW",,,"PSY, SRG, SNOWBOARD",,,"FAA CWO",,,,,,,,,,,,,,,,,,,,,,,,,,,"29.91","67","74","0.11",,"+0.01","5","79","29.91","FEW:02 10 SCT:04 36","29.88","10.00","69","180",,"13",,,,,,,,,,,,,,,,,,,,,,,,,,,,,,,,,,,,,"MET16406/05/20 15:51:02 METAR KJFK 052051Z 18011KT 10SM FEW010 SCT036CB BKN0 23/19 A2991 RMK AO2 LTG DSNT SW AND W PRESRR SLP127 CB SW MOV NE VCSH SW T02330194 55002 (RR)","FM-15","7",,,,,,,,,,,,,,,,,,,,,,,,,,,,"2009-05-01"
"74486094789","2020-06-05T15:57:00","FM-16","7",,"ESE","1.5","mi","TEMP, PRECIP, SNOW",,,"PSY, SRG, SNOWBOARD",,,"FAA CWO",,,,,,,,,,,,,,,,,,,,,,,,,,,"29.90","66","70","T","-RA:02 BR:1 |RA |RA",,,"87",,"FEW:02 17 SCT:04 33 BKN:07 50","29.88","1.50","67","200",,"9",,,,,,,,,,,,,,,,,,,,,,,,,,,,,,,,,,,,,"MET20106/05/20 15:57:02 SPECI KJFK 052057Z 20008KT 1 1/2SM R04R/3000VP6000FT -RA BR FEW017 SCT033CB BKN050 21/19 A2990 RMK AO2 VIS 3/4 W LTG DSNT S AND W CB OHD-SW MOV NE RAB56 CIG 036 W P0000 T02110189 (RR)","FM-16","7",,,,,,,,,,,,,,,,,,,,,,,,,,,,"2009-05-01"
"74486094789","2020-06-05T16:00:00","FM-12","4",,"ESE","1.5","mi","TEMP, PRECIP, SNOW",,,"PSY, SRG, SNOWBOARD",,,"FAA CWO",,,,,,,,,,,,,,,,,,,,,,,,,,,,"67","74",,,"+0.01","5","79","29.91","15","29.88","9.94","69","180",,"13",,,,,,,,,,,,,,,,,,,,,,,,,,,,,,,,,,,,,"SYN06474486 32466 81811 10233 20194 30117 40127 55002 92051 555 90521=","FM-12","4",,,,,,,,,,,,,,,,,,,,,,,,,,,,"2009-05-01"
"74486094789","2020-06-05T16:03:00","FM-16","7",,"ESE","1.5","mi","TEMP, PRECIP, SNOW",,,"PSY, SRG, SNOWBOARD",,,"FAA CWO",,,,,,,,,,,,,,,,,,,,,,,,,,,"29.88","67","68","0.16","+RA:02 BR:1 |RA |RA",,,"96",,"FEW:02 17 BKN:07 33 OVC:08 50","29.85","3.00","67","200",,"3",,,,,,,,,,,,,,,,,,,,,,,,,,,,,,,,,,,,,"MET17306/05/20 16:03:02 SPECI KJFK 052103Z 20003KT 3SM R04R/3000VP6000FT +RA BR FEW017 BKN033CB OVC050 20/19 A2988 RMK AO2 LTG DSNT S RAB2056 CB OHD-SW MOV NE P0016 T02000194 (RR)","FM-16","7",,,,,,,,,,,,,,,,,,,,,,,,,,,,"2009-05-01"
"74486094789","2020-06-05T16:51:00","FM-15","7",,"ESE","1.5","mi","TEMP, PRECIP, SNOW",,,"PSY, SRG, SNOWBOARD",,,"FAA CWO",,,,,,,,,,,,,,,,,,,,,,,,,,,"29.89","67","68","0.12","RA:02 BR:1 |RA |RA",,,"96","29.88","SCT:04 38 SCT:04 55 OVC:08 100","29.87","6.00","67","170",,"11",,,,,,,,,,,,,,,,,,,,,,,,,,,,,,,,,,,,,"MET14906/05/20 16:51:02 METAR KJFK 052151Z 17010KT 6SM RA BR SCT038 SCT055 OVC100 20/19 A2989 RMK AO2 LTG DSNT S AND SW RAB2056 SLP120 P0022 T02000194 (RR)","FM-15","7",,,,,,,,,,,,,,,,,,,,,,,,,,,,"2009-05-01"
"74486094789","2020-06-05T17:51:00","FM-15","7",,"ESE","1.5","mi","TEMP, PRECIP, SNOW",,,"PSY, SRG, SNOWBOARD",,,"FAA CWO",,,,,,,,,,,,,,,,,,,,,,,,,,,"29.89","68","69","0.02","-RA:02 |RA |RA",,,"96","29.88","FEW:02 18 SCT:04 42 OVC:08 100","29.87","8.00","68","180",,"7",,,,,,,,,,,,,,,,,,,,,,,,,,,,,,,,,,,,,"MET13206/05/20 17:51:02 METAR KJFK 052251Z 18006KT 8SM -RA FEW018 SCT042 OVC100 21/20 A2989 RMK AO2 LTG DSNT S SLP120 P0003 T02060200 (RR)","FM-15","7",,,,,,,,,,,,,,,,,,,,,,,,,,,,"2009-05-01"
"74486094789","2020-06-05T18:51:00","FM-15","7",,"ESE","1.5","mi","TEMP, PRECIP, SNOW",,,"PSY, SRG, SNOWBOARD",,,"FAA CWO",,,,,,,,,,,,,,,,,,,,,,,,,,,"29.88","68","69","0.02","-RA:02 |RA |RA","+0.03","6","96","29.88","FEW:02 12 SCT:04 49 OVC:08 120","29.85","7.00","68","000",,"0",,,,,,,,,,,,,,,,,,,,,,,,,,,,,,,,,,,,,"MET14506/05/20 18:51:02 METAR KJFK 052351Z 00000KT 7SM -RA FEW012 SCT049 OVC120 21/20 A2988 RMK AO2 SLP118 P0002 60027 T02060200 10250 20200 56009 (RR)","FM-15","7",,,,,,,,,,,,,,,,,,,,,,,,,,,,"2009-05-01"
"74486094789","2020-06-05T19:00:00","FM-12","4",,"ESE","1.5","mi","TEMP, PRECIP, SNOW",,,"PSY, SRG, SNOWBOARD",,,"FAA CWO",,,,,,,,,,,,,,,,,,,,,,,,,,,,"68","69",,"||RA","+0.03","6","96","29.88","15","29.85","6.84","68","000",,"0",,,,,,,,,,,,,,,,,,,,,,,,,,,,,,,,,,,,,"SYN09274486 11461 80000 10206 20200 30107 40118 56009 60071 761// 92351 333 10256 20178 555 90600=","FM-12","4",,,,,,,,,,,,,,,,,,,,,,,,,,,,"2009-05-01"
"74486094789","2020-06-05T19:51:00","FM-15","7",,"ESE","1.5","mi","TEMP, PRECIP, SNOW",,,"PSY, SRG, SNOWBOARD",,,"FAA CWO",,,,,,,,,,,,,,,,,,,,,,,,,,,"29.89","68","69","0.01","|RA |RA",,,"96","29.89","SCT:04 41 BKN:07 80 BKN:07 110","29.87","10.00","68","170",,"8",,,,,,,,,,,,,,,,,,,,,,,,,,,,,,,,,,,,,"MET11706/05/20 19:51:01 METAR KJFK 060051Z 17007KT 10SM -RA SCT041 BKN080 BKN110 21/20 A2989 RMK AO2 SLP121 P0001 T02060200","FM-15","7",,,,,,,,,,,,,,,,,,,,,,,,,,,,"2009-05-01"
"74486094789","2020-06-05T20:48:00","FM-16","7",,"ESE","1.5","mi","TEMP, PRECIP, SNOW",,,"PSY, SRG, SNOWBOARD",,,"FAA CWO",,,,,,,,,,,,,,,,,,,,,,,,,,,"29.89","68","70","0.01","|RA |RA",,,"94",,"BKN:07 5 BKN:07 90 BKN:07 110","29.87","10.00","69","180",,"7",,,,,,,,,,,,,,,,,,,,,,,,,,,,,,,,,,,,,"MET10006/05/20 20:48:01 SPECI KJFK 060148Z 18006KT 10SM -RA BKN005 BKN090 BKN110 21/20 A2989 RMK AO2 P0001","FM-16","7",,,,,,,,,,,,,,,,,,,,,,,,,,,,"2009-05-01"
"74486094789","2020-06-05T20:51:00","FM-15","7",,"ESE","1.5","mi","TEMP, PRECIP, SNOW",,,"PSY, SRG, SNOWBOARD",,,"FAA CWO",,,,,,,,,,,,,,,,,,,,,,,,,,,"29.89","68","69","0.01","|RA |RA",,,"96","29.89","BKN:07 5 BKN:07 90 BKN:07 110","29.87","10.00","68","180",,"7",,,,,,,,,,,,,,,,,,,,,,,,,,,,,,,,,,,,,"MET11706/05/20 20:51:01 METAR KJFK 060151Z 18006KT 10SM -RA BKN005 BKN090 BKN110 21/20 A2989 RMK AO2 SLP123 P0001 T02060200","FM-15","7",,,,,,,,,,,,,,,,,,,,,,,,,,,,"2009-05-01"
"74486094789","2020-06-05T21:51:00","FM-15","7",,"ESE","1.5","mi","TEMP, PRECIP, SNOW",,,"PSY, SRG, SNOWBOARD",,,"FAA CWO",,,,,,,,,,,,,,,,,,,,,,,,,,,"29.88","67","68","T","-RA:02 BR:1 |RA |RA","-0.00","0","96","29.88","BKN:07 5 OVC:08 100","29.85","1.50","67","190",,"8",,,,,,,,,,,,,,,,,,,,,,,,,,,,,,,,,,,,,"MET14006/05/20 21:51:01 METAR KJFK 060251Z 19007KT 1 1/2SM -RA BR BKN005 OVC100 20/19 A2988 RMK AO2 SFC VIS 4 SLP119 P0000 60002 T02000194 50001 $","FM-15","7",,,,,,,,,,,,,,,,,,,,,,,,,,,,"2009-05-01"
"74486094789","2020-06-05T21:55:00","FM-16","7",,"ESE","1.5","mi","TEMP, PRECIP, SNOW",,,"PSY, SRG, SNOWBOARD",,,"FAA CWO",,,,,,,,,,,,,,,,,,,,,,,,,,,"29.88","67","68","T","BR:1 ||",,,"96",,"OVC:08 3","29.85","0.00","67","200",,"8",,,,,,,,,,,,,,,,,,,,,,,,,,,,,,,,,,,,,"MET11306/05/20 21:55:01 SPECI KJFK 060255Z 20007KT 1/12SM BR OVC003 20/19 A2988 RMK AO2 SFC VIS 4 RAE55 P0000 T02000194","FM-16","7",,,,,,,,,,,,,,,,,,,,,,,,,,,,"2009-05-01"
"74486094789","2020-06-05T22:00:00","FM-12","4",,"ESE","1.5","mi","TEMP, PRECIP, SNOW",,,"PSY, SRG, SNOWBOARD",,,"FAA CWO",,,,,,,,,,,,,,,,,,,,,,,,,,,,"67","68",,"||RA","0.00","9","96","29.88","5","29.85","1.49","67","190",,"8",,,,,,,,,,,,,,,,,,,,,,,,,,,,,,,,,,,,,"SYN08674486 11224 81907 10200 20194 30107 40119 50001 69957 761// 90251 333 96010 555 90603=","FM-12","4",,,,,,,,,,,,,,,,,,,,,,,,,,,,"2009-05-01"
"74486094789","2020-06-05T22:37:00","FM-16","7",,"ESE","1.5","mi","TEMP, PRECIP, SNOW",,,"PSY, SRG, SNOWBOARD",,,"FAA CWO",,,,,,,,,,,,,,,,,,,,,,,,,,,"29.88","65","65","0.05","TS:7 RA:02 BR:1 |RA TS |RA",,,"100",,"BKN:07 3 BKN:07 15 OVC:08 85","29.85","1.50","65","200",,"9",,,,,,,,,,,,,,,,,,,,,,,,,,,,,,,,,,,,,"MET18606/05/20 22:37:02 SPECI KJFK 060337Z 20008KT 1 1/2SM TSRA BR BKN003 BKN015CB OVC085 18/18 A2988 RMK AO2 SFC VIS 2 LTG DSNT S-W RAE0255B09 TSB37 OCNL LTGIC SW TS SW MOV NE P0005 T01830183","FM-16","7",,,,,,,,,,,,,,,,,,,,,,,,,,,,"2009-05-01"
"74486094789","2020-06-05T22:51:00","FM-15","7",,"ESE","1.5","mi","TEMP, PRECIP, SNOW",,,"PSY, SRG, SNOWBOARD",,,"FAA CWO",,,,,,,,,,,,,,,,,,,,,,,,,,,"29.88","65","66","0.10","TS:7 -RA:02 BR:1 |RA TS |RA",,,"96","29.88","BKN:07 3 BKN:07 15 OVC:08 85","29.85","1.50","65","190",,"10",,,,,,,,,,,,,,,,,,,,,,,,,,,,,,,,,,,,,"MET18306/05/20 22:51:02 METAR KJFK 060351Z 19009KT 1 1/2SM -TSRA BR BKN003 BKN015CB OVC085 19/18 A2988 RMK AO2 SFC VIS 3 RAE0255B09 TSB37 SLP118 OCNL LTGIC OHD TS OHD MOV NE P0008 T01890183","FM-15","7",,,,,,,,,,,,,,,,,,,,,,,,,,,,"2009-05-01"
"74486094789","2020-06-05T23:49:00","FM-16","6",,"ESE","1.5","mi","TEMP, PRECIP, SNOW",,,"PSY, SRG, SNOWBOARD",,,"FAA CWO",,,,,,,,,,,,,,,,,,,,,,,,,,,"29.86","64","66",,"RA:02 BR:1 |RA |RA",,,"94",,"SCT:04 3 BKN:07 23 OVC:08 55","29.83","3.00","65","190",,"7",,,,,,,,,,,,,,,,,,,,,,,,,,,,,,,,,,,,,"MET11706/05/20 23:49:03 SPECI KJFK 060449Z 19006KT 3SM RA BR SCT003 BKN023 OVC055 19/18 A2986 RMK AO2 TSE49 P0008 FIBI (DM)","FM-16","6",,,,,,,,,,,,,,,,,,,,,,,,,,,,"2009-05-01"
"74486094789","2020-06-05T23:51:00","FM-15","7",,"ESE","1.5","mi","TEMP, PRECIP, SNOW",,,"PSY, SRG, SNOWBOARD",,,"FAA CWO",,,,,,,,,,,,,,,,,,,,,,,,,,,"29.85","65","66","0.07","RA:02 BR:1 |RA |RA",,,"96","29.85","SCT:04 3 BKN:07 23 OVC:08 55","29.83","4.00","65","170",,"7",,,,,,,,,,,,,,,,,,,,,,,,,,,,,,,,,,,,,"MET13406/05/20 23:51:02 METAR KJFK 060451Z 17006KT 4SM RA BR SCT003 BKN023 OVC055 19/18 A2985 RMK AO2 TSE49 SLP109 P0009 T01890183 402560178","FM-15","7",,,,,,,,,,,,,,,,,,,,,,,,,,,,"2009-05-01"
"74486094789","2020-06-05T23:59:00","SOD  ","6",,"ESE","1.5","mi","TEMP, PRECIP, SNOW",,,"PSY, SRG, SNOWBOARD",,,"FAA CWO",,,,"67","71","91","29.90","29.88","68","8.2","6","3.9","0","78","64","240","25","0.79","0","0.0","250","20","TS RA BR",,,,,,,,,,,,,,,,,,,,,,,,,,,,,,,,,,,,,,,,,,,,,,,,,,,,,,,,"SOD75824 HR PRECIPITATION (IN): 0.79 SNOW DEPTH (IN):0     24 HR SNOWFALL (IN):0.0  WEATHER(CODE):138  24 HR MAX TEMP (F): 7824 HR MIN TEMP (F): 64AVERAGE STATION PRESSURE:29.875 MINIMUM SEA LEVEL PRESSURE:29.85 TIME OF OCCURRENCE:2359 PEAK WIND SPEED (MPH): 25 PEAK WIND DIR (DEG):240 PEAK WIND TIME (LST):      FASTEST 2MIN SPEED (MPH): 20FASTEST 2MIN DIR (DEG):250 FASTEST 2MIN TIME (LST):     AVERAGE WIND SPEED (MPH): 8.2 24 HR AVG TEMP (F): 71DEPART FROM NORMAL:  4  HEATING DEGREE DAYS:  0 COOLING DEGREE DAYS:  6 LATEST DAY MAX TEMP (0700-1900 LST):78  LATEST NIGHT MIN TEMP(1900-0800 LST):64 HOURLY INCREMENTAL PRECIPITATION VALUES (IN):.29 T    0.03 0.01 T    0.00 0.00 T    T    0.00 0.00 0.00 0.00 0.00 0.00 0.11 0.12 0.02 0.02 0.01 0.01 T    0.10 0.07","SOD  ","6",,,,,,,,,,,,,,,,,,,,,,,,,"0425","1923",,"2009-05-01"
"74486094789","2020-06-06T00:49:00","FM-16","6",,"ESE","1.5","mi","TEMP, PRECIP, SNOW",,,"PSY, SRG, SNOWBOARD",,,"FAA CWO",,,,,,,,,,,,,,,,,,,,,,,,,,,"29.84","64","64",,"-RA:02 BR:1 |RA |RA",,,"100",,"SCT:04 5 SCT:04 60 BKN:07 130","29.82","6.00","64","180",,"8",,,,,,,,,,,,,,,,,,,,,,,,,,,,,,,,,,,,,"MET12106/06/20 00:49:02 SPECI KJFK 060549Z 18007KT 6SM -RA BR SCT005 SCT060 BKN130 18/18 A2984 RMK AO2 RAE07B43 P0000 FIBI (DM)","FM-16","6",,,,,,,,,,,,,,,,,,,,,,,,,,,,"2009-05-01"
"74486094789","2020-06-06T00:51:00","FM-15","7",,"ESE","1.5","mi","TEMP, PRECIP, SNOW",,,"PSY, SRG, SNOWBOARD",,,"FAA CWO",,,,,,,,,,,,,,,,,,,,,,,,,,,"29.84","64","64","T","-RA:02 BR:1 |RA |RA","+0.04","8","100","29.84","SCT:04 5 SCT:04 60 BKN:07 130","29.82","6.00","64","180",,"8",,,,,,,,,,,,,,,,,,,,,,,,,,,,,,,,,,,,,"MET15706/06/20 00:51:02 METAR KJFK 060551Z 18007KT 6SM -RA BR SCT005 SCT060 BKN130 18/18 A2984 RMK AO2 RAE07B43 SLP104 P0000 60019 T01780178 10211 20178 58015 (DM)","FM-15","7",,,,,,,,,,,,,,,,,,,,,,,,,,,,"2009-05-01"
"74486094789","2020-06-06T01:00:00","FM-12","4",,"ESE","1.5","mi","TEMP, PRECIP, SNOW",,,"PSY, SRG, SNOWBOARD",,,"FAA CWO",,,,,,,,,,,,,,,,,,,,,,,,,,,,"64","64",,"||RA","+0.04","8","100","29.84","5","29.81","5.59","64","180",,"8",,,,,,,,,,,,,,,,,,,,,,,,,,,,,,,,,,,,,"SYN09874486 11259 61807 10178 20178 30094 40104 58015 60051 761// 90551 333 10211 20178 96010 555 90606=","FM-12","4",,,,,,,,,,,,,,,,,,,,,,,,,,,,"2009-05-01"
"74486094789","2020-06-06T01:38:00","FM-16","7",,"ESE","1.5","mi","TEMP, PRECIP, SNOW",,,"PSY, SRG, SNOWBOARD",,,"FAA CWO",,,,,,,,,,,,,,,,,,,,,,,,,,,"29.82","64","64","T","BR:1 ||",,,"100",,"BKN:07 4 OVC:08 22","29.80","5.00","64","190",,"6",,,,,,,,,,,,,,,,,,,,,,,,,,,,,,,,,,,,,"MET11206/06/20 01:38:02 SPECI KJFK 060638Z 19005KT 5SM BR BKN004 OVC022 18/18 A2982 RMK AO2 RAE14 P0000 T01780178 (DM)","FM-16","7",,,,,,,,,,,,,,,,,,,,,,,,,,,,"2009-05-01"
"74486094789","2020-06-06T01:49:00","FM-16","6",,"ESE","1.5","mi","TEMP, PRECIP, SNOW",,,"PSY, SRG, SNOWBOARD",,,"FAA CWO",,,,,,,,,,,,,,,,,,,,,,,,,,,"29.82","63","64",,"BR:1 ||",,,"94",,"BKN:07 3 OVC:08 20","29.80","1.50","63","170",,"6",,,,,,,,,,,,,,,,,,,,,,,,,,,,,,,,,,,,,"MET12106/06/20 01:49:02 SPECI KJFK 060649Z 17005KT 1 1/2SM BR BKN003 OVC020 18/17 A2982 RMK AO2 SFC VIS 3 RAE14 P0000 FIBI (DM)","FM-16","6",,,,,,,,,,,,,,,,,,,,,,,,,,,,"2009-05-01"
"74486094789","2020-06-06T01:51:00","FM-15","7",,"ESE","1.5","mi","TEMP, PRECIP, SNOW",,,"PSY, SRG, SNOWBOARD",,,"FAA CWO",,,,,,,,,,,,,,,,,,,,,,,,,,,"29.82","63","64","T","BR:1 ||",,,"96","29.82","BKN:07 3 OVC:08 20","29.80","1.50","63","170",,"7",,,,,,,,,,,,,,,,,,,,,,,,,,,,,,,,,,,,,"MET13306/06/20 01:51:02 METAR KJFK 060651Z 17006KT 1 1/2SM BR BKN003 OVC020 18/17 A2982 RMK AO2 SFC VIS 3 RAE14 SLP098 P0000 T01780172 (DM)","FM-15","7",,,,,,,,,,,,,,,,,,,,,,,,,,,,"2009-05-01"
"74486094789","2020-06-06T02:51:00","FM-15","7",,"ESE","1.5","mi","TEMP, PRECIP, SNOW",,,"PSY, SRG, SNOWBOARD",,,"FAA CWO",,,,,,,,,,,,,,,,,,,,,,,,,,,"29.81","63","63","0.00","BR:1 ||",,,"100","29.80","OVC:08 3","29.78","1.50","63","200",,"3",,,,,,,,,,,,,,,,,,,,,,,,,,,,,,,,,,,,,"MET11406/06/20 02:51:02 METAR KJFK 060751Z 20003KT 1 1/2SM BR OVC003 17/17 A2981 RMK AO2 SFC VIS 3 SLP093 T01720172 (DM)","FM-15","7",,,,,,,,,,,,,,,,,,,,,,,,,,,,"2009-05-01"
"74486094789","2020-06-06T03:51:00","FM-15","7",,"ESE","1.5","mi","TEMP, PRECIP, SNOW",,,"PSY, SRG, SNOWBOARD",,,"FAA CWO",,,,,,,,,,,,,,,,,,,,,,,,,,,"29.81","63","63","0.00","BR:1 |s |","+0.03","5","100","29.81","OVC:08 2","29.78","0.50","63","000",,"0",,,,,,,,,,,,,,,,,,,,,,,,,,,,,,,,,,,,,"MET14306/06/20 03:51:02 METAR KJFK 060851Z 00000KT 1/2SM R04R/4500V5500FT BR OVC002 17/17 A2981 RMK AO2 SFC VIS 1 SLP094 60000 T01720172 55010 $ (DM)","FM-15","7",,,,,,,,,,,,,,,,,,,,,,,,,,,,"2009-05-01"
"74486094789","2020-06-06T04:00:00","FM-12","4",,"ESE","1.5","mi","TEMP, PRECIP, SNOW",,,"PSY, SRG, SNOWBOARD",,,"FAA CWO",,,,,,,,,,,,,,,,,,,,,,,,,,,,"63","63",,,"+0.03","5","100","29.81","2","29.78","0.50","63","000",,"0",,,,,,,,,,,,,,,,,,,,,,,,,,,,,,,,,,,,,"SYN07674486 11108 80000 10172 20172 30084 40094 55010 69907 710// 90851 555 90609=","FM-12","4",,,,,,,,,,,,,,,,,,,,,,,,,,,,"2009-05-01"
"74486094789","2020-06-06T04:51:00","FM-15","7",,"ESE","1.5","mi","TEMP, PRECIP, SNOW",,,"PSY, SRG, SNOWBOARD",,,"FAA CWO",,,,,,,,,,,,,,,,,,,,,,,,,,,"29.81","64","64","0.00","BR:1 |s |",,,"100","29.81","OVC:08 2","29.78","0.50","64","000",,"0",,,,,,,,,,,,,,,,,,,,,,,,,,,,,,,,,,,,,"MET13406/06/20 04:51:02 METAR KJFK 060951Z 00000KT 1/2SM R04R/6000VP6000FT BR OVC002 18/18 A2981 RMK AO2 SFC VIS 3/4 SLP094 T01780178 $ (DM)","FM-15","7",,,,,,,,,,,,,,,,,,,,,,,,,,,,"2009-05-01"
"74486094789","2020-06-06T05:51:00","FM-15","7",,"ESE","1.5","mi","TEMP, PRECIP, SNOW",,,"PSY, SRG, SNOWBOARD",,,"FAA CWO",,,,,,,,,,,,,,,,,,,,,,,,,,,"29.81","65","65","0.00","BR:1 |s |",,,"100","29.81","BKN:07 2 OVC:08 12","29.78","0.50","65","000",,"0",,,,,,,,,,,,,,,,,,,,,,,,,,,,,,,,,,,,,"MET13806/06/20 05:51:02 METAR KJFK 061051Z 00000KT 1/2SM R04R/P6000FT BR BKN002 OVC012 18/18 A2981 RMK AO2 SFC VIS 1 1/2 SLP094 T01830183 $ (RG)","FM-15","7",,,,,,,,,,,,,,,,,,,,,,,,,,,,"2009-05-01"
"74486094789","2020-06-06T06:26:00","FM-16","7",,"ESE","1.5","mi","TEMP, PRECIP, SNOW",,,"PSY, SRG, SNOWBOARD",,,"FAA CWO",,,,,,,,,,,,,,,,,,,,,,,,,,,"29.81","67","67",,"BR:1 |s |",,,"100",,"OVC:08 2","29.78","0.50","67","170",,"3",,,,,,,,,,,,,,,,,,,,,,,,,,,,,,,,,,,,,"MET12606/06/20 06:26:02 SPECI KJFK 061126Z 17003KT 1/2SM R04R/1000V1800FT BR OVC002 19/19 A2981 RMK AO2 SFC VIS 3/4 T01940194 $ (RG)","FM-16","7",,,,,,,,,,,,,,,,,,,,,,,,,,,,"2009-05-01"
"74486094789","2020-06-06T06:51:00","FM-15","7",,"ESE","1.5","mi","TEMP, PRECIP, SNOW",,,"PSY, SRG, SNOWBOARD",,,"FAA CWO",,,,,,,,,,,,,,,,,,,,,,,,,,,"29.81","67","67","0.00","FG:2 |FG |","+0.00","8","100","29.80","VV:09 2","29.78","0.50","67","210",,"5",,,,,,,,,,,,,,,,,,,,,,,,,,,,,,,,,,,,,"MET15006/06/20 06:51:02 METAR KJFK 061151Z 21004KT 1/2SM R04R/0600V0800FT FG VV002 19/19 A2981 RMK AO2 SLP093 60000 70046 T01940194 10194 20172 58001 $ (RG)","FM-15","7",,,,,,,,,,,,,,,,,,,,,,,,,,,,"2009-05-01"
"74486094789","2020-06-06T07:00:00","FM-12","4",,"ESE","1.5","mi","TEMP, PRECIP, SNOW",,,"PSY, SRG, SNOWBOARD",,,"FAA CWO",,,,,,,,,,,,,,,,,,,,,,,,,,,,"67","67",,"||FG","+0.00","8","100","29.80","2","29.78","0.50","67","210",,"5",,,,,,,,,,,,,,,,,,,,,,,,,,,,,,,,,,,,,"SYN09874486 11108 92104 10194 20194 30084 40093 58001 69901 741// 91151 333 10256 20172 70117 555 90612=","FM-12","4",,,,,,,,,,,,,,,,,,,,,,,,,,,,"2009-05-01"
"74486094789","2020-06-06T07:49:00","FM-16","6",,"ESE","1.5","mi","TEMP, PRECIP, SNOW",,,"PSY, SRG, SNOWBOARD",,,"FAA CWO",,,,,,,,,,,,,,,,,,,,,,,,,,,"29.81","70","70",,"FG:2 |FG |",,,"100",,"VV:09 2","29.78","0.50","70","200",,"5",,,,,,,,,,,,,,,,,,,,,,,,,,,,,,,,,,,,,"MET10806/06/20 07:49:02 SPECI KJFK 061249Z 20004KT 1/2SM R04R/1200V2600FT FG VV002 21/21 A2981 RMK AO2 $ FIBI (RG)","FM-16","6",,,,,,,,,,,,,,,,,,,,,,,,,,,,"2009-05-01"
"74486094789","2020-06-06T07:51:00","FM-15","7",,"ESE","1.5","mi","TEMP, PRECIP, SNOW",,,"PSY, SRG, SNOWBOARD",,,"FAA CWO",,,,,,,,,,,,,,,,,,,,,,,,,,,"29.81","69","69","0.00","FG:2 |FG |",,,"100","29.81","VV:09 2","29.78","0.50","69","210",,"5",,,,,,,,,,,,,,,,,,,,,,,,,,,,,,,,,,,,,"MET12006/06/20 07:51:02 METAR KJFK 061251Z 21004KT 1/2SM R04R/1600V6000FT FG VV002 21/21 A2981 RMK AO2 SLP094 T02060206 $ (RG)","FM-15","7",,,,,,,,,,,,,,,,,,,,,,,,,,,,"2009-05-01"
"74486094789","2020-06-06T08:28:00","FM-16","7",,"ESE","1.5","mi","TEMP, PRECIP, SNOW",,,"PSY, SRG, SNOWBOARD",,,"FAA CWO",,,,,,,,,,,,,,,,,,,,,,,,,,,"29.80","71","72",,"BR:1 ||",,,"97",,"SCT:04 4 BKN:07 12 BKN:07 200","29.78","5.00","71","230",,"9",,,,,,,,,,,,,,,,,,,,,,,,,,,,,,,,,,,,,"MET10906/06/20 08:28:02 SPECI KJFK 061328Z 23008KT 5SM BR SCT004 BKN012 BKN200 22/22 A2980 RMK AO2 T02220217 $ (RG)","FM-16","7",,,,,,,,,,,,,,,,,,,,,,,,,,,,"2009-05-01"
"74486094789","2020-06-06T08:49:00","FM-16","6",,"ESE","1.5","mi","TEMP, PRECIP, SNOW",,,"PSY, SRG, SNOWBOARD",,,"FAA CWO",,,,,,,,,,,,,,,,,,,,,,,,,,,"29.79","72","75",,"BR:1 ||",,,"89",,"FEW:02 6 SCT:04 12 BKN:07 250","29.77","6.00","73","240",,"9",,,,,,,,,,,,,,,,,,,,,,,,,,,,,,,,,,,,,"MET10406/06/20 08:49:02 SPECI KJFK 061349Z 24008KT 6SM BR FEW006 SCT012 BKN250 24/22 A2979 RMK AO2 $ FIBI (RG)","FM-16","6",,,,,,,,,,,,,,,,,,,,,,,,,,,,"2009-05-01"
"74486094789","2020-06-06T08:51:00","FM-15","7",,"ESE","1.5","mi","TEMP, PRECIP, SNOW",,,"PSY, SRG, SNOWBOARD",,,"FAA CWO",,,,,,,,,,,,,,,,,,,,,,,,,,,"29.79","71","75","0.00","BR:1 ||",,,"88","29.79","FEW:02 6 SCT:04 12 BKN:07 250","29.77","6.00","72","240",,"9",,,,,,,,,,,,,,,,,,,,,,,,,,,,,,,,,,,,,"MET11606/06/20 08:51:02 METAR KJFK 061351Z 24008KT 6SM BR FEW006 SCT012 BKN250 24/22 A2979 RMK AO2 SLP089 T02390217 $ (RG)","FM-15","7",,,,,,,,,,,,,,,,,,,,,,,,,,,,"2009-05-01"
"74486094789","2020-06-06T09:51:00","FM-15","7",,"ESE","1.5","mi","TEMP, PRECIP, SNOW",,,"PSY, SRG, SNOWBOARD",,,"FAA CWO",,,,,,,,,,,,,,,,,,,,,,,,,,,"29.79","71","77","0.00",,"+0.02","8","82","29.78","FEW:02 19 BKN:07 250","29.77","10.00","73","230",,"11",,,,,,,,,,,,,,,,,,,,,,,,,,,,,,,,,,,,,"MET11306/06/20 09:51:02 METAR KJFK 061451Z 23010KT 10SM FEW019 BKN250 25/22 A2979 RMK AO2 SLP086 T02500217 58006 $ (RG)","FM-15","7",,,,,,,,,,,,,,,,,,,,,,,,,,,,"2009-05-01"
"74486094789","2020-06-06T10:00:00","FM-12","4",,"ESE","1.5","mi","TEMP, PRECIP, SNOW",,,"PSY, SRG, SNOWBOARD",,,"FAA CWO",,,,,,,,,,,,,,,,,,,,,,,,,,,,"71","77",,,"+0.02","8","82","29.78","15","29.76","9.94","73","230",,"11",,,,,,,,,,,,,,,,,,,,,,,,,,,,,,,,,,,,,"SYN06474486 32466 62310 10250 20217 30077 40086 58006 91451 555 90615=","FM-12","4",,,,,,,,,,,,,,,,,,,,,,,,,,,,"2009-05-01"
"74486094789","2020-06-06T10:51:00","FM-15","7",,"ESE","1.5","mi","TEMP, PRECIP, SNOW",,,"PSY, SRG, SNOWBOARD",,,"FAA CWO",,,,,,,,,,,,,,,,,,,,,,,,,,,"29.77","72","81","0.00",,,,"74","29.77","FEW:02 25 BKN:07 250","29.75","10.00","75","230",,"11",,,,,,,,,,,,,,,,,,,,,,,,,,,,,,,,,,,,,"MET10706/06/20 10:51:02 METAR KJFK 061551Z 23010KT 10SM FEW025 BKN250 27/22 A2977 RMK AO2 SLP082 T02720222 $ (RG)","FM-15","7",,,,,,,,,,,,,,,,,,,,,,,,,,,,"2009-05-01"
"74486094789","2020-06-06T11:51:00","FM-15","7",,"ESE","1.5","mi","TEMP, PRECIP, SNOW",,,"PSY, SRG, SNOWBOARD",,,"FAA CWO",,,,,,,,,,,,,,,,,,,,,,,,,,,"29.76","71","81","0.00",,,,"72","29.75","FEW:02 35 BKN:07 250","29.74","10.00","74","210",,"13",,,,,,,,,,,,,,,,,,,,,,,,,,,,,,,,,,,,,"MET10706/06/20 11:51:02 METAR KJFK 061651Z 21011KT 10SM FEW035 BKN250 27/22 A2976 RMK AO2 SLP076 T02720217 $ (RG)","FM-15","7",,,,,,,,,,,,,,,,,,,,,,,,,,,,"2009-05-01"
"74486094789","2020-06-06T12:51:00","FM-15","7",,"ESE","1.5","mi","TEMP, PRECIP, SNOW",,,"PSY, SRG, SNOWBOARD",,,"FAA CWO",,,,,,,,,,,,,,,,,,,,,,,,,,,"29.72","71","83","0.00",,"+0.06","8","67","29.72","SCT:04 40 BKN:07 250","29.70","10.00","75","200",,"15",,,,,,,,,,,,,,,,,,,,,,,,,,,,,,,,,,,,,"MET12506/06/20 12:51:02 METAR KJFK 061751Z 20013KT 10SM SCT040 BKN250 28/22 A2972 RMK AO2 SLP065 T02830217 10294 20194 58021 $ (RG)","FM-15","7",,,,,,,,,,,,,,,,,,,,,,,,,,,,"2009-05-01"
"74486094789","2020-06-06T13:00:00","FM-12","4",,"ESE","1.5","mi","TEMP, PRECIP, SNOW",,,"PSY, SRG, SNOWBOARD",,,"FAA CWO",,,,,,,,,,,,,,,,,,,,,,,,,,,,"71","83",,,"+0.06","8","67","29.72","41","29.69","9.94","75","200",,"15",,,,,,,,,,,,,,,,,,,,,,,,,,,,,,,,,,,,,"SYN08074486 32666 62013 10283 20217 30053 40065 58021 91751 333 10294 20194 555 90618=","FM-12","4",,,,,,,,,,,,,,,,,,,,,,,,,,,,"2009-05-01"
"74486094789","2020-06-06T13:51:00","FM-15","7",,"ESE","1.5","mi","TEMP, PRECIP, SNOW",,,"PSY, SRG, SNOWBOARD",,,"FAA CWO",,,,,,,,,,,,,,,,,,,,,,,,,,,"29.69","70","80","0.00",,,,"71","29.69","SCT:04 45 BKN:07 250","29.67","10.00","73","190",,"16",,,,,,,,,,,,,,,,,,,,,,,,,,,,,,,,,,,,,"MET12506/06/20 13:51:02 METAR KJFK 061851Z 19014KT 10SM SCT045 BKN250 27/21 A2969 RMK AO2 LTG DSNT N AND NW SLP054 T02670211 $ (RG)","FM-15","7",,,,,,,,,,,,,,,,,,,,,,,,,,,,"2009-05-01"
"74486094789","2020-06-06T14:11:00","FM-16","7",,"ESE","1.5","mi","TEMP, PRECIP, SNOW",,,"PSY, SRG, SNOWBOARD",,,"FAA CWO",,,,,,,,,,,,,,,,,,,,,,,,,,,"29.69","70","81",,"VCTS:7 ||",,,"69",,"SCT:04 50 BKN:07 250","29.67","10.00","74","200",,"13",,,,,,,,,,,,,,,,,,,,,,,,,,,,,,,,,,,,,"MET12906/06/20 14:11:02 SPECI KJFK 061911Z 20011KT 10SM VCTS SCT050 BKN250 27/21 A2969 RMK AO2 LTG DSNT N AND NE TSE05 T02720211 $ (RG)","FM-16","7",,,,,,,,,,,,,,,,,,,,,,,,,,,,"2009-05-01"
"74486094789","2020-06-06T14:35:00","FM-16","7",,"ESE","1.5","mi","TEMP, PRECIP, SNOW",,,"PSY, SRG, SNOWBOARD",,,"FAA CWO",,,,,,,,,,,,,,,,,,,,,,,,,,,"29.69","69","80",,,,,"69",,"SCT:04 55 SCT:04 70 BKN:07 250","29.67","10.00","73","200",,"14",,,,,,,,,,,,,,,,,,,,,,,,,,,,,,,,,,,,,"MET11306/06/20 14:35:02 SPECI KJFK 061935Z 20012KT 10SM SCT055 SCT070 BKN250 27/21 A2969 RMK AO2 TSE05 T02670206 $ (RG)","FM-16","7",,,,,,,,,,,,,,,,,,,,,,,,,,,,"2009-05-01"
"74486094789","2020-06-06T14:51:00","FM-15","7",,"ESE","1.5","mi","TEMP, PRECIP, SNOW",,,"PSY, SRG, SNOWBOARD",,,"FAA CWO",,,,,,,,,,,,,,,,,,,,,,,,,,,"29.69","66","76","0.16","|RA |",,,"72","29.69","SCT:04 15 BKN:07 40 BKN:07 70","29.67","3.00","70","190","43","13",,,,,,,,,,,,,,,,,,,,,,,,,,,,,,,,,,,,,"MET15606/06/20 14:51:02 METAR KJFK 061951Z 19011G37KT 3SM +RA SCT015 BKN040 BKN070 24/19 A2969 RMK AO2 LTG DSNT NE AND E RAB41 TSE05 SLP055 P0014 T02440189 $ (RG)","FM-15","7",,,,,,,,,,,,,,,,,,,,,,,,,,,,"2009-05-01"
"74486094789","2020-06-06T15:51:00","FM-15","7",,"ESE","1.5","mi","TEMP, PRECIP, SNOW",,,"PSY, SRG, SNOWBOARD",,,"FAA CWO",,,,,,,,,,,,,,,,,,,,,,,,,,,"29.70","68","79","T","|RA |","+0.03","5","69","29.69","SCT:04 38 BKN:07 60 BKN:07 75","29.67","10.00","72","350","30","23",,,,,,,,,,,,,,,,,,,,,,,,,,,,,,,,,,,,,"MET16406/06/20 15:51:02 METAR KJFK 062051Z 35020G26KT 10SM -RA SCT038 BKN060 BKN075 26/20 A2970 RMK AO2 PK WND 35026/2051 RAE05B50 SLP055 P0002 60016 T02610200 55009 (RG)","FM-15","7",,,,,,,,,,,,,,,,,,,,,,,,,,,,"2009-05-01"
"74486094789","2020-06-06T16:00:00","FM-12","4",,"ESE","1.5","mi","TEMP, PRECIP, SNOW",,,"PSY, SRG, SNOWBOARD",,,"FAA CWO",,,,,,,,,,,,,,,,,,,,,,,,,,,,"68","79",,"||RA","+0.03","5","69","29.69","41","29.67","9.94","72","350",,"23",,,,,,,,,,,,,,,,,,,,,,,,,,,,,,,,,,,,,"SYN08674486 11666 63520 10261 20200 30046 40055 55009 60047 761// 92051 333 91026 555 90621=","FM-12","4",,,,,,,,,,,,,,,,,,,,,,,,,,,,"2009-05-01"
"74486094789","2020-06-06T16:00:00","FM-16","7",,"ESE","1.5","mi","TEMP, PRECIP, SNOW",,,"PSY, SRG, SNOWBOARD",,,"FAA CWO",,,,,,,,,,,,,,,,,,,,,,,,,,,"29.70","67","76","T","|RA |",,,"74",,"SCT:04 38 BKN:07 60","29.67","10.00","70","030","30","9",,,,,,,,,,,,,,,,,,,,,,,,,,,,,,,,,,,,,"MET13506/06/20 16:00:02 SPECI KJFK 062100Z 03008G26KT 10SM VCTS -RA SCT038CB BKN060 BKN0 24/19 A2970 RMK AO2 CB E MOV SE P0000 T02440194 (RG)","FM-16","7",,,,,,,,,,,,,,,,,,,,,,,,,,,,"2009-05-01"
"74486094789","2020-06-06T16:15:00","FM-16","7",,"ESE","1.5","mi","TEMP, PRECIP, SNOW",,,"PSY, SRG, SNOWBOARD",,,"FAA CWO",,,,,,,,,,,,,,,,,,,,,,,,,,,"29.69","68","76","T",,,,"77",,"SCT:04 38 BKN:07 60 BKN:07 75","29.67","10.00","71","060",,"5",,,,,,,,,,,,,,,,,,,,,,,,,,,,,,,,,,,,,"MET12806/06/20 16:15:02 SPECI KJFK 062115Z 06004KT 10SM SCT038 BKN060 BKN075 24/20 A2969 RMK AO2 LTG DSNT E RAE01 P0000 T02440200 (RG)","FM-16","7",,,,,,,,,,,,,,,,,,,,,,,,,,,,"2009-05-01"
"74486094789","2020-06-06T16:51:00","FM-15","7",,"ESE","1.5","mi","TEMP, PRECIP, SNOW",,,"PSY, SRG, SNOWBOARD",,,"FAA CWO",,,,,,,,,,,,,,,,,,,,,,,,,,,"29.69","65","85","T",,,,"51","29.69","FEW:02 40 BKN:07 70 BKN:07 85","29.67","10.00","72","310",,"11",,,,,,,,,,,,,,,,,,,,,,,,,,,,,,,,,,,,,"MET13506/06/20 16:51:02 METAR KJFK 062151Z 31010KT 10SM FEW040 BKN070 BKN085 29/18 A2969 RMK AO2 LTG DSNT E RAE01 SLP053 P0000 T02940183 (RG)","FM-15","7",,,,,,,,,,,,,,,,,,,,,,,,,,,,"2009-05-01"
"74486094789","2020-06-06T17:51:00","FM-15","7",,"ESE","1.5","mi","TEMP, PRECIP, SNOW",,,"PSY, SRG, SNOWBOARD",,,"FAA CWO",,,,,,,,,,,,,,,,,,,,,,,,,,,"29.71","55","84","0.00",,,,"37","29.71","FEW:02 50 SCT:04 75 SCT:04 120","29.69","10.00","66","330","23","14",,,,,,,,,,,,,,,,,,,,,,,,,,,,,,,,,,,,,"MET13206/06/20 17:51:02 METAR KJFK 062251Z 33012G20KT 10SM FEW050 SCT075 SCT120 29/13 A2971 RMK AO2 SLP060 CB DSNT S MOV SE T02890128 (DM)","FM-15","7",,,,,,,,,,,,,,,,,,,,,,,,,,,,"2009-05-01"
"74486094789","2020-06-06T18:51:00","FM-15","7",,"ESE","1.5","mi","TEMP, PRECIP, SNOW",,,"PSY, SRG, SNOWBOARD",,,"FAA CWO",,,,,,,,,,,,,,,,,,,,,,,,,,,"29.73","46","82","0.00",,"-0.04","3","28","29.73","FEW:02 50 FEW:02 70 FEW:02 130","29.70","10.00","62","330","29","23",,,,,,,,,,,,,,,,,,,,,,,,,,,,,,,,,,,,,"MET17506/06/20 18:51:02 METAR KJFK 062351Z 33020G25KT 10SM FEW050 FEW070 FEW130 28/08 A2973 RMK AO2 PK WND 32030/2318 SLP069 CB DSNT SE MOV SE 60016 T02780078 10300 20244 53013 (DM)","FM-15","7",,,,,,,,,,,,,,,,,,,,,,,,,,,,"2009-05-01"
"74486094789","2020-06-06T19:00:00","FM-12","4",,"ESE","1.5","mi","TEMP, PRECIP, SNOW",,,"PSY, SRG, SNOWBOARD",,,"FAA CWO",,,,,,,,,,,,,,,,,,,,,,,,,,,,"46","82",,,"-0.04","3","28","29.73","57","29.70","9.94","62","330",,"23",,,,,,,,,,,,,,,,,,,,,,,,,,,,,,,,,,,,,"SYN09274486 12766 23320 10278 20078 30056 40069 53013 60041 92351 333 10300 20172 91025 555 90700=","FM-12","4",,,,,,,,,,,,,,,,,,,,,,,,,,,,"2009-05-01"
"74486094789","2020-06-06T19:51:00","FM-15","7",,"ESE","1.5","mi","TEMP, PRECIP, SNOW",,,"PSY, SRG, SNOWBOARD",,,"FAA CWO",,,,,,,,,,,,,,,,,,,,,,,,,,,"29.76","47","79","0.00",,,,"32","29.75","FEW:02 70 FEW:02 110 FEW:02 250","29.74","10.00","61","320",,"20",,,,,,,,,,,,,,,,,,,,,,,,,,,,,,,,,,,,,"MET10706/06/20 19:51:01 METAR KJFK 070051Z 32017KT 10SM FEW070 FEW110 FEW250 26/08 A2976 RMK AO2 SLP076 T02610083","FM-15","7",,,,,,,,,,,,,,,,,,,,,,,,,,,,"2009-05-01"
"74486094789","2020-06-06T20:51:00","FM-15","7",,"ESE","1.5","mi","TEMP, PRECIP, SNOW",,,"PSY, SRG, SNOWBOARD",,,"FAA CWO",,,,,,,,,,,,,,,,,,,,,,,,,,,"29.78","44","78","0.00",,,,"30","29.78","FEW:02 70 FEW:02 250","29.75","10.00","59","330","24","16",,,,,,,,,,,,,,,,,,,,,,,,,,,,,,,,,,,,,"MET10306/06/20 20:51:01 METAR KJFK 070151Z 33014G21KT 10SM FEW070 FEW250 26/07 A2978 RMK AO2 SLP085 T02560067","FM-15","7",,,,,,,,,,,,,,,,,,,,,,,,,,,,"2009-05-01"
"74486094789","2020-06-06T21:51:00","FM-15","7",,"ESE","1.5","mi","TEMP, PRECIP, SNOW",,,"PSY, SRG, SNOWBOARD",,,"FAA CWO",,,,,,,,,,,,,,,,,,,,,,,,,,,"29.79","45","75","0.00",,"-0.06","1","34","29.79","FEW:02 100 FEW:02 250","29.77","10.00","59","330",,"15",,,,,,,,,,,,,,,,,,,,,,,,,,,,,,,,,,,,,"MET10606/06/20 21:51:01 METAR KJFK 070251Z 33013KT 10SM FEW100 FEW250 24/07 A2979 RMK AO2 SLP088 T02390072 51020","FM-15","7",,,,,,,,,,,,,,,,,,,,,,,,,,,,"2009-05-01"
"74486094789","2020-06-06T22:00:00","FM-12","4",,"ESE","1.5","mi","TEMP, PRECIP, SNOW",,,"PSY, SRG, SNOWBOARD",,,"FAA CWO",,,,,,,,,,,,,,,,,,,,,,,,,,,,"45","75",,,"-0.06","1","34","29.79",,"29.76","9.94","59","330",,"15",,,,,,,,,,,,,,,,,,,,,,,,,,,,,,,,,,,,,"SYN06474486 32966 23313 10239 20072 30077 40088 51020 90251 555 90703=","FM-12","4",,,,,,,,,,,,,,,,,,,,,,,,,,,,"2009-05-01"
"74486094789","2020-06-06T22:51:00","FM-15","7",,"ESE","1.5","mi","TEMP, PRECIP, SNOW",,,"PSY, SRG, SNOWBOARD",,,"FAA CWO",,,,,,,,,,,,,,,,,,,,,,,,,,,"29.81","45","73","0.00",,,,"37","29.81","FEW:02 100 FEW:02 250","29.78","10.00","58","340",,"10",,,,,,,,,,,,,,,,,,,,,,,,,,,,,,,,,,,,,"MET10006/06/20 22:51:02 METAR KJFK 070351Z 34009KT 10SM FEW100 FEW250 23/07 A2981 RMK AO2 SLP094 T02280072","FM-15","7",,,,,,,,,,,,,,,,,,,,,,,,,,,,"2009-05-01"
"74486094789","2020-06-06T23:51:00","FM-15","7",,"ESE","1.5","mi","TEMP, PRECIP, SNOW",,,"PSY, SRG, SNOWBOARD",,,"FAA CWO",,,,,,,,,,,,,,,,,,,,,,,,,,,"29.82","46","69","0.00",,,,"44","29.81","FEW:02 100 FEW:02 250","29.80","10.00","57","350",,"7",,,,,,,,,,,,,,,,,,,,,,,,,,,,,,,,,,,,,"MET11006/06/20 23:51:02 METAR KJFK 070451Z 35006KT 10SM FEW100 FEW250 21/08 A2982 RMK AO2 SLP096 T02060078 403000172","FM-15","7",,,,,,,,,,,,,,,,,,,,,,,,,,,,"2009-05-01"
"74486094789","2020-06-06T23:59:00","SOD  ","6",,"ESE","1.5","mi","TEMP, PRECIP, SNOW",,,"PSY, SRG, SNOWBOARD",,,"FAA CWO",,,,"61","75","69","29.77","29.75","67","10.6","10","7.5","0","86","63","190","43","0.16","0","0.0","320","26","TS RA FG BR",,,,,,,,,,,,,,,,,,,,,,,,,,,,,,,,,,,,,,,,,,,,,,,,,,,,,,,,"SOD75924 HR PRECIPITATION (IN): 0.16 SNOW DEPTH (IN):0     24 HR SNOWFALL (IN):0.0  WEATHER(CODE):1238  24 HR MAX TEMP (F): 8624 HR MIN TEMP (F): 63AVERAGE STATION PRESSURE:29.745 MINIMUM SEA LEVEL PRESSURE:29.68 TIME OF OCCURRENCE:1657 PEAK WIND SPEED (MPH): 43 PEAK WIND DIR (DEG):190 PEAK WIND TIME (LST):      FASTEST 2MIN SPEED (MPH): 26FASTEST 2MIN DIR (DEG):320 FASTEST 2MIN TIME (LST):     AVERAGE WIND SPEED (MPH):10.6 24 HR AVG TEMP (F): 75DEPART FROM NORMAL:  7  HEATING DEGREE DAYS:  0 COOLING DEGREE DAYS: 10 LATEST DAY MAX TEMP (0700-1900 LST):86  LATEST NIGHT MIN TEMP(1900-0800 LST):63 HOURLY INCREMENTAL PRECIPITATION VALUES (IN):    T    0.00 0.00 0.00 0.00 0.00 0.00 0.00 0.00 0.00 0.00 0.00 0.00 0.16 T    T    0.00 0.00 0.00 0.00 0.00 0.00 0.00","SOD  ","6",,,,,,,,,,,,,,,,,,,,,,,,,"0424","1924",,"2009-05-01"
"74486094789","2020-06-07T00:51:00","FM-15","7",,"ESE","1.5","mi","TEMP, PRECIP, SNOW",,,"PSY, SRG, SNOWBOARD",,,"FAA CWO",,,,,,,,,,,,,,,,,,,,,,,,,,,"29.81","48","66","0.00",,"-0.02","0","52","29.81","FEW:02 70 FEW:02 250","29.78","10.00","56","350",,"7",,,,,,,,,,,,,,,,,,,,,,,,,,,,,,,,,,,,,"MET12306/07/20 00:51:02 METAR KJFK 070551Z 35006KT 10SM FEW070 FEW250 19/09 A2981 RMK AO2 SLP094 T01890089 10278 20189 50006 (DM)","FM-15","7",,,,,,,,,,,,,,,,,,,,,,,,,,,,"2009-05-01"
"74486094789","2020-06-07T01:00:00","FM-12","4",,"ESE","1.5","mi","TEMP, PRECIP, SNOW",,,"PSY, SRG, SNOWBOARD",,,"FAA CWO",,,,,,,,,,,,,,,,,,,,,,,,,,,,"48","66",,,"0.02","9","52","29.81","74","29.78","9.94","56","350",,"7",,,,,,,,,,,,,,,,,,,,,,,,,,,,,,,,,,,,,"SYN08074486 32866 23506 10189 20089 30084 40094 50006 90551 333 10278 20172 555 90706=","FM-12","4",,,,,,,,,,,,,,,,,,,,,,,,,,,,"2009-05-01"
"74486094789","2020-06-07T01:51:00","FM-15","7",,"ESE","1.5","mi","TEMP, PRECIP, SNOW",,,"PSY, SRG, SNOWBOARD",,,"FAA CWO",,,,,,,,,,,,,,,,,,,,,,,,,,,"29.81","48","69","0.00",,,,"47","29.81","FEW:02 70 FEW:02 110","29.78","10.00","57","340",,"16",,,,,,,,,,,,,,,,,,,,,,,,,,,,,,,,,,,,,"MET10506/07/20 01:51:02 METAR KJFK 070651Z 34014KT 10SM FEW070 FEW110 21/09 A2981 RMK AO2 SLP094 T02060089 (DM)","FM-15","7",,,,,,,,,,,,,,,,,,,,,,,,,,,,"2009-05-01"
"74486094789","2020-06-07T02:51:00","FM-15","7",,"ESE","1.5","mi","TEMP, PRECIP, SNOW",,,"PSY, SRG, SNOWBOARD",,,"FAA CWO",,,,,,,,,,,,,,,,,,,,,,,,,,,"29.81","48","68","0.00",,,,"49","29.80","FEW:02 110","29.78","10.00","57","340",,"17",,,,,,,,,,,,,,,,,,,,,,,,,,,,,,,,,,,,,"MET09806/07/20 02:51:02 METAR KJFK 070751Z 34015KT 10SM FEW110 20/09 A2981 RMK AO2 SLP093 T02000089 (DM)","FM-15","7",,,,,,,,,,,,,,,,,,,,,,,,,,,,"2009-05-01"
"74486094789","2020-06-07T03:51:00","FM-15","7",,"ESE","1.5","mi","TEMP, PRECIP, SNOW",,,"PSY, SRG, SNOWBOARD",,,"FAA CWO",,,,,,,,,,,,,,,,,,,,,,,,,,,"29.81","49","66","0.00",,"-0.00","3","54","29.81","CLR:00","29.78","10.00","57","340",,"13",,,,,,,,,,,,,,,,,,,,,,,,,,,,,,,,,,,,,"MET10106/07/20 03:51:02 METAR KJFK 070851Z 34011KT 10SM CLR 19/09 A2981 RMK AO2 SLP095 T01890094 53001 (DM)","FM-15","7",,,,,,,,,,,,,,,,,,,,,,,,,,,,"2009-05-01"
"74486094789","2020-06-07T04:00:00","FM-12","4",,"ESE","1.5","mi","TEMP, PRECIP, SNOW",,,"PSY, SRG, SNOWBOARD",,,"FAA CWO",,,,,,,,,,,,,,,,,,,,,,,,,,,,"49","66",,,"-0.00","3","54","29.81",,"29.78","9.94","57","340",,"13",,,,,,,,,,,,,,,,,,,,,,,,,,,,,,,,,,,,,"SYN06474486 32966 03411 10189 20094 30084 40095 53001 90851 555 90709=","FM-12","4",,,,,,,,,,,,,,,,,,,,,,,,,,,,"2009-05-01"
"74486094789","2020-06-07T04:51:00","FM-15","7",,"ESE","1.5","mi","TEMP, PRECIP, SNOW",,,"PSY, SRG, SNOWBOARD",,,"FAA CWO",,,,,,,,,,,,,,,,,,,,,,,,,,,"29.86","50","64","0.00",,,,"60","29.85","FEW:02 250","29.83","10.00","56","360",,"13",,,,,,,,,,,,,,,,,,,,,,,,,,,,,,,,,,,,,"MET09806/07/20 04:51:02 METAR KJFK 070951Z 36011KT 10SM FEW250 18/10 A2986 RMK AO2 SLP110 T01780100 (DM)","FM-15","7",,,,,,,,,,,,,,,,,,,,,,,,,,,,"2009-05-01"
"74486094789","2020-06-07T05:51:00","FM-15","7",,"ESE","1.5","mi","TEMP, PRECIP, SNOW",,,"PSY, SRG, SNOWBOARD",,,"FAA CWO",,,,,,,,,,,,,,,,,,,,,,,,,,,"29.88","50","64","0.00",,,,"60","29.88","FEW:02 250","29.85","10.00","56","350","24","17",,,,,,,,,,,,,,,,,,,,,,,,,,,,,,,,,,,,,"MET10106/07/20 05:51:02 METAR KJFK 071051Z 35015G21KT 10SM FEW250 18/10 A2988 RMK AO2 SLP118 T01780100 (ML)","FM-15","7",,,,,,,,,,,,,,,,,,,,,,,,,,,,"2009-05-01"
"74486094789","2020-06-07T06:51:00","FM-15","7",,"ESE","1.5","mi","TEMP, PRECIP, SNOW",,,"PSY, SRG, SNOWBOARD",,,"FAA CWO",,,,,,,,,,,,,,,,,,,,,,,,,,,"29.90","50","66","0.00",,"-0.09","1","56","29.90","FEW:02 40 FEW:02 250","29.88","10.00","57","350","26","20",,,,,,,,,,,,,,,,,,,,,,,,,,,,,,,,,,,,,"MET13206/07/20 06:51:02 METAR KJFK 071151Z 35017G23KT 10SM FEW040 FEW250 19/10 A2990 RMK AO2 SLP124 70016 T01890100 10206 20172 51029 (ML)","FM-15","7",,,,,,,,,,,,,,,,,,,,,,,,,,,,"2009-05-01"
"74486094789","2020-06-07T07:00:00","FM-12","4",,"ESE","1.5","mi","TEMP, PRECIP, SNOW",,,"PSY, SRG, SNOWBOARD",,,"FAA CWO",,,,,,,,,,,,,,,,,,,,,,,,,,,,"50","66",,,"-0.09","1","56","29.90","41","29.87","9.94","57","350",,"20",,,,,,,,,,,,,,,,,,,,,,,,,,,,,,,,,,,,,"SYN09274486 32666 23517 10189 20100 30114 40124 51029 91151 333 10300 20172 70041 91023 555 90712=","FM-12","4",,,,,,,,,,,,,,,,,,,,,,,,,,,,"2009-05-01"
"74486094789","2020-06-07T07:51:00","FM-15","7",,"ESE","1.5","mi","TEMP, PRECIP, SNOW",,,"PSY, SRG, SNOWBOARD",,,"FAA CWO",,,,,,,,,,,,,,,,,,,,,,,,,,,"29.90","50","67","0.00",,,,"55","29.90","CLR:00","29.88","10.00","58","330",,"18",,,,,,,,,,,,,,,,,,,,,,,,,,,,,,,,,,,,,"MET09506/07/20 07:51:02 METAR KJFK 071251Z 33016KT 10SM CLR 19/10 A2990 RMK AO2 SLP126 T01940100 (ML)","FM-15","7",,,,,,,,,,,,,,,,,,,,,,,,,,,,"2009-05-01"
"74486094789","2020-06-07T08:51:00","FM-15","7",,"ESE","1.5","mi","TEMP, PRECIP, SNOW",,,"PSY, SRG, SNOWBOARD",,,"FAA CWO",,,,,,,,,,,,,,,,,,,,,,,,,,,"29.90","51","70","0.00",,,,"51","29.90","FEW:02 50","29.88","10.00","59","330",,"10",,,,,,,,,,,,,,,,,,,,,,,,,,,,,,,,,,,,,"MET09806/07/20 08:51:02 METAR KJFK 071351Z 33009KT 10SM FEW050 21/11 A2990 RMK AO2 SLP124 T02110106 (ML)","FM-15","7",,,,,,,,,,,,,,,,,,,,,,,,,,,,"2009-05-01"
"74486094789","2020-06-07T09:51:00","FM-15","7",,"ESE","1.5","mi","TEMP, PRECIP, SNOW",,,"PSY, SRG, SNOWBOARD",,,"FAA CWO",,,,,,,,,,,,,,,,,,,,,,,,,,,"29.90","49","71","0.00",,"+0.00","8","46","29.90","SCT:04 49","29.88","10.00","59","330","28","21",,,,,,,,,,,,,,,,,,,,,,,,,,,,,,,,,,,,,"MET12506/07/20 09:51:02 METAR KJFK 071451Z 33018G24KT 10SM SCT049 22/09 A2990 RMK AO2 PK WND 33031/1438 SLP124 T02170094 58000 (ML)","FM-15","7",,,,,,,,,,,,,,,,,,,,,,,,,,,,"2009-05-01"
"74486094789","2020-06-07T10:00:00","FM-12","4",,"ESE","1.5","mi","TEMP, PRECIP, SNOW",,,"PSY, SRG, SNOWBOARD",,,"FAA CWO",,,,,,,,,,,,,,,,,,,,,,,,,,,,"49","71",,,"0.00","4","46","29.90","41","29.87","9.94","59","330",,"21",,,,,,,,,,,,,,,,,,,,,,,,,,,,,,,,,,,,,"SYN07474486 32666 43318 10217 20094 30114 40124 58000 91451 333 91024 555 90715=","FM-12","4",,,,,,,,,,,,,,,,,,,,,,,,,,,,"2009-05-01"
"74486094789","2020-06-07T10:51:00","FM-15","7",,"ESE","1.5","mi","TEMP, PRECIP, SNOW",,,"PSY, SRG, SNOWBOARD",,,"FAA CWO",,,,,,,,,,,,,,,,,,,,,,,,,,,"29.90","50","74","0.00",,,,"43","29.90","SCT:04 55","29.88","10.00","60","340","29","16",,,,,,,,,,,,,,,,,,,,,,,,,,,,,,,,,,,,,"MET11906/07/20 10:51:02 METAR KJFK 071551Z 34014G25KT 10SM SCT055 23/10 A2990 RMK AO2 PK WND 32026/1520 SLP124 T02330100 (ML)","FM-15","7",,,,,,,,,,,,,,,,,,,,,,,,,,,,"2009-05-01"
"74486094789","2020-06-07T11:51:00","FM-15","7",,"ESE","1.5","mi","TEMP, PRECIP, SNOW",,,"PSY, SRG, SNOWBOARD",,,"FAA CWO",,,,,,,,,,,,,,,,,,,,,,,,,,,"29.89","48","76","0.00",,,,"37","29.89","BKN:07 60","29.87","10.00","60","360","28","14",,,,,,,,,,,,,,,,,,,,,,,,,,,,,,,,,,,,,"MET11906/07/20 11:51:02 METAR KJFK 071651Z 36012G24KT 10SM BKN060 24/09 A2989 RMK AO2 PK WND 32026/1626 SLP121 T02440089 (ML)","FM-15","7",,,,,,,,,,,,,,,,,,,,,,,,,,,,"2009-05-01"
"74486094789","2020-06-07T12:51:00","FM-15","7",,"ESE","1.5","mi","TEMP, PRECIP, SNOW",,,"PSY, SRG, SNOWBOARD",,,"FAA CWO",,,,,,,,,,,,,,,,,,,,,,,,,,,"29.90","46","73","0.00",,"+0.00","5","38","29.89","BKN:07 70","29.88","10.00","58","340",,"18",,,,,,,,,,,,,,,,,,,,,,,,,,,,,,,,,,,,,"MET11606/07/20 12:51:02 METAR KJFK 071751Z 34016KT 10SM BKN070 23/08 A2990 RMK AO2 SLP123 T02280078 10250 20183 55001 (ML)","FM-15","7",,,,,,,,,,,,,,,,,,,,,,,,,,,,"2009-05-01"
"74486094789","2020-06-07T13:00:00","FM-12","4",,"ESE","1.5","mi","TEMP, PRECIP, SNOW",,,"PSY, SRG, SNOWBOARD",,,"FAA CWO",,,,,,,,,,,,,,,,,,,,,,,,,,,,"46","73",,,"+0.00","5","38","29.89","74","29.87","9.94","58","340",,"18",,,,,,,,,,,,,,,,,,,,,,,,,,,,,,,,,,,,,"SYN08074486 32866 63416 10228 20078 30114 40123 55001 91751 333 10250 20183 555 90718=","FM-12","4",,,,,,,,,,,,,,,,,,,,,,,,,,,,"2009-05-01"
"74486094789","2020-06-07T13:51:00","FM-15","7",,"ESE","1.5","mi","TEMP, PRECIP, SNOW",,,"PSY, SRG, SNOWBOARD",,,"FAA CWO",,,,,,,,,,,,,,,,,,,,,,,,,,,"29.88","46","76","0.00",,,,"35","29.88","BKN:07 75","29.85","10.00","59","330","29","24",,,,,,,,,,,,,,,,,,,,,,,,,,,,,,,,,,,,,"MET10106/07/20 13:51:02 METAR KJFK 071851Z 33021G25KT 10SM BKN075 24/08 A2988 RMK AO2 SLP119 T02440078 (RG)","FM-15","7",,,,,,,,,,,,,,,,,,,,,,,,,,,,"2009-05-01"
"74486094789","2020-06-07T14:51:00","FM-15","7",,"ESE","1.5","mi","TEMP, PRECIP, SNOW",,,"PSY, SRG, SNOWBOARD",,,"FAA CWO",,,,,,,,,,,,,,,,,,,,,,,,,,,"29.87","45","76","0.00",,,,"33","29.87","BKN:07 75","29.85","10.00","59","340","23","16",,,,,,,,,,,,,,,,,,,,,,,,,,,,,,,,,,,,,"MET11906/07/20 14:51:02 METAR KJFK 071951Z 34014G20KT 10SM BKN075 24/07 A2987 RMK AO2 PK WND 33026/1854 SLP115 T02440072 (RG)","FM-15","7",,,,,,,,,,,,,,,,,,,,,,,,,,,,"2009-05-01"
"74486094789","2020-06-07T15:51:00","FM-15","7",,"ESE","1.5","mi","TEMP, PRECIP, SNOW",,,"PSY, SRG, SNOWBOARD",,,"FAA CWO",,,,,,,,,,,,,,,,,,,,,,,,,,,"29.87","43","74","0.00",,"+0.02","6","33","29.87","BKN:07 80","29.85","10.00","57","360","24","11",,,,,,,,,,,,,,,,,,,,,,,,,,,,,,,,,,,,,"MET10706/07/20 15:51:02 METAR KJFK 072051Z 36010G21KT 10SM BKN080 23/06 A2987 RMK AO2 SLP115 T02330061 56008 (RG)","FM-15","7",,,,,,,,,,,,,,,,,,,,,,,,,,,,"2009-05-01"
"74486094789","2020-06-07T16:00:00","FM-12","4",,"ESE","1.5","mi","TEMP, PRECIP, SNOW",,,"PSY, SRG, SNOWBOARD",,,"FAA CWO",,,,,,,,,,,,,,,,,,,,,,,,,,,,"43","74",,,"+0.02","6","33","29.87","74","29.84","9.94","57","360",,"11",,,,,,,,,,,,,,,,,,,,,,,,,,,,,,,,,,,,,"SYN07474486 32866 63610 10233 20061 30104 40115 56008 92051 333 91021 555 90721=","FM-12","4",,,,,,,,,,,,,,,,,,,,,,,,,,,,"2009-05-01"
"74486094789","2020-06-07T16:51:00","FM-15","7",,"ESE","1.5","mi","TEMP, PRECIP, SNOW",,,"PSY, SRG, SNOWBOARD",,,"FAA CWO",,,,,,,,,,,,,,,,,,,,,,,,,,,"29.88","43","74","0.00",,,,"33","29.88","BKN:07 85","29.85","10.00","57","360",,"13",,,,,,,,,,,,,,,,,,,,,,,,,,,,,,,,,,,,,"MET09806/07/20 16:51:02 METAR KJFK 072151Z 36011KT 10SM BKN085 23/06 A2988 RMK AO2 SLP118 T02330061 (RG)","FM-15","7",,,,,,,,,,,,,,,,,,,,,,,,,,,,"2009-05-01"
"74486094789","2020-06-07T17:51:00","FM-15","7",,"ESE","1.5","mi","TEMP, PRECIP, SNOW",,,"PSY, SRG, SNOWBOARD",,,"FAA CWO",,,,,,,,,,,,,,,,,,,,,,,,,,,"29.91","44","74","0.00",,,,"34","29.91","BKN:07 90","29.88","10.00","58","010",,"8",,,,,,,,,,,,,,,,,,,,,,,,,,,,,,,,,,,,,"MET09806/07/20 17:51:02 METAR KJFK 072251Z 01007KT 10SM BKN090 23/07 A2991 RMK AO2 SLP127 T02330067 (RG)","FM-15","7",,,,,,,,,,,,,,,,,,,,,,,,,,,,"2009-05-01"
"74486094789","2020-06-07T18:51:00","FM-15","7",,"ESE","1.5","mi","TEMP, PRECIP, SNOW",,,"PSY, SRG, SNOWBOARD",,,"FAA CWO",,,,,,,,,,,,,,,,,,,,,,,,,,,"29.93","45","72","0.00",,"-0.06","3","38","29.93","BKN:07 90","29.91","10.00","57","030",,"10",,,,,,,,,,,,,,,,,,,,,,,,,,,,,,,,,,,,,"MET11606/07/20 18:51:02 METAR KJFK 072351Z 03009KT 10SM BKN090 22/07 A2993 RMK AO2 SLP135 T02220072 10256 20222 53020 (RG)","FM-15","7",,,,,,,,,,,,,,,,,,,,,,,,,,,,"2009-05-01"
"74486094789","2020-06-07T19:00:00","FM-12","4",,"ESE","1.5","mi","TEMP, PRECIP, SNOW",,,"PSY, SRG, SNOWBOARD",,,"FAA CWO",,,,,,,,,,,,,,,,,,,,,,,,,,,,"45","72",,,"-0.06","3","38","29.93",,"29.90","9.94","57","030",,"10",,,,,,,,,,,,,,,,,,,,,,,,,,,,,,,,,,,,,"SYN08074486 32966 60309 10222 20072 30124 40135 53020 92351 333 10256 20172 555 90800=","FM-12","4",,,,,,,,,,,,,,,,,,,,,,,,,,,,"2009-05-01"
"74486094789","2020-06-07T19:51:00","FM-15","7",,"ESE","1.5","mi","TEMP, PRECIP, SNOW",,,"PSY, SRG, SNOWBOARD",,,"FAA CWO",,,,,,,,,,,,,,,,,,,,,,,,,,,"29.95","44","70","0.00",,,,"39","29.94","BKN:07 85","29.93","10.00","56","030",,"9",,,,,,,,,,,,,,,,,,,,,,,,,,,,,,,,,,,,,"MET09306/07/20 19:51:01 METAR KJFK 080051Z 03008KT 10SM BKN085 21/07 A2995 RMK AO2 SLP140 T02110067","FM-15","7",,,,,,,,,,,,,,,,,,,,,,,,,,,,"2009-05-01"
"74486094789","2020-06-07T20:51:00","FM-15","7",,"ESE","1.5","mi","TEMP, PRECIP, SNOW",,,"PSY, SRG, SNOWBOARD",,,"FAA CWO",,,,,,,,,,,,,,,,,,,,,,,,,,,"29.97","45","68","0.00",,,,"44","29.97","SCT:04 85","29.95","10.00","56","030",,"6",,,,,,,,,,,,,,,,,,,,,,,,,,,,,,,,,,,,,"MET09306/07/20 20:51:01 METAR KJFK 080151Z 03005KT 10SM SCT085 20/07 A2997 RMK AO2 SLP149 T02000072","FM-15","7",,,,,,,,,,,,,,,,,,,,,,,,,,,,"2009-05-01"
"74486094789","2020-06-07T21:51:00","FM-15","7",,"ESE","1.5","mi","TEMP, PRECIP, SNOW",,,"PSY, SRG, SNOWBOARD",,,"FAA CWO",,,,,,,,,,,,,,,,,,,,,,,,,,,"29.99","45","68","0.00",,"-0.06","3","44","29.99","BKN:07 80","29.96","10.00","56","010",,"3",,,,,,,,,,,,,,,,,,,,,,,,,,,,,,,,,,,,,"MET09906/07/20 21:51:01 METAR KJFK 080251Z 01003KT 10SM BKN080 20/07 A2999 RMK AO2 SLP155 T02000072 53020","FM-15","7",,,,,,,,,,,,,,,,,,,,,,,,,,,,"2009-05-01"
"74486094789","2020-06-07T22:00:00","FM-12","4",,"ESE","1.5","mi","TEMP, PRECIP, SNOW",,,"PSY, SRG, SNOWBOARD",,,"FAA CWO",,,,,,,,,,,,,,,,,,,,,,,,,,,,"45","68",,,"-0.06","3","44","29.99","74","29.96","9.94","56","010",,"3",,,,,,,,,,,,,,,,,,,,,,,,,,,,,,,,,,,,,"SYN06474486 32866 60103 10200 20072 30144 40155 53020 90251 555 90803=","FM-12","4",,,,,,,,,,,,,,,,,,,,,,,,,,,,"2009-05-01"
"74486094789","2020-06-07T22:51:00","FM-15","7",,"ESE","1.5","mi","TEMP, PRECIP, SNOW",,,"PSY, SRG, SNOWBOARD",,,"FAA CWO",,,,,,,,,,,,,,,,,,,,,,,,,,,"29.99","47","65","0.00",,,,"52","29.98","BKN:07 80","29.96","10.00","55","350",,"5",,,,,,,,,,,,,,,,,,,,,,,,,,,,,,,,,,,,,"MET09306/07/20 22:51:02 METAR KJFK 080351Z 35004KT 10SM BKN080 18/08 A2999 RMK AO2 SLP154 T01830083","FM-15","7",,,,,,,,,,,,,,,,,,,,,,,,,,,,"2009-05-01"
"74486094789","2020-06-07T23:51:00","FM-15","7",,"ESE","1.5","mi","TEMP, PRECIP, SNOW",,,"PSY, SRG, SNOWBOARD",,,"FAA CWO",,,,,,,,,,,,,,,,,,,,,,,,,,,"30.00","47","65","0.00",,,,"52","30.00","SCT:04 70","29.98","10.00","55","350",,"6",,,,,,,,,,,,,,,,,,,,,,,,,,,,,,,,,,,,,"MET10306/07/20 23:51:02 METAR KJFK 080451Z 35005KT 10SM SCT070 18/08 A3000 RMK AO2 SLP158 T01830083 402560172","FM-15","7",,,,,,,,,,,,,,,,,,,,,,,,,,,,"2009-05-01"
"74486094789","2020-06-07T23:59:00","SOD  ","6",,"ESE","1.5","mi","TEMP, PRECIP, SNOW",,,"PSY, SRG, SNOWBOARD",,,"FAA CWO",,,,"47","71","45","29.89","29.85","57","13.0","6","3.2","0","78","63","330","35","0.00","0","0.0","330","24",,,,,,,,,,,,,,,,,,,,,,,,,,,,,,,,,,,,,,,,,,,,,,,,,,,,,,,,,"SOD73924 HR PRECIPITATION (IN): 0.00 SNOW DEPTH (IN):0     24 HR SNOWFALL (IN):0.0  24 HR MAX TEMP (F): 7824 HR MIN TEMP (F): 63AVERAGE STATION PRESSURE:29.855 MINIMUM SEA LEVEL PRESSURE:29.80 TIME OF OCCURRENCE:0328 PEAK WIND SPEED (MPH): 35 PEAK WIND DIR (DEG):330 PEAK WIND TIME (LST):      FASTEST 2MIN SPEED (MPH): 24FASTEST 2MIN DIR (DEG):330 FASTEST 2MIN TIME (LST):     AVERAGE WIND SPEED (MPH):13.0 24 HR AVG TEMP (F): 71DEPART FROM NORMAL:  3  HEATING DEGREE DAYS:  0 COOLING DEGREE DAYS:  6 LATEST DAY MAX TEMP (0700-1900 LST):78  LATEST NIGHT MIN TEMP(1900-0800 LST):63 HOURLY INCREMENTAL PRECIPITATION VALUES (IN):.00 0.00 0.00 0.00 0.00 0.00 0.00 0.00 0.00 0.00 0.00 0.00 0.00 0.00 0.00 0.00 0.00 0.00 0.00 0.00 0.00 0.00 0.00 0.00","SOD  ","6",,,,,,,,,,,,,,,,,,,,,,,,,"0424","1924",,"2009-05-01"
"74486094789","2020-06-08T00:51:00","FM-15","7",,"ESE","1.5","mi","TEMP, PRECIP, SNOW",,,"PSY, SRG, SNOWBOARD",,,"FAA CWO",,,,,,,,,,,,,,,,,,,,,,,,,,,"29.99","47","64","0.00",,"-0.01","0","54","29.99","FEW:02 70","29.96","10.00","55","350",,"7",,,,,,,,,,,,,,,,,,,,,,,,,,,,,,,,,,,,,"MET11606/08/20 00:51:02 METAR KJFK 080551Z 35006KT 10SM FEW070 18/08 A2999 RMK AO2 SLP156 T01780083 10222 20172 50002 (JC)","FM-15","7",,,,,,,,,,,,,,,,,,,,,,,,,,,,"2009-05-01"
"74486094789","2020-06-08T01:00:00","FM-12","4",,"ESE","1.5","mi","TEMP, PRECIP, SNOW",,,"PSY, SRG, SNOWBOARD",,,"FAA CWO",,,,,,,,,,,,,,,,,,,,,,,,,,,,"47","64",,,"0.01","9","54","29.99","74","29.96","9.94","55","350",,"7",,,,,,,,,,,,,,,,,,,,,,,,,,,,,,,,,,,,,"SYN08074486 32866 23506 10178 20083 30144 40156 50002 90551 333 10222 20172 555 90806=","FM-12","4",,,,,,,,,,,,,,,,,,,,,,,,,,,,"2009-05-01"
"74486094789","2020-06-08T01:51:00","FM-15","7",,"ESE","1.5","mi","TEMP, PRECIP, SNOW",,,"PSY, SRG, SNOWBOARD",,,"FAA CWO",,,,,,,,,,,,,,,,,,,,,,,,,,,"30.00","47","63","0.00",,,,"56","29.99","FEW:02 70 FEW:02 250","29.98","10.00","55","350",,"8",,,,,,,,,,,,,,,,,,,,,,,,,,,,,,,,,,,,,"MET10506/08/20 01:51:02 METAR KJFK 080651Z 35007KT 10SM FEW070 FEW250 17/08 A3000 RMK AO2 SLP157 T01720083 (JC)","FM-15","7",,,,,,,,,,,,,,,,,,,,,,,,,,,,"2009-05-01"
"74486094789","2020-06-08T02:51:00","FM-15","7",,"ESE","1.5","mi","TEMP, PRECIP, SNOW",,,"PSY, SRG, SNOWBOARD",,,"FAA CWO",,,,,,,,,,,,,,,,,,,,,,,,,,,"30.00","49","60","0.00",,,,"67","29.99","FEW:02 250","29.98","10.00","54","010",,"7",,,,,,,,,,,,,,,,,,,,,,,,,,,,,,,,,,,,,"MET09806/08/20 02:51:02 METAR KJFK 080751Z 01006KT 10SM FEW250 16/09 A3000 RMK AO2 SLP157 T01560094 (JC)","FM-15","7",,,,,,,,,,,,,,,,,,,,,,,,,,,,"2009-05-01"
"74486094789","2020-06-08T03:51:00","FM-15","7",,"ESE","1.5","mi","TEMP, PRECIP, SNOW",,,"PSY, SRG, SNOWBOARD",,,"FAA CWO",,,,,,,,,,,,,,,,,,,,,,,,,,,"30.01","47","60","0.00",,"-0.01","3","62","30.01","CLR:00","29.98","10.00","53","350",,"10",,,,,,,,,,,,,,,,,,,,,,,,,,,,,,,,,,,,,"MET10106/08/20 03:51:02 METAR KJFK 080851Z 35009KT 10SM CLR 16/08 A3001 RMK AO2 SLP161 T01560083 53005 (JC)","FM-15","7",,,,,,,,,,,,,,,,,,,,,,,,,,,,"2009-05-01"
"74486094789","2020-06-08T04:00:00","FM-12","4",,"ESE","1.5","mi","TEMP, PRECIP, SNOW",,,"PSY, SRG, SNOWBOARD",,,"FAA CWO",,,,,,,,,,,,,,,,,,,,,,,,,,,,"47","60",,,"-0.01","3","62","30.01",,"29.98","9.94","53","350",,"10",,,,,,,,,,,,,,,,,,,,,,,,,,,,,,,,,,,,,"SYN06474486 32966 03509 10156 20083 30151 40161 53005 90851 555 90809=","FM-12","4",,,,,,,,,,,,,,,,,,,,,,,,,,,,"2009-05-01"
"74486094789","2020-06-08T04:51:00","FM-15","7",,"ESE","1.5","mi","TEMP, PRECIP, SNOW",,,"PSY, SRG, SNOWBOARD",,,"FAA CWO",,,,,,,,,,,,,,,,,,,,,,,,,,,"30.02","47","61","0.00",,,,"60","30.02","FEW:02 80 FEW:02 250","30.00","10.00","54","360",,"10",,,,,,,,,,,,,,,,,,,,,,,,,,,,,,,,,,,,,"MET10506/08/20 04:51:02 METAR KJFK 080951Z 36009KT 10SM FEW080 FEW250 16/08 A3002 RMK AO2 SLP166 T01610083 (JC)","FM-15","7",,,,,,,,,,,,,,,,,,,,,,,,,,,,"2009-05-01"
"74486094789","2020-06-08T05:51:00","FM-15","7",,"ESE","1.5","mi","TEMP, PRECIP, SNOW",,,"PSY, SRG, SNOWBOARD",,,"FAA CWO",,,,,,,,,,,,,,,,,,,,,,,,,,,"30.04","46","63","0.00",,,,"54","30.03","FEW:02 80 SCT:04 250","30.01","10.00","54","360",,"11",,,,,,,,,,,,,,,,,,,,,,,,,,,,,,,,,,,,,"MET10506/08/20 05:51:02 METAR KJFK 081051Z 36010KT 10SM FEW080 SCT250 17/08 A3004 RMK AO2 SLP171 T01720078 (BH)","FM-15","7",,,,,,,,,,,,,,,,,,,,,,,,,,,,"2009-05-01"
"74486094789","2020-06-08T06:51:00","FM-15","7",,"ESE","1.5","mi","TEMP, PRECIP, SNOW",,,"PSY, SRG, SNOWBOARD",,,"FAA CWO",,,,,,,,,,,,,,,,,,,,,,,,,,,"30.05","47","65","0.00",,"-0.04","3","52","30.05","FEW:02 80 SCT:04 250","30.03","10.00","55","350",,"13",,,,,,,,,,,,,,,,,,,,,,,,,,,,,,,,,,,,,"MET12306/08/20 06:51:02 METAR KJFK 081151Z 35011KT 10SM FEW080 SCT250 18/08 A3005 RMK AO2 SLP176 T01830083 10183 20156 53014 (BH)","FM-15","7",,,,,,,,,,,,,,,,,,,,,,,,,,,,"2009-05-01"
"74486094789","2020-06-08T07:00:00","FM-12","4",,"ESE","1.5","mi","TEMP, PRECIP, SNOW",,,"PSY, SRG, SNOWBOARD",,,"FAA CWO",,,,,,,,,,,,,,,,,,,,,,,,,,,,"47","65",,,"-0.04","3","52","30.05","74","30.02","9.94","55","350",,"13",,,,,,,,,,,,,,,,,,,,,,,,,,,,,,,,,,,,,"SYN08074486 32866 43511 10183 20083 30165 40176 53014 91151 333 10256 20156 555 90812=","FM-12","4",,,,,,,,,,,,,,,,,,,,,,,,,,,,"2009-05-01"
"74486094789","2020-06-08T07:51:00","FM-15","7",,"ESE","1.5","mi","TEMP, PRECIP, SNOW",,,"PSY, SRG, SNOWBOARD",,,"FAA CWO",,,,,,,,,,,,,,,,,,,,,,,,,,,"30.06","46","68","0.00",,,,"45","30.06","SCT:04 250","30.03","10.00","56","350",,"13",,,,,,,,,,,,,,,,,,,,,,,,,,,,,,,,,,,,,"MET09806/08/20 07:51:02 METAR KJFK 081251Z 35011KT 10SM SCT250 20/08 A3006 RMK AO2 SLP178 T02000078 (BH)","FM-15","7",,,,,,,,,,,,,,,,,,,,,,,,,,,,"2009-05-01"
"74486094789","2020-06-08T08:51:00","FM-15","7",,"ESE","1.5","mi","TEMP, PRECIP, SNOW",,,"PSY, SRG, SNOWBOARD",,,"FAA CWO",,,,,,,,,,,,,,,,,,,,,,,,,,,"30.05","44","71","0.00",,,,"38","30.05","FEW:02 250","30.03","10.00","57","010",,"11",,,,,,,,,,,,,,,,,,,,,,,,,,,,,,,,,,,,,"MET09806/08/20 08:51:02 METAR KJFK 081351Z 01010KT 10SM FEW250 22/07 A3005 RMK AO2 SLP175 T02170067 (BH)","FM-15","7",,,,,,,,,,,,,,,,,,,,,,,,,,,,"2009-05-01"
"74486094789","2020-06-08T09:51:00","FM-15","7",,"ESE","1.5","mi","TEMP, PRECIP, SNOW",,,"PSY, SRG, SNOWBOARD",,,"FAA CWO",,,,,,,,,,,,,,,,,,,,,,,,,,,"30.05","44","73","0.00",,"-0.00","1","35","30.05","FEW:02 60 FEW:02 160 FEW:02 250","30.03","10.00","57","010","16","13",,,,,,,,,,,,,,,,,,,,,,,,,,,,,,,,,,,,,"MET11606/08/20 09:51:02 METAR KJFK 081451Z 01011G14KT 10SM FEW060 FEW160 FEW250 23/07 A3005 RMK AO2 SLP177 T02280067 51001","FM-15","7",,,,,,,,,,,,,,,,,,,,,,,,,,,,"2009-05-01"
"74486094789","2020-06-08T10:00:00","FM-12","4",,"ESE","1.5","mi","TEMP, PRECIP, SNOW",,,"PSY, SRG, SNOWBOARD",,,"FAA CWO",,,,,,,,,,,,,,,,,,,,,,,,,,,,"44","73",,,"-0.00","1","35","30.05","57","30.02","9.94","57","010",,"13",,,,,,,,,,,,,,,,,,,,,,,,,,,,,,,,,,,,,"SYN07474486 32766 20111 10228 20067 30165 40177 51001 91451 333 91014 555 90815=","FM-12","4",,,,,,,,,,,,,,,,,,,,,,,,,,,,"2009-05-01"
"74486094789","2020-06-08T10:51:00","FM-15","7",,"ESE","1.5","mi","TEMP, PRECIP, SNOW",,,"PSY, SRG, SNOWBOARD",,,"FAA CWO",,,,,,,,,,,,,,,,,,,,,,,,,,,"30.04","43","74","0.00",,,,"33","30.04","FEW:02 65 FEW:02 250","30.01","10.00","57","320",,"11",,,,,,,,,,,,,,,,,,,,,,,,,,,,,,,,,,,,,"MET10006/08/20 10:51:02 METAR KJFK 081551Z 32010KT 10SM FEW065 FEW250 23/06 A3004 RMK AO2 SLP172 T02330061","FM-15","7",,,,,,,,,,,,,,,,,,,,,,,,,,,,"2009-05-01"
"74486094789","2020-06-08T11:51:00","FM-15","7",,"ESE","1.5","mi","TEMP, PRECIP, SNOW",,,"PSY, SRG, SNOWBOARD",,,"FAA CWO",,,,,,,,,,,,,,,,,,,,,,,,,,,"30.02","46","74","0.00",,,,"37","30.02","FEW:02 65 SCT:04 250","30.00","10.00","59","200",,"10",,,,,,,,,,,,,,,,,,,,,,,,,,,,,,,,,,,,,"MET10006/08/20 11:51:02 METAR KJFK 081651Z 20009KT 10SM FEW065 SCT250 23/08 A3002 RMK AO2 SLP166 T02330078","FM-15","7",,,,,,,,,,,,,,,,,,,,,,,,,,,,"2009-05-01"
"74486094789","2020-06-08T12:51:00","FM-15","7",,"ESE","1.5","mi","TEMP, PRECIP, SNOW",,,"PSY, SRG, SNOWBOARD",,,"FAA CWO",,,,,,,,,,,,,,,,,,,,,,,,,,,"30.01","46","74","0.00",,"+0.04","6","37","30.01","FEW:02 65 SCT:04 250","29.98","10.00","59","200",,"15",,,,,,,,,,,,,,,,,,,,,,,,,,,,,,,,,,,,,"MET11806/08/20 12:51:02 METAR KJFK 081751Z 20013KT 10SM FEW065 SCT250 23/08 A3001 RMK AO2 SLP163 T02330078 10239 20183 56014","FM-15","7",,,,,,,,,,,,,,,,,,,,,,,,,,,,"2009-05-01"
"74486094789","2020-06-08T13:00:00","FM-12","4",,"ESE","1.5","mi","TEMP, PRECIP, SNOW",,,"PSY, SRG, SNOWBOARD",,,"FAA CWO",,,,,,,,,,,,,,,,,,,,,,,,,,,,"46","74",,,"+0.04","6","37","30.01","57","29.98","9.94","59","200",,"15",,,,,,,,,,,,,,,,,,,,,,,,,,,,,,,,,,,,,"SYN08074486 32766 42013 10233 20078 30151 40163 56014 91751 333 10239 20183 555 90818=","FM-12","4",,,,,,,,,,,,,,,,,,,,,,,,,,,,"2009-05-01"
"74486094789","2020-06-08T13:51:00","FM-15","7",,"ESE","1.5","mi","TEMP, PRECIP, SNOW",,,"PSY, SRG, SNOWBOARD",,,"FAA CWO",,,,,,,,,,,,,,,,,,,,,,,,,,,"30.00","47","76","0.00",,,,"36","30.00","FEW:02 70 SCT:04 250","29.98","10.00","60","230",,"14",,,,,,,,,,,,,,,,,,,,,,,,,,,,,,,,,,,,,"MET10006/08/20 13:51:02 METAR KJFK 081851Z 23012KT 10SM FEW070 SCT250 24/08 A3000 RMK AO2 SLP159 T02440083","FM-15","7",,,,,,,,,,,,,,,,,,,,,,,,,,,,"2009-05-01"
"74486094789","2020-06-08T14:51:00","FM-15","7",,"ESE","1.5","mi","TEMP, PRECIP, SNOW",,,"PSY, SRG, SNOWBOARD",,,"FAA CWO",,,,,,,,,,,,,,,,,,,,,,,,,,,"29.98","47","77","0.00",,,,"35","29.98","FEW:02 70 SCT:04 250","29.96","10.00","60","230",,"13",,,,,,,,,,,,,,,,,,,,,,,,,,,,,,,,,,,,,"MET10006/08/20 14:51:02 METAR KJFK 081951Z 23011KT 10SM FEW070 SCT250 25/08 A2998 RMK AO2 SLP153 T02500083","FM-15","7",,,,,,,,,,,,,,,,,,,,,,,,,,,,"2009-05-01"
"74486094789","2020-06-08T15:51:00","FM-15","7",,"ESE","1.5","mi","TEMP, PRECIP, SNOW",,,"PSY, SRG, SNOWBOARD",,,"FAA CWO",,,,,,,,,,,,,,,,,,,,,,,,,,,"29.98","51","73","0.00",,"+0.04","6","46","29.98","FEW:02 75 BKN:07 250","29.96","10.00","60","200",,"17",,,,,,,,,,,,,,,,,,,,,,,,,,,,,,,,,,,,,"MET10606/08/20 15:51:02 METAR KJFK 082051Z 20015KT 10SM FEW075 BKN250 23/11 A2998 RMK AO2 SLP151 T02280106 56012","FM-15","7",,,,,,,,,,,,,,,,,,,,,,,,,,,,"2009-05-01"
"74486094789","2020-06-08T16:00:00","FM-12","4",,"ESE","1.5","mi","TEMP, PRECIP, SNOW",,,"PSY, SRG, SNOWBOARD",,,"FAA CWO",,,,,,,,,,,,,,,,,,,,,,,,,,,,"51","73",,,"+0.04","6","46","29.98","74","29.95","9.94","60","200",,"17",,,,,,,,,,,,,,,,,,,,,,,,,,,,,,,,,,,,,"SYN06474486 32866 62015 10228 20106 30141 40151 56012 92051 555 90821=","FM-12","4",,,,,,,,,,,,,,,,,,,,,,,,,,,,"2009-05-01"
"74486094789","2020-06-08T16:51:00","FM-15","7",,"ESE","1.5","mi","TEMP, PRECIP, SNOW",,,"PSY, SRG, SNOWBOARD",,,"FAA CWO",,,,,,,,,,,,,,,,,,,,,,,,,,,"29.97","53","69","0.00",,,,"57","29.97","FEW:02 75 BKN:07 250","29.95","10.00","60","190","25","21",,,,,,,,,,,,,,,,,,,,,,,,,,,,,,,,,,,,,"MET10306/08/20 16:51:02 METAR KJFK 082151Z 19018G22KT 10SM FEW075 BKN250 21/12 A2997 RMK AO2 SLP148 T02060117","FM-15","7",,,,,,,,,,,,,,,,,,,,,,,,,,,,"2009-05-01"
"74486094789","2020-06-08T17:51:00","FM-15","7",,"ESE","1.5","mi","TEMP, PRECIP, SNOW",,,"PSY, SRG, SNOWBOARD",,,"FAA CWO",,,,,,,,,,,,,,,,,,,,,,,,,,,"29.97","51","68","0.00",,,,"55","29.97","FEW:02 75 BKN:07 250","29.95","10.00","58","190",,"18",,,,,,,,,,,,,,,,,,,,,,,,,,,,,,,,,,,,,"MET10006/08/20 17:51:02 METAR KJFK 082251Z 19016KT 10SM FEW075 BKN250 20/11 A2997 RMK AO2 SLP148 T02000106","FM-15","7",,,,,,,,,,,,,,,,,,,,,,,,,,,,"2009-05-01"
"74486094789","2020-06-08T18:51:00","FM-15","7",,"ESE","1.5","mi","TEMP, PRECIP, SNOW",,,"PSY, SRG, SNOWBOARD",,,"FAA CWO",,,,,,,,,,,,,,,,,,,,,,,,,,,"29.97","51","66","0.00",,"+0.01","6","59","29.97","BKN:07 250","29.95","10.00","58","180",,"16",,,,,,,,,,,,,,,,,,,,,,,,,,,,,,,,,,,,,"MET11306/08/20 18:51:02 METAR KJFK 082351Z 18014KT 10SM BKN250 19/11 A2997 RMK AO2 SLP148 T01890106 10256 20189 56004 $","FM-15","7",,,,,,,,,,,,,,,,,,,,,,,,,,,,"2009-05-01"
"74486094789","2020-06-08T19:00:00","FM-12","4",,"ESE","1.5","mi","TEMP, PRECIP, SNOW",,,"PSY, SRG, SNOWBOARD",,,"FAA CWO",,,,,,,,,,,,,,,,,,,,,,,,,,,,"51","66",,,"+0.01","6","59","29.97",,"29.94","9.94","58","180",,"16",,,,,,,,,,,,,,,,,,,,,,,,,,,,,,,,,,,,,"SYN08074486 32966 61814 10189 20106 30138 40148 56004 92351 333 10256 20156 555 90900=","FM-12","4",,,,,,,,,,,,,,,,,,,,,,,,,,,,"2009-05-01"
"74486094789","2020-06-08T19:51:00","FM-15","7",,"ESE","1.5","mi","TEMP, PRECIP, SNOW",,,"PSY, SRG, SNOWBOARD",,,"FAA CWO",,,,,,,,,,,,,,,,,,,,,,,,,,,"29.96","55","65","0.00",,,,"70","29.96","BKN:07 250","29.93","10.00","59","190",,"15",,,,,,,,,,,,,,,,,,,,,,,,,,,,,,,,,,,,,"MET09506/08/20 19:51:01 METAR KJFK 090051Z 19013KT 10SM BKN250 18/13 A2996 RMK AO2 SLP145 T01830128 $","FM-15","7",,,,,,,,,,,,,,,,,,,,,,,,,,,,"2009-05-01"
"74486094789","2020-06-08T20:51:00","FM-15","7",,"ESE","1.5","mi","TEMP, PRECIP, SNOW",,,"PSY, SRG, SNOWBOARD",,,"FAA CWO",,,,,,,,,,,,,,,,,,,,,,,,,,,"29.98","56","66","0.00",,,,"70","29.98","BKN:07 250","29.96","10.00","60","220",,"10",,,,,,,,,,,,,,,,,,,,,,,,,,,,,,,,,,,,,"MET09506/08/20 20:51:01 METAR KJFK 090151Z 22009KT 10SM BKN250 19/13 A2998 RMK AO2 SLP152 T01890133 $","FM-15","7",,,,,,,,,,,,,,,,,,,,,,,,,,,,"2009-05-01"
"74486094789","2020-06-08T21:51:00","FM-15","7",,"ESE","1.5","mi","TEMP, PRECIP, SNOW",,,"PSY, SRG, SNOWBOARD",,,"FAA CWO",,,,,,,,,,,,,,,,,,,,,,,,,,,"29.98","56","67","0.00",,"-0.01","3","68","29.98","SCT:04 250","29.96","10.00","61","250",,"10",,,,,,,,,,,,,,,,,,,,,,,,,,,,,,,,,,,,,"MET10106/08/20 21:51:01 METAR KJFK 090251Z 25009KT 10SM SCT250 19/13 A2998 RMK AO2 SLP153 T01940133 53005 $","FM-15","7",,,,,,,,,,,,,,,,,,,,,,,,,,,,"2009-05-01"
"74486094789","2020-06-08T22:00:00","FM-12","4",,"ESE","1.5","mi","TEMP, PRECIP, SNOW",,,"PSY, SRG, SNOWBOARD",,,"FAA CWO",,,,,,,,,,,,,,,,,,,,,,,,,,,,"56","67",,,"-0.01","3","68","29.98",,"29.95","9.94","61","250",,"10",,,,,,,,,,,,,,,,,,,,,,,,,,,,,,,,,,,,,"SYN06474486 32966 42509 10194 20133 30141 40153 53005 90251 555 90903=","FM-12","4",,,,,,,,,,,,,,,,,,,,,,,,,,,,"2009-05-01"
"74486094789","2020-06-08T22:51:00","FM-15","7",,"ESE","1.5","mi","TEMP, PRECIP, SNOW",,,"PSY, SRG, SNOWBOARD",,,"FAA CWO",,,,,,,,,,,,,,,,,,,,,,,,,,,"29.99","56","66","0.00",,,,"70","29.98","BKN:07 250","29.96","10.00","60","240",,"9",,,,,,,,,,,,,,,,,,,,,,,,,,,,,,,,,,,,,"MET09506/08/20 22:51:01 METAR KJFK 090351Z 24008KT 10SM BKN250 19/13 A2999 RMK AO2 SLP154 T01890133 $","FM-15","7",,,,,,,,,,,,,,,,,,,,,,,,,,,,"2009-05-01"
"74486094789","2020-06-08T23:51:00","FM-15","7",,"ESE","1.5","mi","TEMP, PRECIP, SNOW",,,"PSY, SRG, SNOWBOARD",,,"FAA CWO",,,,,,,,,,,,,,,,,,,,,,,,,,,"29.99","56","67","0.00",,,,"68","29.98","SCT:04 250","29.96","10.00","61","250",,"10",,,,,,,,,,,,,,,,,,,,,,,,,,,,,,,,,,,,,"MET10506/08/20 23:51:01 METAR KJFK 090451Z 25009KT 10SM SCT250 19/13 A2999 RMK AO2 SLP154 T01940133 402560156 $","FM-15","7",,,,,,,,,,,,,,,,,,,,,,,,,,,,"2009-05-01"
"74486094789","2020-06-08T23:59:00","SOD  ","6",,"ESE","1.5","mi","TEMP, PRECIP, SNOW",,,"PSY, SRG, SNOWBOARD",,,"FAA CWO",,,,"49","69","53","30.00","29.98","58","12.3","4","0.9","0","78","60","190","26","0.00","0","0.0","190","22",,,,,,,,,,,,,,,,,,,,,,,,,,,,,,,,,,,,,,,,,,,,,,,,,,,,,,,,,"SOD74324 HR PRECIPITATION (IN): 0.00 SNOW DEPTH (IN):0     24 HR SNOWFALL (IN):0.0  24 HR MAX TEMP (F): 7824 HR MIN TEMP (F): 60AVERAGE STATION PRESSURE(D):29.980 MINIMUM SEA LEVEL PRESSURE:29.96 TIME OF OCCURRENCE:2019 PEAK WIND SPEED (MPH): 26 PEAK WIND DIR (DEG):190 PEAK WIND TIME (LST):      FASTEST 2MIN SPEED (MPH): 22FASTEST 2MIN DIR (DEG):190 FASTEST 2MIN TIME (LST):     AVERAGE WIND SPEED (MPH):12.3 24 HR AVG TEMP (F): 69DEPART FROM NORMAL:  1  HEATING DEGREE DAYS:  0 COOLING DEGREE DAYS:  4 LATEST DAY MAX TEMP (0700-1900 LST): 78 LATEST NIGHT MIN TEMP(1900-0800 LST):60 HOURLY INCREMENTAL PRECIPITATION VALUES (IN):0.00 0.00 0.00 0.00 0.00 0.00 0.00 0.00 0.00 0.00 0.00 0.00 0.00 0.00 0.00 0.00 0.00 0.00 0.00 0.00 0.00 0.00 0.00 0.00","SOD  ","6",,,,,,,,,,,,,,,,,,,,,,,,,"0424","1925",,"2009-05-01"
"74486094789","2020-06-09T00:51:00","FM-15","7",,"ESE","1.5","mi","TEMP, PRECIP, SNOW",,,"PSY, SRG, SNOWBOARD",,,"FAA CWO",,,,,,,,,,,,,,,,,,,,,,,,,,,"29.98","56","65","0.00",,"+0.00","8","73","29.98","BKN:07 250","29.96","10.00","60","250",,"7",,,,,,,,,,,,,,,,,,,,,,,,,,,,,,,,,,,,,"MET11806/09/20 00:51:02 METAR KJFK 090551Z 25006KT 10SM BKN250 18/13 A2998 RMK AO2 SLP152 T01830133 10194 20183 58001 $ (JC)","FM-15","7",,,,,,,,,,,,,,,,,,,,,,,,,,,,"2009-05-01"
"74486094789","2020-06-09T01:00:00","FM-12","4",,"ESE","1.5","mi","TEMP, PRECIP, SNOW",,,"PSY, SRG, SNOWBOARD",,,"FAA CWO",,,,,,,,,,,,,,,,,,,,,,,,,,,,"56","65",,,"+0.00","8","73","29.98",,"29.95","9.94","60","250",,"7",,,,,,,,,,,,,,,,,,,,,,,,,,,,,,,,,,,,,"SYN08074486 32966 62506 10183 20133 30141 40152 58001 90551 333 10194 20156 555 90906=","FM-12","4",,,,,,,,,,,,,,,,,,,,,,,,,,,,"2009-05-01"
"74486094789","2020-06-09T01:51:00","FM-15","7",,"ESE","1.5","mi","TEMP, PRECIP, SNOW",,,"PSY, SRG, SNOWBOARD",,,"FAA CWO",,,,,,,,,,,,,,,,,,,,,,,,,,,"29.98","56","65","0.00",,,,"73","29.97","SCT:04 150 BKN:07 250","29.96","10.00","60","250",,"7",,,,,,,,,,,,,,,,,,,,,,,,,,,,,,,,,,,,,"MET10706/09/20 01:51:02 METAR KJFK 090651Z 25006KT 10SM SCT150 BKN250 18/13 A2998 RMK AO2 SLP150 T01830133 $ (JC)","FM-15","7",,,,,,,,,,,,,,,,,,,,,,,,,,,,"2009-05-01"
"74486094789","2020-06-09T02:51:00","FM-15","7",,"ESE","1.5","mi","TEMP, PRECIP, SNOW",,,"PSY, SRG, SNOWBOARD",,,"FAA CWO",,,,,,,,,,,,,,,,,,,,,,,,,,,"29.97","56","63","0.00",,,,"78","29.97","FEW:02 180 SCT:04 250","29.95","10.00","59","240",,"7",,,,,,,,,,,,,,,,,,,,,,,,,,,,,,,,,,,,,"MET10706/09/20 02:51:02 METAR KJFK 090751Z 24006KT 10SM FEW180 SCT250 17/13 A2997 RMK AO2 SLP148 T01720133 $ (JC)","FM-15","7",,,,,,,,,,,,,,,,,,,,,,,,,,,,"2009-05-01"
"74486094789","2020-06-09T03:51:00","FM-15","7",,"ESE","1.5","mi","TEMP, PRECIP, SNOW",,,"PSY, SRG, SNOWBOARD",,,"FAA CWO",,,,,,,,,,,,,,,,,,,,,,,,,,,"29.96","57","63","0.00",,"+0.03","8","81","29.95","FEW:02 180 SCT:04 250","29.93","10.00","60","240",,"3",,,,,,,,,,,,,,,,,,,,,,,,,,,,,,,,,,,,,"MET11306/09/20 03:51:02 METAR KJFK 090851Z 24003KT 10SM FEW180 SCT250 17/14 A2996 RMK AO2 SLP143 T01720139 58009 $ (JC)","FM-15","7",,,,,,,,,,,,,,,,,,,,,,,,,,,,"2009-05-01"
"74486094789","2020-06-09T04:00:00","FM-12","4",,"ESE","1.5","mi","TEMP, PRECIP, SNOW",,,"PSY, SRG, SNOWBOARD",,,"FAA CWO",,,,,,,,,,,,,,,,,,,,,,,,,,,,"57","63",,,"+0.03","8","81","29.95",,"29.93","9.94","60","240",,"3",,,,,,,,,,,,,,,,,,,,,,,,,,,,,,,,,,,,,"SYN06474486 32966 42403 10172 20139 30134 40143 58009 90851 555 90909=","FM-12","4",,,,,,,,,,,,,,,,,,,,,,,,,,,,"2009-05-01"
"74486094789","2020-06-09T04:51:00","FM-15","7",,"ESE","1.5","mi","TEMP, PRECIP, SNOW",,,"PSY, SRG, SNOWBOARD",,,"FAA CWO",,,,,,,,,,,,,,,,,,,,,,,,,,,"29.97","57","64","0.00",,,,"78","29.97","SCT:04 160 BKN:07 250","29.95","10.00","60","000",,"0",,,,,,,,,,,,,,,,,,,,,,,,,,,,,,,,,,,,,"MET10706/09/20 04:51:02 METAR KJFK 090951Z 00000KT 10SM SCT160 BKN250 18/14 A2997 RMK AO2 SLP148 T01780139 $ (JC)","FM-15","7",,,,,,,,,,,,,,,,,,,,,,,,,,,,"2009-05-01"
"74486094789","2020-06-09T05:51:00","FM-15","7",,"ESE","1.5","mi","TEMP, PRECIP, SNOW",,,"PSY, SRG, SNOWBOARD",,,"FAA CWO",,,,,,,,,,,,,,,,,,,,,,,,,,,"29.98","58","66","0.00",,,,"75","29.98","FEW:02 160 FEW:02 250","29.96","10.00","61","240",,"8",,,,,,,,,,,,,,,,,,,,,,,,,,,,,,,,,,,,,"MET10506/09/20 05:51:02 METAR KJFK 091051Z 24007KT 10SM FEW160 FEW250 19/14 A2998 RMK AO2 SLP151 T01890144 (DM)","FM-15","7",,,,,,,,,,,,,,,,,,,,,,,,,,,,"2009-05-01"
"74486094789","2020-06-09T06:51:00","FM-15","7",,"ESE","1.5","mi","TEMP, PRECIP, SNOW",,,"PSY, SRG, SNOWBOARD",,,"FAA CWO",,,,,,,,,,,,,,,,,,,,,,,,,,,"29.99","57","69","0.00",,"-0.03","1","66","29.98","FEW:02 160 FEW:02 250","29.96","10.00","62","240",,"8",,,,,,,,,,,,,,,,,,,,,,,,,,,,,,,,,,,,,"MET12306/09/20 06:51:02 METAR KJFK 091151Z 24007KT 10SM FEW160 FEW250 21/14 A2999 RMK AO2 SLP154 T02060139 10206 20167 51010 (DM)","FM-15","7",,,,,,,,,,,,,,,,,,,,,,,,,,,,"2009-05-01"
"74486094789","2020-06-09T07:00:00","FM-12","4",,"ESE","1.5","mi","TEMP, PRECIP, SNOW",,,"PSY, SRG, SNOWBOARD",,,"FAA CWO",,,,,,,,,,,,,,,,,,,,,,,,,,,,"57","69",,,"-0.03","1","66","29.98",,"29.96","9.94","62","240",,"8",,,,,,,,,,,,,,,,,,,,,,,,,,,,,,,,,,,,,"SYN08074486 32966 22407 10206 20139 30144 40154 51010 91151 333 10256 20167 555 90912=","FM-12","4",,,,,,,,,,,,,,,,,,,,,,,,,,,,"2009-05-01"
"74486094789","2020-06-09T07:51:00","FM-15","7",,"ESE","1.5","mi","TEMP, PRECIP, SNOW",,,"PSY, SRG, SNOWBOARD",,,"FAA CWO",,,,,,,,,,,,,,,,,,,,,,,,,,,"30.00","56","72","0.00",,,,"57","29.99","FEW:02 160 FEW:02 250","29.98","10.00","63","230",,"9",,,,,,,,,,,,,,,,,,,,,,,,,,,,,,,,,,,,,"MET10506/09/20 07:51:02 METAR KJFK 091251Z 23008KT 10SM FEW160 FEW250 22/13 A3000 RMK AO2 SLP157 T02220133 (DM)","FM-15","7",,,,,,,,,,,,,,,,,,,,,,,,,,,,"2009-05-01"
"74486094789","2020-06-09T08:51:00","FM-15","7",,"ESE","1.5","mi","TEMP, PRECIP, SNOW",,,"PSY, SRG, SNOWBOARD",,,"FAA CWO",,,,,,,,,,,,,,,,,,,,,,,,,,,"29.98","56","75","0.00",,,,"52","29.97","FEW:02 150 FEW:02 250","29.96","10.00","64","230",,"9",,,,,,,,,,,,,,,,,,,,,,,,,,,,,,,,,,,,,"MET10506/09/20 08:51:02 METAR KJFK 091351Z 23008KT 10SM FEW150 FEW250 24/13 A2998 RMK AO2 SLP150 T02390133 (DM)","FM-15","7",,,,,,,,,,,,,,,,,,,,,,,,,,,,"2009-05-01"
"74486094789","2020-06-09T09:51:00","FM-15","7",,"ESE","1.5","mi","TEMP, PRECIP, SNOW",,,"PSY, SRG, SNOWBOARD",,,"FAA CWO",,,,,,,,,,,,,,,,,,,,,,,,,,,"29.96","56","77","0.00",,"+0.02","8","48","29.96","FEW:02 150 FEW:02 250","29.93","10.00","64","230",,"15",,,,,,,,,,,,,,,,,,,,,,,,,,,,,,,,,,,,,"MET11106/09/20 09:51:02 METAR KJFK 091451Z 23013KT 10SM FEW150 FEW250 25/13 A2996 RMK AO2 SLP145 T02500133 58008 (DM)","FM-15","7",,,,,,,,,,,,,,,,,,,,,,,,,,,,"2009-05-01"
"74486094789","2020-06-09T10:00:00","FM-12","4",,"ESE","1.5","mi","TEMP, PRECIP, SNOW",,,"PSY, SRG, SNOWBOARD",,,"FAA CWO",,,,,,,,,,,,,,,,,,,,,,,,,,,,"56","77",,,"+0.02","8","48","29.96",,"29.93","9.94","64","230",,"15",,,,,,,,,,,,,,,,,,,,,,,,,,,,,,,,,,,,,"SYN06474486 32966 22313 10250 20133 30134 40145 58008 91451 555 90915=","FM-12","4",,,,,,,,,,,,,,,,,,,,,,,,,,,,"2009-05-01"
"74486094789","2020-06-09T10:51:00","FM-15","7",,"ESE","1.5","mi","TEMP, PRECIP, SNOW",,,"PSY, SRG, SNOWBOARD",,,"FAA CWO",,,,,,,,,,,,,,,,,,,,,,,,,,,"29.96","57","80","0.00",,,,"45","29.96","FEW:02 150 FEW:02 250","29.93","10.00","66","220",,"15",,,,,,,,,,,,,,,,,,,,,,,,,,,,,,,,,,,,,"MET10506/09/20 10:51:02 METAR KJFK 091551Z 22013KT 10SM FEW150 FEW250 27/14 A2996 RMK AO2 SLP144 T02670139 (DM)","FM-15","7",,,,,,,,,,,,,,,,,,,,,,,,,,,,"2009-05-01"
"74486094789","2020-06-09T11:51:00","FM-15","7",,"ESE","1.5","mi","TEMP, PRECIP, SNOW",,,"PSY, SRG, SNOWBOARD",,,"FAA CWO",,,,,,,,,,,,,,,,,,,,,,,,,,,"29.94","59","80","0.00",,,,"49","29.94","FEW:02 150 SCT:04 250","29.91","10.00","67","200",,"11",,,,,,,,,,,,,,,,,,,,,,,,,,,,,,,,,,,,,"MET10506/09/20 11:51:02 METAR KJFK 091651Z 20010KT 10SM FEW150 SCT250 27/15 A2994 RMK AO2 SLP139 T02670150 (DM)","FM-15","7",,,,,,,,,,,,,,,,,,,,,,,,,,,,"2009-05-01"
"74486094789","2020-06-09T12:51:00","FM-15","7",,"ESE","1.5","mi","TEMP, PRECIP, SNOW",,,"PSY, SRG, SNOWBOARD",,,"FAA CWO",,,,,,,,,,,,,,,,,,,,,,,,,,,"29.94","59","79","0.00",,"+0.02","8","50","29.93","FEW:02 150 SCT:04 250","29.91","10.00","67","190",,"15",,,,,,,,,,,,,,,,,,,,,,,,,,,,,,,,,,,,,"MET12306/09/20 12:51:02 METAR KJFK 091751Z 19013KT 10SM FEW150 SCT250 26/15 A2994 RMK AO2 SLP137 T02610150 10272 20206 58008 (DM)","FM-15","7",,,,,,,,,,,,,,,,,,,,,,,,,,,,"2009-05-01"
"74486094789","2020-06-09T13:00:00","FM-12","4",,"ESE","1.5","mi","TEMP, PRECIP, SNOW",,,"PSY, SRG, SNOWBOARD",,,"FAA CWO",,,,,,,,,,,,,,,,,,,,,,,,,,,,"59","79",,,"+0.02","8","50","29.93",,"29.91","9.94","67","190",,"15",,,,,,,,,,,,,,,,,,,,,,,,,,,,,,,,,,,,,"SYN08074486 32966 41913 10261 20150 30128 40137 58008 91751 333 10272 20189 555 90918=","FM-12","4",,,,,,,,,,,,,,,,,,,,,,,,,,,,"2009-05-01"
"74486094789","2020-06-09T13:51:00","FM-15","7",,"ESE","1.5","mi","TEMP, PRECIP, SNOW",,,"PSY, SRG, SNOWBOARD",,,"FAA CWO",,,,,,,,,,,,,,,,,,,,,,,,,,,"29.92","60","77","0.00",,,,"56","29.91","FEW:02 150 SCT:04 250","29.90","10.00","66","190",,"20",,,,,,,,,,,,,,,,,,,,,,,,,,,,,,,,,,,,,"MET10506/09/20 13:51:02 METAR KJFK 091851Z 19017KT 10SM FEW150 SCT250 25/16 A2992 RMK AO2 SLP130 T02500156 (RR)","FM-15","7",,,,,,,,,,,,,,,,,,,,,,,,,,,,"2009-05-01"
"74486094789","2020-06-09T14:51:00","FM-15","7",,"ESE","1.5","mi","TEMP, PRECIP, SNOW",,,"PSY, SRG, SNOWBOARD",,,"FAA CWO",,,,,,,,,,,,,,,,,,,,,,,,,,,"29.90","58","77","0.00",,,,"52","29.90","SCT:04 250","29.88","10.00","65","190",,"21",,,,,,,,,,,,,,,,,,,,,,,,,,,,,,,,,,,,,"MET09806/09/20 14:51:02 METAR KJFK 091951Z 19018KT 10SM SCT250 25/14 A2990 RMK AO2 SLP126 T02500144 (RR)","FM-15","7",,,,,,,,,,,,,,,,,,,,,,,,,,,,"2009-05-01"
"74486094789","2020-06-09T15:51:00","FM-15","7",,"ESE","1.5","mi","TEMP, PRECIP, SNOW",,,"PSY, SRG, SNOWBOARD",,,"FAA CWO",,,,,,,,,,,,,,,,,,,,,,,,,,,"29.90","59","76","0.00",,"+0.04","6","56","29.90","BKN:07 250","29.88","10.00","66","190",,"18",,,,,,,,,,,,,,,,,,,,,,,,,,,,,,,,,,,,,"MET10406/09/20 15:51:02 METAR KJFK 092051Z 19016KT 10SM BKN250 24/15 A2990 RMK AO2 SLP124 T02440150 56013 (RR)","FM-15","7",,,,,,,,,,,,,,,,,,,,,,,,,,,,"2009-05-01"
"74486094789","2020-06-09T16:00:00","FM-12","4",,"ESE","1.5","mi","TEMP, PRECIP, SNOW",,,"PSY, SRG, SNOWBOARD",,,"FAA CWO",,,,,,,,,,,,,,,,,,,,,,,,,,,,"59","76",,,"+0.04","6","56","29.90",,"29.87","9.94","66","190",,"18",,,,,,,,,,,,,,,,,,,,,,,,,,,,,,,,,,,,,"SYN06474486 32966 61916 10244 20150 30114 40124 56013 92051 555 90921=","FM-12","4",,,,,,,,,,,,,,,,,,,,,,,,,,,,"2009-05-01"
"74486094789","2020-06-09T16:51:00","FM-15","7",,"ESE","1.5","mi","TEMP, PRECIP, SNOW",,,"PSY, SRG, SNOWBOARD",,,"FAA CWO",,,,,,,,,,,,,,,,,,,,,,,,,,,"29.89","60","74","0.00",,,,"62","29.88","BKN:07 250","29.87","10.00","65","190",,"18",,,,,,,,,,,,,,,,,,,,,,,,,,,,,,,,,,,,,"MET09806/09/20 16:51:02 METAR KJFK 092151Z 19016KT 10SM BKN250 23/16 A2989 RMK AO2 SLP120 T02330156 (RR)","FM-15","7",,,,,,,,,,,,,,,,,,,,,,,,,,,,"2009-05-01"
"74486094789","2020-06-09T17:51:00","FM-15","7",,"ESE","1.5","mi","TEMP, PRECIP, SNOW",,,"PSY, SRG, SNOWBOARD",,,"FAA CWO",,,,,,,,,,,,,,,,,,,,,,,,,,,"29.89","61","73","0.00",,,,"66","29.89","BKN:07 250","29.87","10.00","66","190",,"13",,,,,,,,,,,,,,,,,,,,,,,,,,,,,,,,,,,,,"MET09806/09/20 17:51:02 METAR KJFK 092251Z 19011KT 10SM BKN250 23/16 A2989 RMK AO2 SLP122 T02280161 (RR)","FM-15","7",,,,,,,,,,,,,,,,,,,,,,,,,,,,"2009-05-01"
"74486094789","2020-06-09T18:51:00","FM-15","7",,"ESE","1.5","mi","TEMP, PRECIP, SNOW",,,"PSY, SRG, SNOWBOARD",,,"FAA CWO",,,,,,,,,,,,,,,,,,,,,,,,,,,"29.90","61","71","0.00",,"-0.00","3","71","29.90","BKN:07 250","29.88","10.00","65","190",,"15",,,,,,,,,,,,,,,,,,,,,,,,,,,,,,,,,,,,,"MET11606/09/20 18:51:02 METAR KJFK 092351Z 19013KT 10SM BKN250 22/16 A2990 RMK AO2 SLP125 T02170161 10261 20217 53001 (RR)","FM-15","7",,,,,,,,,,,,,,,,,,,,,,,,,,,,"2009-05-01"
"74486094789","2020-06-09T19:00:00","FM-12","4",,"ESE","1.5","mi","TEMP, PRECIP, SNOW",,,"PSY, SRG, SNOWBOARD",,,"FAA CWO",,,,,,,,,,,,,,,,,,,,,,,,,,,,"61","71",,,"-0.00","3","71","29.90",,"29.87","9.94","65","190",,"15",,,,,,,,,,,,,,,,,,,,,,,,,,,,,,,,,,,,,"SYN08074486 32966 61913 10217 20161 30114 40125 53001 92351 333 10272 20167 555 91000=","FM-12","4",,,,,,,,,,,,,,,,,,,,,,,,,,,,"2009-05-01"
"74486094789","2020-06-09T19:51:00","FM-15","7",,"ESE","1.5","mi","TEMP, PRECIP, SNOW",,,"PSY, SRG, SNOWBOARD",,,"FAA CWO",,,,,,,,,,,,,,,,,,,,,,,,,,,"29.91","61","70","0.00",,,,"73","29.91","BKN:07 250","29.88","10.00","65","190",,"11",,,,,,,,,,,,,,,,,,,,,,,,,,,,,,,,,,,,,"MET09306/09/20 19:51:01 METAR KJFK 100051Z 19010KT 10SM BKN250 21/16 A2991 RMK AO2 SLP127 T02110161","FM-15","7",,,,,,,,,,,,,,,,,,,,,,,,,,,,"2009-05-01"
"74486094789","2020-06-09T20:51:00","FM-15","7",,"ESE","1.5","mi","TEMP, PRECIP, SNOW",,,"PSY, SRG, SNOWBOARD",,,"FAA CWO",,,,,,,,,,,,,,,,,,,,,,,,,,,"29.92","62","69","0.00",,,,"78","29.92","BKN:07 250","29.90","10.00","65","180",,"11",,,,,,,,,,,,,,,,,,,,,,,,,,,,,,,,,,,,,"MET09306/09/20 20:51:01 METAR KJFK 100151Z 18010KT 10SM BKN250 21/17 A2992 RMK AO2 SLP132 T02060167","FM-15","7",,,,,,,,,,,,,,,,,,,,,,,,,,,,"2009-05-01"
"74486094789","2020-06-09T21:51:00","FM-15","7",,"ESE","1.5","mi","TEMP, PRECIP, SNOW",,,"PSY, SRG, SNOWBOARD",,,"FAA CWO",,,,,,,,,,,,,,,,,,,,,,,,,,,"29.93","62","68","0.00",,"-0.04","3","81","29.93","BKN:07 250","29.91","10.00","64","190",,"8",,,,,,,,,,,,,,,,,,,,,,,,,,,,,,,,,,,,,"MET09906/09/20 21:51:01 METAR KJFK 100251Z 19007KT 10SM BKN250 20/17 A2993 RMK AO2 SLP136 T02000167 53012","FM-15","7",,,,,,,,,,,,,,,,,,,,,,,,,,,,"2009-05-01"
"74486094789","2020-06-09T22:00:00","FM-12","4",,"ESE","1.5","mi","TEMP, PRECIP, SNOW",,,"PSY, SRG, SNOWBOARD",,,"FAA CWO",,,,,,,,,,,,,,,,,,,,,,,,,,,,"62","68",,,"-0.04","3","81","29.93",,"29.90","9.94","64","190",,"8",,,,,,,,,,,,,,,,,,,,,,,,,,,,,,,,,,,,,"SYN06474486 32966 61907 10200 20167 30124 40136 53012 90251 555 91003=","FM-12","4",,,,,,,,,,,,,,,,,,,,,,,,,,,,"2009-05-01"
"74486094789","2020-06-09T22:51:00","FM-15","7",,"ESE","1.5","mi","TEMP, PRECIP, SNOW",,,"PSY, SRG, SNOWBOARD",,,"FAA CWO",,,,,,,,,,,,,,,,,,,,,,,,,,,"29.94","61","68","0.00",,,,"78","29.94","SCT:04 250","29.91","10.00","64","200",,"5",,,,,,,,,,,,,,,,,,,,,,,,,,,,,,,,,,,,,"MET09306/09/20 22:51:01 METAR KJFK 100351Z 20004KT 10SM SCT250 20/16 A2994 RMK AO2 SLP138 T02000161","FM-15","7",,,,,,,,,,,,,,,,,,,,,,,,,,,,"2009-05-01"
"74486094789","2020-06-09T23:51:00","FM-15","7",,"ESE","1.5","mi","TEMP, PRECIP, SNOW",,,"PSY, SRG, SNOWBOARD",,,"FAA CWO",,,,,,,,,,,,,,,,,,,,,,,,,,,"29.95","60","67","0.00",,,,"79","29.94","FEW:02 250","29.93","10.00","63","190",,"7",,,,,,,,,,,,,,,,,,,,,,,,,,,,,,,,,,,,,"MET10306/09/20 23:51:01 METAR KJFK 100451Z 19006KT 10SM FEW250 19/16 A2995 RMK AO2 SLP140 T01940156 402720167","FM-15","7",,,,,,,,,,,,,,,,,,,,,,,,,,,,"2009-05-01"
"74486094789","2020-06-09T23:59:00","SOD  ","6",,"ESE","1.5","mi","TEMP, PRECIP, SNOW",,,"PSY, SRG, SNOWBOARD",,,"FAA CWO",,,,"59","72","65","29.94","29.93","64","10.9","7","3.5","0","81","62","190","26","0.00","0","0.0","190","22",,,,,,,,,,,,,,,,,,,,,,,,,,,,,,,,,,,,,,,,,,,,,,,,,,,,,,,,,"SOD73924 HR PRECIPITATION (IN): 0.00 SNOW DEPTH (IN):0     24 HR SNOWFALL (IN):0.0  24 HR MAX TEMP (F): 8124 HR MIN TEMP (F): 62AVERAGE STATION PRESSURE:29.925 MINIMUM SEA LEVEL PRESSURE:29.88 TIME OF OCCURRENCE:1703 PEAK WIND SPEED (MPH): 26 PEAK WIND DIR (DEG):190 PEAK WIND TIME (LST):      FASTEST 2MIN SPEED (MPH): 22FASTEST 2MIN DIR (DEG):190 FASTEST 2MIN TIME (LST):     AVERAGE WIND SPEED (MPH):10.9 24 HR AVG TEMP (F): 72DEPART FROM NORMAL:  4  HEATING DEGREE DAYS:  0 COOLING DEGREE DAYS:  7 LATEST DAY MAX TEMP (0700-1900 LST):81  LATEST NIGHT MIN TEMP(1900-0800 LST):62 HOURLY INCREMENTAL PRECIPITATION VALUES (IN):.00 0.00 0.00 0.00 0.00 0.00 0.00 0.00 0.00 0.00 0.00 0.00 0.00 0.00 0.00 0.00 0.00 0.00 0.00 0.00 0.00 0.00 0.00 0.00","SOD  ","6",,,,,,,,,,,,,,,,,,,,,,,,,"0424","1925",,"2009-05-01"
"74486094789","2020-06-10T00:51:00","FM-15","7",,"ESE","1.5","mi","TEMP, PRECIP, SNOW",,,"PSY, SRG, SNOWBOARD",,,"FAA CWO",,,,,,,,,,,,,,,,,,,,,,,,,,,"29.95","61","66","0.00",,"-0.01","2","84","29.95","SCT:04 250","29.93","10.00","63","200",,"7",,,,,,,,,,,,,,,,,,,,,,,,,,,,,,,,,,,,,"MET11606/10/20 00:51:02 METAR KJFK 100551Z 20006KT 10SM SCT250 19/16 A2995 RMK AO2 SLP142 T01890161 10217 20189 52005 (JC)","FM-15","7",,,,,,,,,,,,,,,,,,,,,,,,,,,,"2009-05-01"
"74486094789","2020-06-10T01:00:00","FM-12","4",,"ESE","1.5","mi","TEMP, PRECIP, SNOW",,,"PSY, SRG, SNOWBOARD",,,"FAA CWO",,,,,,,,,,,,,,,,,,,,,,,,,,,,"61","66",,,"-0.01","2","84","29.95",,"29.92","9.94","63","200",,"7",,,,,,,,,,,,,,,,,,,,,,,,,,,,,,,,,,,,,"SYN08074486 32966 42006 10189 20161 30131 40142 52005 90551 333 10217 20167 555 91006=","FM-12","4",,,,,,,,,,,,,,,,,,,,,,,,,,,,"2009-05-01"
"74486094789","2020-06-10T01:51:00","FM-15","7",,"ESE","1.5","mi","TEMP, PRECIP, SNOW",,,"PSY, SRG, SNOWBOARD",,,"FAA CWO",,,,,,,,,,,,,,,,,,,,,,,,,,,"29.94","61","66","0.00",,,,"84","29.94","SCT:04 250","29.91","10.00","63","170",,"3",,,,,,,,,,,,,,,,,,,,,,,,,,,,,,,,,,,,,"MET09806/10/20 01:51:02 METAR KJFK 100651Z 17003KT 10SM SCT250 19/16 A2994 RMK AO2 SLP138 T01890161 (JC)","FM-15","7",,,,,,,,,,,,,,,,,,,,,,,,,,,,"2009-05-01"
"74486094789","2020-06-10T02:51:00","FM-15","7",,"ESE","1.5","mi","TEMP, PRECIP, SNOW",,,"PSY, SRG, SNOWBOARD",,,"FAA CWO",,,,,,,,,,,,,,,,,,,,,,,,,,,"29.94","61","65","0.00",,,,"87","29.94","BKN:07 250","29.91","10.00","63","160",,"5",,,,,,,,,,,,,,,,,,,,,,,,,,,,,,,,,,,,,"MET09806/10/20 02:51:02 METAR KJFK 100751Z 16004KT 10SM BKN250 18/16 A2994 RMK AO2 SLP139 T01830161 (JC)","FM-15","7",,,,,,,,,,,,,,,,,,,,,,,,,,,,"2009-05-01"
"74486094789","2020-06-10T03:51:00","FM-15","7",,"ESE","1.5","mi","TEMP, PRECIP, SNOW",,,"PSY, SRG, SNOWBOARD",,,"FAA CWO",,,,,,,,,,,,,,,,,,,,,,,,,,,"29.95","61","65","0.00",,"-0.00","3","87","29.95","BKN:07 250","29.93","10.00","63","160",,"3",,,,,,,,,,,,,,,,,,,,,,,,,,,,,,,,,,,,,"MET10406/10/20 03:51:02 METAR KJFK 100851Z 16003KT 10SM BKN250 18/16 A2995 RMK AO2 SLP142 T01830161 53001 (JC)","FM-15","7",,,,,,,,,,,,,,,,,,,,,,,,,,,,"2009-05-01"
"74486094789","2020-06-10T04:00:00","FM-12","4",,"ESE","1.5","mi","TEMP, PRECIP, SNOW",,,"PSY, SRG, SNOWBOARD",,,"FAA CWO",,,,,,,,,,,,,,,,,,,,,,,,,,,,"61","65",,,"-0.00","3","87","29.95",,"29.92","9.94","63","160",,"3",,,,,,,,,,,,,,,,,,,,,,,,,,,,,,,,,,,,,"SYN06474486 32966 61603 10183 20161 30131 40142 53001 90851 555 91009=","FM-12","4",,,,,,,,,,,,,,,,,,,,,,,,,,,,"2009-05-01"
"74486094789","2020-06-10T04:51:00","FM-15","7",,"ESE","1.5","mi","TEMP, PRECIP, SNOW",,,"PSY, SRG, SNOWBOARD",,,"FAA CWO",,,,,,,,,,,,,,,,,,,,,,,,,,,"29.97","61","65","0.00",,,,"87","29.96","BKN:07 250","29.95","10.00","63","080",,"5",,,,,,,,,,,,,,,,,,,,,,,,,,,,,,,,,,,,,"MET09806/10/20 04:51:02 METAR KJFK 100951Z 08004KT 10SM BKN250 18/16 A2997 RMK AO2 SLP147 T01830161 (JC)","FM-15","7",,,,,,,,,,,,,,,,,,,,,,,,,,,,"2009-05-01"
"74486094789","2020-06-10T05:51:00","FM-15","7",,"ESE","1.5","mi","TEMP, PRECIP, SNOW",,,"PSY, SRG, SNOWBOARD",,,"FAA CWO",,,,,,,,,,,,,,,,,,,,,,,,,,,"29.98","63","70","0.00",,,,"79","29.98","BKN:07 250","29.96","10.00","66","000",,"0",,,,,,,,,,,,,,,,,,,,,,,,,,,,,,,,,,,,,"MET09806/10/20 05:51:02 METAR KJFK 101051Z 00000KT 10SM BKN250 21/17 A2998 RMK AO2 SLP153 T02110172 (BH)","FM-15","7",,,,,,,,,,,,,,,,,,,,,,,,,,,,"2009-05-01"
"74486094789","2020-06-10T06:51:00","FM-15","7",,"ESE","1.5","mi","TEMP, PRECIP, SNOW",,,"PSY, SRG, SNOWBOARD",,,"FAA CWO",,,,,,,,,,,,,,,,,,,,,,,,,,,"30.01","62","72","0.00",,"-0.06","3","71","30.01","BKN:07 250","29.98","10.00","66","060",,"6",,,,,,,,,,,,,,,,,,,,,,,,,,,,,,,,,,,,,"MET11606/10/20 06:51:02 METAR KJFK 101151Z 06005KT 10SM BKN250 22/17 A3001 RMK AO2 SLP162 T02220167 10222 20178 53020 (BH)","FM-15","7",,,,,,,,,,,,,,,,,,,,,,,,,,,,"2009-05-01"
"74486094789","2020-06-10T07:00:00","FM-12","4",,"ESE","1.5","mi","TEMP, PRECIP, SNOW",,,"PSY, SRG, SNOWBOARD",,,"FAA CWO",,,,,,,,,,,,,,,,,,,,,,,,,,,,"62","72",,,"-0.06","3","71","30.01",,"29.98","9.94","66","060",,"6",,,,,,,,,,,,,,,,,,,,,,,,,,,,,,,,,,,,,"SYN08074486 32966 60605 10222 20167 30151 40162 53020 91151 333 10272 20178 555 91012=","FM-12","4",,,,,,,,,,,,,,,,,,,,,,,,,,,,"2009-05-01"
"74486094789","2020-06-10T07:51:00","FM-15","7",,"ESE","1.5","mi","TEMP, PRECIP, SNOW",,,"PSY, SRG, SNOWBOARD",,,"FAA CWO",,,,,,,,,,,,,,,,,,,,,,,,,,,"30.00","63","75","0.00",,,,"66","30.00","BKN:07 250","29.98","10.00","67","070",,"8",,,,,,,,,,,,,,,,,,,,,,,,,,,,,,,,,,,,,"MET09806/10/20 07:51:02 METAR KJFK 101251Z 07007KT 10SM BKN250 24/17 A3000 RMK AO2 SLP160 T02390172 (BH)","FM-15","7",,,,,,,,,,,,,,,,,,,,,,,,,,,,"2009-05-01"
"74486094789","2020-06-10T08:51:00","FM-15","7",,"ESE","1.5","mi","TEMP, PRECIP, SNOW",,,"PSY, SRG, SNOWBOARD",,,"FAA CWO",,,,,,,,,,,,,,,,,,,,,,,,,,,"30.00","64","77","0.00",,,,"64","30.00","FEW:02 170 BKN:07 250","29.98","10.00","69","130",,"10",,,,,,,,,,,,,,,,,,,,,,,,,,,,,,,,,,,,,"MET10506/10/20 08:51:02 METAR KJFK 101351Z 13009KT 10SM FEW170 BKN250 25/18 A3000 RMK AO2 SLP158 T02500178 (BH)","FM-15","7",,,,,,,,,,,,,,,,,,,,,,,,,,,,"2009-05-01"
"74486094789","2020-06-10T09:51:00","FM-15","7",,"ESE","1.5","mi","TEMP, PRECIP, SNOW",,,"PSY, SRG, SNOWBOARD",,,"FAA CWO",,,,,,,,,,,,,,,,,,,,,,,,,,,"30.01","65","77","0.00",,"+0.00","5","66","30.01","BKN:07 250","29.98","10.00","69","120",,"10",,,,,,,,,,,,,,,,,,,,,,,,,,,,,,,,,,,,,"MET10406/10/20 09:51:02 METAR KJFK 101451Z 12009KT 10SM BKN250 25/18 A3001 RMK AO2 SLP162 T02500183 55000 (BH)","FM-15","7",,,,,,,,,,,,,,,,,,,,,,,,,,,,"2009-05-01"
"74486094789","2020-06-10T10:00:00","FM-12","4",,"ESE","1.5","mi","TEMP, PRECIP, SNOW",,,"PSY, SRG, SNOWBOARD",,,"FAA CWO",,,,,,,,,,,,,,,,,,,,,,,,,,,,"65","77",,,"+0.00","5","66","30.01",,"29.98","9.94","69","120",,"10",,,,,,,,,,,,,,,,,,,,,,,,,,,,,,,,,,,,,"SYN06474486 32966 61209 10250 20183 30151 40162 55000 91451 555 91015=","FM-12","4",,,,,,,,,,,,,,,,,,,,,,,,,,,,"2009-05-01"
"74486094789","2020-06-10T10:51:00","FM-15","7",,"ESE","1.5","mi","TEMP, PRECIP, SNOW",,,"PSY, SRG, SNOWBOARD",,,"FAA CWO",,,,,,,,,,,,,,,,,,,,,,,,,,,"30.01","67","78","0.00",,,,"69","30.00","FEW:02 170 BKN:07 250","29.98","10.00","71","130",,"10",,,,,,,,,,,,,,,,,,,,,,,,,,,,,,,,,,,,,"MET10506/10/20 10:51:02 METAR KJFK 101551Z 13009KT 10SM FEW170 BKN250 26/19 A3001 RMK AO2 SLP160 T02560194 (BH)","FM-15","7",,,,,,,,,,,,,,,,,,,,,,,,,,,,"2009-05-01"
"74486094789","2020-06-10T11:51:00","FM-15","7",,"ESE","1.5","mi","TEMP, PRECIP, SNOW",,,"PSY, SRG, SNOWBOARD",,,"FAA CWO",,,,,,,,,,,,,,,,,,,,,,,,,,,"30.00","69","78","0.00",,,,"74","30.00","BKN:07 250","29.98","10.00","72","140",,"13",,,,,,,,,,,,,,,,,,,,,,,,,,,,,,,,,,,,,"MET09806/10/20 11:51:02 METAR KJFK 101651Z 14011KT 10SM BKN250 26/21 A3000 RMK AO2 SLP159 T02560206 (BH)","FM-15","7",,,,,,,,,,,,,,,,,,,,,,,,,,,,"2009-05-01"
"74486094789","2020-06-10T12:51:00","FM-15","7",,"ESE","1.5","mi","TEMP, PRECIP, SNOW",,,"PSY, SRG, SNOWBOARD",,,"FAA CWO",,,,,,,,,,,,,,,,,,,,,,,,,,,"30.00","69","76","0.00",,"+0.01","7","79","30.00","FEW:02 13 BKN:07 250","29.98","10.00","71","140",,"11",,,,,,,,,,,,,,,,,,,,,,,,,,,,,,,,,,,,,"MET12306/10/20 12:51:02 METAR KJFK 101751Z 14010KT 10SM FEW013 BKN250 24/21 A3000 RMK AO2 SLP158 T02440206 10261 20228 57003 (BH)","FM-15","7",,,,,,,,,,,,,,,,,,,,,,,,,,,,"2009-05-01"
"74486094789","2020-06-10T13:00:00","FM-12","4",,"ESE","1.5","mi","TEMP, PRECIP, SNOW",,,"PSY, SRG, SNOWBOARD",,,"FAA CWO",,,,,,,,,,,,,,,,,,,,,,,,,,,,"69","76",,,"+0.01","7","79","30.00","15","29.97","9.94","71","140",,"11",,,,,,,,,,,,,,,,,,,,,,,,,,,,,,,,,,,,,"SYN08074486 32466 61410 10244 20206 30148 40158 57003 91751 333 10261 20217 555 91018=","FM-12","4",,,,,,,,,,,,,,,,,,,,,,,,,,,,"2009-05-01"
"74486094789","2020-06-10T13:51:00","FM-15","7",,"ESE","1.5","mi","TEMP, PRECIP, SNOW",,,"PSY, SRG, SNOWBOARD",,,"FAA CWO",,,,,,,,,,,,,,,,,,,,,,,,,,,"30.00","69","76","0.00",,,,"79","30.00","FEW:02 11 BKN:07 250","29.98","10.00","71","130",,"11",,,,,,,,,,,,,,,,,,,,,,,,,,,,,,,,,,,,,"MET10506/10/20 13:51:02 METAR KJFK 101851Z 13010KT 10SM FEW011 BKN250 24/21 A3000 RMK AO2 SLP158 T02440206 (RR)","FM-15","7",,,,,,,,,,,,,,,,,,,,,,,,,,,,"2009-05-01"
"74486094789","2020-06-10T14:51:00","FM-15","7",,"ESE","1.5","mi","TEMP, PRECIP, SNOW",,,"PSY, SRG, SNOWBOARD",,,"FAA CWO",,,,,,,,,,,,,,,,,,,,,,,,,,,"29.98","69","77","0.00",,,,"77","29.98","FEW:02 11 FEW:02 35 BKN:07 250","29.96","10.00","72","140","22","16",,,,,,,,,,,,,,,,,,,,,,,,,,,,,,,,,,,,,"MET11506/10/20 14:51:02 METAR KJFK 101951Z 14014G19KT 10SM FEW011 FEW035 BKN250 25/21 A2998 RMK AO2 SLP153 T02500206 (RR)","FM-15","7",,,,,,,,,,,,,,,,,,,,,,,,,,,,"2009-05-01"
"74486094789","2020-06-10T15:51:00","FM-15","7",,"ESE","1.5","mi","TEMP, PRECIP, SNOW",,,"PSY, SRG, SNOWBOARD",,,"FAA CWO",,,,,,,,,,,,,,,,,,,,,,,,,,,"29.98","68","75","0.00",,"+0.02","8","79","29.97","FEW:02 10 FEW:02 35 BKN:07 250","29.96","10.00","70","150","24","16",,,,,,,,,,,,,,,,,,,,,,,,,,,,,,,,,,,,,"MET12106/10/20 15:51:02 METAR KJFK 102051Z 15014G21KT 10SM FEW010 FEW035 BKN250 24/20 A2998 RMK AO2 SLP150 T02390200 58008 (RR)","FM-15","7",,,,,,,,,,,,,,,,,,,,,,,,,,,,"2009-05-01"
"74486094789","2020-06-10T16:00:00","FM-12","4",,"ESE","1.5","mi","TEMP, PRECIP, SNOW",,,"PSY, SRG, SNOWBOARD",,,"FAA CWO",,,,,,,,,,,,,,,,,,,,,,,,,,,,"68","75",,,"+0.02","8","79","29.97","15","29.95","9.94","70","150",,"16",,,,,,,,,,,,,,,,,,,,,,,,,,,,,,,,,,,,,"SYN07474486 32466 61514 10239 20200 30141 40150 58008 92051 333 91021 555 91021=","FM-12","4",,,,,,,,,,,,,,,,,,,,,,,,,,,,"2009-05-01"
"74486094789","2020-06-10T16:34:00","FM-16","7",,"ESE","1.5","mi","TEMP, PRECIP, SNOW",,,"PSY, SRG, SNOWBOARD",,,"FAA CWO",,,,,,,,,,,,,,,,,,,,,,,,,,,"29.97","68","73",,,,,"84",,"FEW:02 8 FEW:02 35 BKN:07 250","29.95","10.00","70","150","24","17",,,,,,,,,,,,,,,,,,,,,,,,,,,,,,,,,,,,,"MET10806/10/20 16:34:02 SPECI KJFK 102134Z 15015G21KT 10SM FEW008 FEW035 BKN250 23/20 A2997 RMK AO2 T02280200 (RR)","FM-16","7",,,,,,,,,,,,,,,,,,,,,,,,,,,,"2009-05-01"
"74486094789","2020-06-10T16:51:00","FM-15","7",,"ESE","1.5","mi","TEMP, PRECIP, SNOW",,,"PSY, SRG, SNOWBOARD",,,"FAA CWO",,,,,,,,,,,,,,,,,,,,,,,,,,,"29.97","68","73","0.00",,,,"84","29.96","FEW:02 8 FEW:02 35 FEW:02 140","29.95","10.00","70","160","25","21",,,,,,,,,,,,,,,,,,,,,,,,,,,,,,,,,,,,,"MET11506/10/20 16:51:02 METAR KJFK 102151Z 16018G22KT 10SM FEW008 FEW035 FEW140 23/20 A2997 RMK AO2 SLP147 T02280200 (RR)","FM-15","7",,,,,,,,,,,,,,,,,,,,,,,,,,,,"2009-05-01"
"74486094789","2020-06-10T17:51:00","FM-15","7",,"ESE","1.5","mi","TEMP, PRECIP, SNOW",,,"PSY, SRG, SNOWBOARD",,,"FAA CWO",,,,,,,,,,,,,,,,,,,,,,,,,,,"29.97","68","73","0.00",,,,"84","29.96","FEW:02 8 FEW:02 35 BKN:07 160","29.95","10.00","70","170","31","22",,,,,,,,,,,,,,,,,,,,,,,,,,,,,,,,,,,,,"MET14506/10/20 17:51:02 METAR KJFK 102251Z 17019G27KT 10SM FEW008 FEW035 BKN160 23/20 A2997 RMK AO2 PK WND 17027/2245 SLP147 TCU DSNT NW T02280200 (RR)","FM-15","7",,,,,,,,,,,,,,,,,,,,,,,,,,,,"2009-05-01"
"74486094789","2020-06-10T18:51:00","FM-15","7",,"ESE","1.5","mi","TEMP, PRECIP, SNOW",,,"PSY, SRG, SNOWBOARD",,,"FAA CWO",,,,,,,,,,,,,,,,,,,,,,,,,,,"29.97","66","70","0.00",,"+0.01","5","87","29.97","FEW:02 8 FEW:02 35 SCT:04 160","29.95","10.00","67","170",,"20",,,,,,,,,,,,,,,,,,,,,,,,,,,,,,,,,,,,,"MET14806/10/20 18:51:02 METAR KJFK 102351Z 17017KT 10SM FEW008 FEW035 SCT160 21/19 A2997 RMK AO2 PK WND 18028/2307 SLP148 T02110189 10256 20211 55002 (RR)","FM-15","7",,,,,,,,,,,,,,,,,,,,,,,,,,,,"2009-05-01"
"74486094789","2020-06-10T19:00:00","FM-12","4",,"ESE","1.5","mi","TEMP, PRECIP, SNOW",,,"PSY, SRG, SNOWBOARD",,,"FAA CWO",,,,,,,,,,,,,,,,,,,,,,,,,,,,"66","70",,,"+0.01","5","87","29.97","8","29.94","9.94","67","170",,"20",,,,,,,,,,,,,,,,,,,,,,,,,,,,,,,,,,,,,"SYN08074486 32366 61717 10211 20189 30138 40148 55002 92351 333 10261 20178 555 91100=","FM-12","4",,,,,,,,,,,,,,,,,,,,,,,,,,,,"2009-05-01"
"74486094789","2020-06-10T19:51:00","FM-15","7",,"ESE","1.5","mi","TEMP, PRECIP, SNOW",,,"PSY, SRG, SNOWBOARD",,,"FAA CWO",,,,,,,,,,,,,,,,,,,,,,,,,,,"29.96","66","69","0.00",,,,"90","29.96","FEW:02 8 FEW:02 35 SCT:04 160","29.93","10.00","67","170","30","23",,,,,,,,,,,,,,,,,,,,,,,,,,,,,,,,,,,,,"MET12806/10/20 19:51:01 METAR KJFK 110051Z 17020G26KT 10SM FEW008 FEW035 SCT160 21/19 A2996 RMK AO2 PK WND 18032/0003 SLP145 T02060189","FM-15","7",,,,,,,,,,,,,,,,,,,,,,,,,,,,"2009-05-01"
"74486094789","2020-06-10T20:51:00","FM-15","7",,"ESE","1.5","mi","TEMP, PRECIP, SNOW",,,"PSY, SRG, SNOWBOARD",,,"FAA CWO",,,,,,,,,,,,,,,,,,,,,,,,,,,"29.98","66","69","0.00",,,,"90","29.98","FEW:02 8 FEW:02 160 BKN:07 250","29.96","10.00","67","180","34","26",,,,,,,,,,,,,,,,,,,,,,,,,,,,,,,,,,,,,"MET12806/10/20 20:51:01 METAR KJFK 110151Z 18023G30KT 10SM FEW008 FEW160 BKN250 21/19 A2998 RMK AO2 PK WND 18030/0149 SLP152 T02060189","FM-15","7",,,,,,,,,,,,,,,,,,,,,,,,,,,,"2009-05-01"
"74486094789","2020-06-10T21:51:00","FM-15","7",,"ESE","1.5","mi","TEMP, PRECIP, SNOW",,,"PSY, SRG, SNOWBOARD",,,"FAA CWO",,,,,,,,,,,,,,,,,,,,,,,,,,,"29.98","66","68","0.00",,"-0.01","3","93","29.98","FEW:02 8 FEW:02 160 BKN:07 250","29.96","10.00","67","180","28","20",,,,,,,,,,,,,,,,,,,,,,,,,,,,,,,,,,,,,"MET13406/10/20 21:51:01 METAR KJFK 110251Z 18017G24KT 10SM FEW008 FEW160 BKN250 20/19 A2998 RMK AO2 PK WND 17029/0152 SLP151 T02000189 53003","FM-15","7",,,,,,,,,,,,,,,,,,,,,,,,,,,,"2009-05-01"
"74486094789","2020-06-10T22:00:00","FM-12","4",,"ESE","1.5","mi","TEMP, PRECIP, SNOW",,,"PSY, SRG, SNOWBOARD",,,"FAA CWO",,,,,,,,,,,,,,,,,,,,,,,,,,,,"66","68",,,"-0.01","3","93","29.98","8","29.95","9.94","67","180",,"20",,,,,,,,,,,,,,,,,,,,,,,,,,,,,,,,,,,,,"SYN07474486 32366 61817 10200 20189 30141 40151 53003 90251 333 91024 555 91103=","FM-12","4",,,,,,,,,,,,,,,,,,,,,,,,,,,,"2009-05-01"
"74486094789","2020-06-10T22:51:00","FM-15","7",,"ESE","1.5","mi","TEMP, PRECIP, SNOW",,,"PSY, SRG, SNOWBOARD",,,"FAA CWO",,,,,,,,,,,,,,,,,,,,,,,,,,,"29.98","65","68","0.00",,,,"90","29.98","FEW:02 8 FEW:02 120 BKN:07 250","29.96","10.00","66","180",,"20",,,,,,,,,,,,,,,,,,,,,,,,,,,,,,,,,,,,,"MET10706/10/20 22:51:01 METAR KJFK 110351Z 18017KT 10SM FEW008 FEW120 BKN250 20/18 A2998 RMK AO2 SLP152 T02000183","FM-15","7",,,,,,,,,,,,,,,,,,,,,,,,,,,,"2009-05-01"
"74486094789","2020-06-10T23:51:00","FM-15","7",,"ESE","1.5","mi","TEMP, PRECIP, SNOW",,,"PSY, SRG, SNOWBOARD",,,"FAA CWO",,,,,,,,,,,,,,,,,,,,,,,,,,,"29.98","65","68","0.00",,,,"90","29.98","FEW:02 8 SCT:04 120 BKN:07 250","29.96","10.00","66","180","29","20",,,,,,,,,,,,,,,,,,,,,,,,,,,,,,,,,,,,,"MET12006/10/20 23:51:01 METAR KJFK 110451Z 18017G25KT 10SM FEW008 SCT120 BKN250 20/18 A2998 RMK AO2 SLP152 T02000183 402610178","FM-15","7",,,,,,,,,,,,,,,,,,,,,,,,,,,,"2009-05-01"
"74486094789","2020-06-10T23:59:00","SOD  ","6",,"ESE","1.5","mi","TEMP, PRECIP, SNOW",,,"PSY, SRG, SNOWBOARD",,,"FAA CWO",,,,"65","72","81","29.98","29.96","67","12.7","7","3.2","0","79","64","180","36","0.00","0","0.0","180","26",,,,,,,,,,,,,,,,,,,,,,,,,,,,,,,,,,,,,,,,,,,,,,,,,,,,,,,,,"SOD73924 HR PRECIPITATION (IN): 0.00 SNOW DEPTH (IN):0     24 HR SNOWFALL (IN):0.0  24 HR MAX TEMP (F): 7924 HR MIN TEMP (F): 64AVERAGE STATION PRESSURE:29.955 MINIMUM SEA LEVEL PRESSURE:29.93 TIME OF OCCURRENCE:0212 PEAK WIND SPEED (MPH): 36 PEAK WIND DIR (DEG):180 PEAK WIND TIME (LST):      FASTEST 2MIN SPEED (MPH): 26FASTEST 2MIN DIR (DEG):180 FASTEST 2MIN TIME (LST):     AVERAGE WIND SPEED (MPH):12.7 24 HR AVG TEMP (F): 72DEPART FROM NORMAL:  3  HEATING DEGREE DAYS:  0 COOLING DEGREE DAYS:  7 LATEST DAY MAX TEMP (0700-1900 LST):79  LATEST NIGHT MIN TEMP(1900-0800 LST):64 HOURLY INCREMENTAL PRECIPITATION VALUES (IN):.00 0.00 0.00 0.00 0.00 0.00 0.00 0.00 0.00 0.00 0.00 0.00 0.00 0.00 0.00 0.00 0.00 0.00 0.00 0.00 0.00 0.00 0.00 0.00","SOD  ","6",,,,,,,,,,,,,,,,,,,,,,,,,"0424","1926",,"2009-05-01"
"74486094789","2020-06-11T00:51:00","FM-15","7",,"ESE","1.5","mi","TEMP, PRECIP, SNOW",,,"PSY, SRG, SNOWBOARD",,,"FAA CWO",,,,,,,,,,,,,,,,,,,,,,,,,,,"29.98","65","68","0.00",,"+0.00","8","90","29.98","FEW:02 100 BKN:07 180 OVC:08 250","29.96","10.00","66","190","26","18",,,,,,,,,,,,,,,,,,,,,,,,,,,,,,,,,,,,,"MET13306/11/20 00:51:02 METAR KJFK 110551Z 19016G23KT 10SM FEW100 BKN180 OVC250 20/18 A2998 RMK AO2 SLP151 T02000183 10211 20194 58000 (JC)","FM-15","7",,,,,,,,,,,,,,,,,,,,,,,,,,,,"2009-05-01"
"74486094789","2020-06-11T01:00:00","FM-12","4",,"ESE","1.5","mi","TEMP, PRECIP, SNOW",,,"PSY, SRG, SNOWBOARD",,,"FAA CWO",,,,,,,,,,,,,,,,,,,,,,,,,,,,"65","68",,,"0.00","4","90","29.98",,"29.95","9.94","66","190",,"18",,,,,,,,,,,,,,,,,,,,,,,,,,,,,,,,,,,,,"SYN08674486 32966 81916 10200 20183 30141 40151 58000 90551 333 10222 20178 91023 555 91106=","FM-12","4",,,,,,,,,,,,,,,,,,,,,,,,,,,,"2009-05-01"
"74486094789","2020-06-11T01:51:00","FM-15","7",,"ESE","1.5","mi","TEMP, PRECIP, SNOW",,,"PSY, SRG, SNOWBOARD",,,"FAA CWO",,,,,,,,,,,,,,,,,,,,,,,,,,,"29.96","64","67","T",,,,"91","29.96","FEW:02 80 OVC:08 140","29.93","10.00","65","180",,"18",,,,,,,,,,,,,,,,,,,,,,,,,,,,,,,,,,,,,"MET12006/11/20 01:51:02 METAR KJFK 110651Z 18016KT 10SM FEW080 OVC140 19/18 A2996 RMK AO2 RAB19E29 SLP145 P0000 T01940178 (JC)","FM-15","7",,,,,,,,,,,,,,,,,,,,,,,,,,,,"2009-05-01"
"74486094789","2020-06-11T02:51:00","FM-15","7",,"ESE","1.5","mi","TEMP, PRECIP, SNOW",,,"PSY, SRG, SNOWBOARD",,,"FAA CWO",,,,,,,,,,,,,,,,,,,,,,,,,,,"29.96","64","67","0.00",,,,"91","29.96","BKN:07 95 OVC:08 160","29.93","10.00","65","180",,"21",,,,,,,,,,,,,,,,,,,,,,,,,,,,,,,,,,,,,"MET10506/11/20 02:51:02 METAR KJFK 110751Z 18018KT 10SM BKN095 OVC160 19/18 A2996 RMK AO2 SLP145 T01940178 (JC)","FM-15","7",,,,,,,,,,,,,,,,,,,,,,,,,,,,"2009-05-01"
"74486094789","2020-06-11T03:21:00","FM-16","7",,"ESE","1.5","mi","TEMP, PRECIP, SNOW",,,"PSY, SRG, SNOWBOARD",,,"FAA CWO",,,,,,,,,,,,,,,,,,,,,,,,,,,"29.96","64","67",,,,,"91",,"BKN:07 25 OVC:08 160","29.93","10.00","65","180","28","23",,,,,,,,,,,,,,,,,,,,,,,,,,,,,,,,,,,,,"MET10106/11/20 03:21:02 SPECI KJFK 110821Z 18020G24KT 10SM BKN025 OVC160 19/18 A2996 RMK AO2 T01940178 (JC)","FM-16","7",,,,,,,,,,,,,,,,,,,,,,,,,,,,"2009-05-01"
"74486094789","2020-06-11T03:51:00","FM-15","7",,"ESE","1.5","mi","TEMP, PRECIP, SNOW",,,"PSY, SRG, SNOWBOARD",,,"FAA CWO",,,,,,,,,,,,,,,,,,,,,,,,,,,"29.97","64","67","0.00",,"+0.01","5","91","29.96","OVC:08 25","29.95","10.00","65","180","28","21",,,,,,,,,,,,,,,,,,,,,,,,,,,,,,,,,,,,,"MET13106/11/20 03:51:02 METAR KJFK 110851Z 18018G24KT 10SM OVC025 19/18 A2997 RMK AO2 PK WND 18026/0834 SLP147 60000 T01940178 55003 (JC)","FM-15","7",,,,,,,,,,,,,,,,,,,,,,,,,,,,"2009-05-01"
"74486094789","2020-06-11T04:00:00","FM-12","4",,"ESE","1.5","mi","TEMP, PRECIP, SNOW",,,"PSY, SRG, SNOWBOARD",,,"FAA CWO",,,,,,,,,,,,,,,,,,,,,,,,,,,,"64","67",,,"+0.01","5","91","29.96","26","29.94","9.94","65","180",,"21",,,,,,,,,,,,,,,,,,,,,,,,,,,,,,,,,,,,,"SYN08074486 12566 81818 10194 20178 30138 40147 55003 69907 90851 333 91024 555 91109=","FM-12","4",,,,,,,,,,,,,,,,,,,,,,,,,,,,"2009-05-01"
"74486094789","2020-06-11T04:32:00","FM-16","7",,"ESE","1.5","mi","TEMP, PRECIP, SNOW",,,"PSY, SRG, SNOWBOARD",,,"FAA CWO",,,,,,,,,,,,,,,,,,,,,,,,,,,"29.97","64","67",,,,,"91",,"SCT:04 25 BKN:07 55 OVC:08 140","29.95","10.00","65","180","31","24",,,,,,,,,,,,,,,,,,,,,,,,,,,,,,,,,,,,,"MET12606/11/20 04:32:02 SPECI KJFK 110932Z 18021G27KT 10SM SCT025 BKN055 OVC140 19/18 A2997 RMK AO2 PK WND 18027/0930 T01940178 (JC)","FM-16","7",,,,,,,,,,,,,,,,,,,,,,,,,,,,"2009-05-01"
"74486094789","2020-06-11T04:51:00","FM-15","7",,"ESE","1.5","mi","TEMP, PRECIP, SNOW",,,"PSY, SRG, SNOWBOARD",,,"FAA CWO",,,,,,,,,,,,,,,,,,,,,,,,,,,"29.97","64","66","0.00",,,,"93","29.97","SCT:04 25 SCT:04 55 BKN:07 120","29.95","10.00","65","180","29","22",,,,,,,,,,,,,,,,,,,,,,,,,,,,,,,,,,,,,"MET13306/11/20 04:51:02 METAR KJFK 110951Z 18019G25KT 10SM SCT025 SCT055 BKN120 19/18 A2997 RMK AO2 PK WND 18027/0930 SLP149 T01890178 (JC)","FM-15","7",,,,,,,,,,,,,,,,,,,,,,,,,,,,"2009-05-01"
"74486094789","2020-06-11T05:49:00","FM-16","6",,"ESE","1.5","mi","TEMP, PRECIP, SNOW",,,"PSY, SRG, SNOWBOARD",,,"FAA CWO",,,,,,,,,,,,,,,,,,,,,,,,,,,"29.98","64","66",,,,,"94",,"FEW:02 8 SCT:04 25 BKN:07 90","29.96","10.00","65","180","31","23",,,,,,,,,,,,,,,,,,,,,,,,,,,,,,,,,,,,,"MET12106/11/20 05:49:02 SPECI KJFK 111049Z 18020G27KT 10SM FEW008 SCT025 BKN090 19/18 A2998 RMK AO2 PK WND 18029/1026 FIBI (BH)","FM-16","6",,,,,,,,,,,,,,,,,,,,,,,,,,,,"2009-05-01"
"74486094789","2020-06-11T05:51:00","FM-15","7",,"ESE","1.5","mi","TEMP, PRECIP, SNOW",,,"PSY, SRG, SNOWBOARD",,,"FAA CWO",,,,,,,,,,,,,,,,,,,,,,,,,,,"29.98","64","67","0.00",,,,"91","29.98","FEW:02 8 SCT:04 25 BKN:07 90","29.96","10.00","65","190","29","21",,,,,,,,,,,,,,,,,,,,,,,,,,,,,,,,,,,,,"MET13306/11/20 05:51:02 METAR KJFK 111051Z 19018G25KT 10SM FEW008 SCT025 BKN090 19/18 A2998 RMK AO2 PK WND 18029/1026 SLP152 T01940178 (BH)","FM-15","7",,,,,,,,,,,,,,,,,,,,,,,,,,,,"2009-05-01"
"74486094789","2020-06-11T06:40:00","FM-16","7",,"ESE","1.5","mi","TEMP, PRECIP, SNOW",,,"PSY, SRG, SNOWBOARD",,,"FAA CWO",,,,,,,,,,,,,,,,,,,,,,,,,,,"29.98","65","68",,,,,"90",,"FEW:02 8 BKN:07 24 BKN:07 95","29.96","10.00","66","180","31","24",,,,,,,,,,,,,,,,,,,,,,,,,,,,,,,,,,,,,"MET12606/11/20 06:40:02 SPECI KJFK 111140Z 18021G27KT 10SM FEW008 BKN024 BKN095 20/18 A2998 RMK AO2 PK WND 19027/1135 T02000183 (BH)","FM-16","7",,,,,,,,,,,,,,,,,,,,,,,,,,,,"2009-05-01"
"74486094789","2020-06-11T06:51:00","FM-15","7",,"ESE","1.5","mi","TEMP, PRECIP, SNOW",,,"PSY, SRG, SNOWBOARD",,,"FAA CWO",,,,,,,,,,,,,,,,,,,,,,,,,,,"29.98","64","68","0.00",,"-0.01","0","87","29.98","FEW:02 8 BKN:07 20 BKN:07 95","29.96","10.00","66","190","31","25",,,,,,,,,,,,,,,,,,,,,,,,,,,,,,,,,,,,,"MET15706/11/20 06:51:02 METAR KJFK 111151Z 19022G27KT 10SM FEW008 BKN020 BKN095 20/18 A2998 RMK AO2 PK WND 18027/1151 SLP152 60000 T02000178 10200 20189 50004 (BH)","FM-15","7",,,,,,,,,,,,,,,,,,,,,,,,,,,,"2009-05-01"
"74486094789","2020-06-11T07:00:00","FM-12","4",,"ESE","1.5","mi","TEMP, PRECIP, SNOW",,,"PSY, SRG, SNOWBOARD",,,"FAA CWO",,,,,,,,,,,,,,,,,,,,,,,,,,,,"64","68",,,"0.01","9","87","29.98","8","29.95","9.94","66","190",,"25",,,,,,,,,,,,,,,,,,,,,,,,,,,,,,,,,,,,,"SYN09274486 12366 61922 10200 20178 30141 40152 50004 69901 91151 333 10261 20189 91027 555 91112=","FM-12","4",,,,,,,,,,,,,,,,,,,,,,,,,,,,"2009-05-01"
"74486094789","2020-06-11T07:51:00","FM-15","7",,"ESE","1.5","mi","TEMP, PRECIP, SNOW",,,"PSY, SRG, SNOWBOARD",,,"FAA CWO",,,,,,,,,,,,,,,,,,,,,,,,,,,"29.99","64","67","0.00",,,,"91","29.99","BKN:07 20 BKN:07 27 BKN:07 80","29.96","10.00","65","180","30","22",,,,,,,,,,,,,,,,,,,,,,,,,,,,,,,,,,,,,"MET13306/11/20 07:51:02 METAR KJFK 111251Z 18019G26KT 10SM BKN020 BKN027 BKN080 19/18 A2999 RMK AO2 PK WND 19026/1207 SLP155 T01940178 (BH)","FM-15","7",,,,,,,,,,,,,,,,,,,,,,,,,,,,"2009-05-01"
"74486094789","2020-06-11T08:21:00","FM-16","7",,"ESE","1.5","mi","TEMP, PRECIP, SNOW",,,"PSY, SRG, SNOWBOARD",,,"FAA CWO",,,,,,,,,,,,,,,,,,,,,,,,,,,"29.99","65","69",,,,,"87",,"SCT:04 24 BKN:07 100 BKN:07 250","29.96","10.00","66","190","29","21",,,,,,,,,,,,,,,,,,,,,,,,,,,,,,,,,,,,,"MET12606/11/20 08:21:02 SPECI KJFK 111321Z 19018G25KT 10SM SCT024 BKN100 BKN250 21/18 A2999 RMK AO2 PK WND 18027/1259 T02060183 (BH)","FM-16","7",,,,,,,,,,,,,,,,,,,,,,,,,,,,"2009-05-01"
"74486094789","2020-06-11T08:51:00","FM-15","7",,"ESE","1.5","mi","TEMP, PRECIP, SNOW",,,"PSY, SRG, SNOWBOARD",,,"FAA CWO",,,,,,,,,,,,,,,,,,,,,,,,,,,"29.99","65","70","0.00",,,,"84","29.99","BKN:07 24 BKN:07 100 BKN:07 250","29.96","10.00","67","190","31","18",,,,,,,,,,,,,,,,,,,,,,,,,,,,,,,,,,,,,"MET13306/11/20 08:51:02 METAR KJFK 111351Z 19016G27KT 10SM BKN024 BKN100 BKN250 21/18 A2999 RMK AO2 PK WND 19027/1343 SLP155 T02110183 (BH)","FM-15","7",,,,,,,,,,,,,,,,,,,,,,,,,,,,"2009-05-01"
"74486094789","2020-06-11T09:51:00","FM-15","7",,"ESE","1.5","mi","TEMP, PRECIP, SNOW",,,"PSY, SRG, SNOWBOARD",,,"FAA CWO",,,,,,,,,,,,,,,,,,,,,,,,,,,"30.01","64","69","0.00",,"-0.03","3","84","30.01","OVC:08 24","29.98","10.00","66","180","28","22",,,,,,,,,,,,,,,,,,,,,,,,,,,,,,,,,,,,,"MET10706/11/20 09:51:02 METAR KJFK 111451Z 18019G24KT 10SM OVC024 21/18 A3001 RMK AO2 SLP162 T02060178 53010 (BH)","FM-15","7",,,,,,,,,,,,,,,,,,,,,,,,,,,,"2009-05-01"
"74486094789","2020-06-11T10:00:00","FM-12","4",,"ESE","1.5","mi","TEMP, PRECIP, SNOW",,,"PSY, SRG, SNOWBOARD",,,"FAA CWO",,,,,,,,,,,,,,,,,,,,,,,,,,,,"64","69",,,"-0.03","3","84","30.01","26","29.98","9.94","66","180",,"22",,,,,,,,,,,,,,,,,,,,,,,,,,,,,,,,,,,,,"SYN07474486 32566 81819 10206 20178 30151 40162 53010 91451 333 91024 555 91115=","FM-12","4",,,,,,,,,,,,,,,,,,,,,,,,,,,,"2009-05-01"
"74486094789","2020-06-11T10:51:00","FM-15","7",,"ESE","1.5","mi","TEMP, PRECIP, SNOW",,,"PSY, SRG, SNOWBOARD",,,"FAA CWO",,,,,,,,,,,,,,,,,,,,,,,,,,,"30.01","65","69","0.00",,,,"87","30.01","OVC:08 25","29.98","10.00","66","190","31","25",,,,,,,,,,,,,,,,,,,,,,,,,,,,,,,,,,,,,"MET11906/11/20 10:51:02 METAR KJFK 111551Z 19022G27KT 10SM OVC025 21/18 A3001 RMK AO2 PK WND 19027/1550 SLP163 T02060183 (BH)","FM-15","7",,,,,,,,,,,,,,,,,,,,,,,,,,,,"2009-05-01"
"74486094789","2020-06-11T11:49:00","FM-16","6",,"ESE","1.5","mi","TEMP, PRECIP, SNOW",,,"PSY, SRG, SNOWBOARD",,,"FAA CWO",,,,,,,,,,,,,,,,,,,,,,,,,,,"30.01","66","73",,,,,"78",,"FEW:02 24 SCT:04 29 BKN:07 120","29.98","10.00","69","190",,"22",,,,,,,,,,,,,,,,,,,,,,,,,,,,,,,,,,,,,"MET10006/11/20 11:49:02 SPECI KJFK 111649Z 19019KT 10SM FEW024 SCT029 BKN120 23/19 A3001 RMK AO2 FIBI (BH)","FM-16","6",,,,,,,,,,,,,,,,,,,,,,,,,,,,"2009-05-01"
"74486094789","2020-06-11T11:51:00","FM-15","7",,"ESE","1.5","mi","TEMP, PRECIP, SNOW",,,"PSY, SRG, SNOWBOARD",,,"FAA CWO",,,,,,,,,,,,,,,,,,,,,,,,,,,"30.01","66","74","0.00",,,,"76","30.01","FEW:02 24 SCT:04 29 BKN:07 120","29.98","10.00","69","180",,"20",,,,,,,,,,,,,,,,,,,,,,,,,,,,,,,,,,,,,"MET11206/11/20 11:51:02 METAR KJFK 111651Z 18017KT 10SM FEW024 SCT029 BKN120 23/19 A3001 RMK AO2 SLP162 T02330189 (BH)","FM-15","7",,,,,,,,,,,,,,,,,,,,,,,,,,,,"2009-05-01"
"74486094789","2020-06-11T12:51:00","FM-15","7",,"ESE","1.5","mi","TEMP, PRECIP, SNOW",,,"PSY, SRG, SNOWBOARD",,,"FAA CWO",,,,,,,,,,,,,,,,,,,,,,,,,,,"30.01","64","67","T","|RA |","+0.00","5","91","30.01","FEW:02 11 SCT:04 28 BKN:07 60","29.98","8.00","65","180",,"25",,,,,,,,,,,,,,,,,,,,,,,,,,,,,,,,,,,,,"MET18106/11/20 12:51:02 METAR KJFK 111751Z 18022KT 8SM -RA FEW011 SCT028 BKN060 19/18 A3001 RMK AO2 PK WND 18027/1750 LTG DSNT SW RAB38 SLP163 P0000 60000 T01940178 10233 20194 55000 (BH)","FM-15","7",,,,,,,,,,,,,,,,,,,,,,,,,,,,"2009-05-01"
"74486094789","2020-06-11T12:56:00","FM-16","7",,"ESE","1.5","mi","TEMP, PRECIP, SNOW",,,"PSY, SRG, SNOWBOARD",,,"FAA CWO",,,,,,,,,,,,,,,,,,,,,,,,,,,"30.02","64","66","T","|TS |",,,"93",,"FEW:02 11 SCT:04 25","30.00","8.00","65","190",,"23",,,,,,,,,,,,,,,,,,,,,,,,,,,,,,,,,,,,,"MET16106/11/20 12:56:02 SPECI KJFK 111756Z 19020KT 8SM -TSRA FEW011 SCT025CB BKN0 19/18 A3002 RMK AO2 LTG DSNT SW TSB56 OCNL LTGIC SW TS SW MOV NE P0000 T01890178 (BH)","FM-16","7",,,,,,,,,,,,,,,,,,,,,,,,,,,,"2009-05-01"
"74486094789","2020-06-11T13:00:00","FM-12","4",,"ESE","1.5","mi","TEMP, PRECIP, SNOW",,,"PSY, SRG, SNOWBOARD",,,"FAA CWO",,,,,,,,,,,,,,,,,,,,,,,,,,,,"64","67",,"||RA","+0.00","5","91","30.01","15","29.98","7.46","65","180",,"25",,,,,,,,,,,,,,,,,,,,,,,,,,,,,,,,,,,,,"SYN09274486 11462 81822 10194 20178 30151 40163 55000 69901 761// 91751 333 10233 20194 555 91118=","FM-12","4",,,,,,,,,,,,,,,,,,,,,,,,,,,,"2009-05-01"
"74486094789","2020-06-11T13:51:00","FM-15","7",,"ESE","1.5","mi","TEMP, PRECIP, SNOW",,,"PSY, SRG, SNOWBOARD",,,"FAA CWO",,,,,,,,,,,,,,,,,,,,,,,,,,,"30.01","66","66","0.63","TS:7 RA:02 BR:1 |RA TS |RA",,,"100","30.01","FEW:02 11 BKN:07 30 OVC:08 48","29.98","3.00","66","180",,"14",,,,,,,,,,,,,,,,,,,,,,,,,,,,,,,,,,,,,"MET22806/11/20 13:51:02 METAR KJFK 111851Z 18012KT 3SM R04R/2600VP6000FT TSRA BR FEW011 BKN030CB OVC048 19/19 A3001 RMK AO2 PK WND 19027/1806 LTG DSNT ALQDS TSB1756 SLP162 VIS NE 2 OCNL LTGIC NE-S TS NE-S MOV NE P0060 T01890189 $ (RR)","FM-15","7",,,,,,,,,,,,,,,,,,,,,,,,,,,,"2009-05-01"
"74486094789","2020-06-11T14:05:00","FM-16","7",,"ESE","1.5","mi","TEMP, PRECIP, SNOW",,,"PSY, SRG, SNOWBOARD",,,"FAA CWO",,,,,,,,,,,,,,,,,,,,,,,,,,,"30.02","65","66","0.04","TS:7 RA:02 BR:1 |RA TS |RA",,,"96",,"SCT:04 3 BKN:07 36 OVC:08 55","30.00","3.00","65","190",,"14",,,,,,,,,,,,,,,,,,,,,,,,,,,,,,,,,,,,,"MET19606/11/20 14:05:02 SPECI KJFK 111905Z 19012KT 3SM R04R/5500VP6000FT TSRA BR SCT003 BKN036CB OVC055 19/18 A3002 RMK AO2 LTG DSNT NE AND E AND SW OCNL LTGIC NE-S TS NE-S MOV NE P0004 T01890183 $ (RR)","FM-16","7",,,,,,,,,,,,,,,,,,,,,,,,,,,,"2009-05-01"
"74486094789","2020-06-11T14:28:00","FM-16","7",,"ESE","1.5","mi","TEMP, PRECIP, SNOW",,,"PSY, SRG, SNOWBOARD",,,"FAA CWO",,,,,,,,,,,,,,,,,,,,,,,,,,,"30.02","68","68","0.11","-TS:7 RA:02 BR:1 |TS |RA s",,,"100",,"SCT:04 3 BKN:07 38 BKN:07 70","30.00","0.50","68","190",,"10",,,,,,,,,,,,,,,,,,,,,,,,,,,,,,,,,,,,,"MET19306/11/20 14:28:02 SPECI KJFK 111928Z 19009KT 1/2SM R04R/P6000FT -TSRA BR SCT003 BKN038CB BKN0 20/20 A3002 RMK AO2 SFC VIS 4 LTG DSNT NE AND E OCNL LTGIC E-S TS E-S MOV NE P0011 T02000200 $ (RR)","FM-16","7",,,,,,,,,,,,,,,,,,,,,,,,,,,,"2009-05-01"
"74486094789","2020-06-11T14:48:00","FM-16","7",,"ESE","1.5","mi","TEMP, PRECIP, SNOW",,,"PSY, SRG, SNOWBOARD",,,"FAA CWO",,,,,,,,,,,,,,,,,,,,,,,,,,,"30.01","70","70","0.13","RA:02 BR:1 |s RA s |RA s",,,"100",,"SCT:04 3 BKN:07 38 OVC:08 50","29.98","0.50","70","190",,"9",,,,,,,,,,,,,,,,,,,,,,,,,,,,,,,,,,,,,"MET16206/11/20 14:48:02 SPECI KJFK 111948Z 19008KT 1/2SM R04R/4500VP6000FT RA BR SCT003 BKN038 OVC050 21/21 A3001 RMK AO2 SFC VIS 4 LTG DSNT NE AND E TSE48 P0013 $ (RR)","FM-16","7",,,,,,,,,,,,,,,,,,,,,,,,,,,,"2009-05-01"
"74486094789","2020-06-11T14:51:00","FM-15","7",,"ESE","1.5","mi","TEMP, PRECIP, SNOW",,,"PSY, SRG, SNOWBOARD",,,"FAA CWO",,,,,,,,,,,,,,,,,,,,,,,,,,,"30.01","69","70","0.13","+RA:02 BR:1 |s RA s |RA s",,,"97","30.01","SCT:04 3 BKN:07 38 OVC:08 50","29.98","0.50","69","190",,"8",,,,,,,,,,,,,,,,,,,,,,,,,,,,,,,,,,,,,"MET18006/11/20 14:51:02 METAR KJFK 111951Z 19007KT 1/2SM R04R/4500VP6000FT +RA BR SCT003 BKN038 OVC050 21/21 A3001 RMK AO2 SFC VIS 4 LTG DSNT NE AND E TSE48 SLP162 P0014 T02110206 $ (RR)","FM-15","7",,,,,,,,,,,,,,,,,,,,,,,,,,,,"2009-05-01"
"74486094789","2020-06-11T15:18:00","FM-16","7",,"ESE","1.5","mi","TEMP, PRECIP, SNOW",,,"PSY, SRG, SNOWBOARD",,,"FAA CWO",,,,,,,,,,,,,,,,,,,,,,,,,,,"30.02","67","68","0.02","-RA:02 BR:1 |RA |RA",,,"96",,"SCT:04 3 BKN:07 16 OVC:08 70","30.00","1.00","67","180","22","13",,,,,,,,,,,,,,,,,,,,,,,,,,,,,,,,,,,,,"MET15006/11/20 15:18:02 SPECI KJFK 112018Z 18011G19KT 1SM R04R/6000VP6000FT -RA BR SCT003 BKN016 OVC070 20/19 A3002 RMK AO2 SFC VIS 5 P0002 T02000194 $ (RR)","FM-16","7",,,,,,,,,,,,,,,,,,,,,,,,,,,,"2009-05-01"
"74486094789","2020-06-11T15:48:00","FM-16","7",,"ESE","1.5","mi","TEMP, PRECIP, SNOW",,,"PSY, SRG, SNOWBOARD",,,"FAA CWO",,,,,,,,,,,,,,,,,,,,,,,,,,,"30.02","66","66","0.02","-RA:02 BR:1 |RA |RA",,,"100",,"BKN:07 3 BKN:07 13 BKN:07 43","30.00","1.00","66","200",,"13",,,,,,,,,,,,,,,,,,,,,,,,,,,,,,,,,,,,,"MET14506/11/20 15:48:02 SPECI KJFK 112048Z 20011KT 1SM R04R/P6000FT -RA BR BKN003 BKN013 BKN043 19/19 A3002 RMK AO2 SFC VIS 5 BKN003 V SCT P0002 $ (RR)","FM-16","7",,,,,,,,,,,,,,,,,,,,,,,,,,,,"2009-05-01"
"74486094789","2020-06-11T15:51:00","FM-15","7",,"ESE","1.5","mi","TEMP, PRECIP, SNOW",,,"PSY, SRG, SNOWBOARD",,,"FAA CWO",,,,,,,,,,,,,,,,,,,,,,,,,,,"30.02","66","67","T","-RA:02 BR:1 |RA |RA","-0.00","3","97","30.01","BKN:07 3 BKN:07 13 BKN:07 43","30.00","1.00","66","190",,"15",,,,,,,,,,,,,,,,,,,,,,,,,,,,,,,,,,,,,"MET17406/11/20 15:51:02 METAR KJFK 112051Z 19013KT 1SM R04R/P6000FT -RA BR BKN003 BKN013 BKN043 19/19 A3002 RMK AO2 SFC VIS 5 SLP164 BKN003 V SCT P0002 60076 T01940189 53001 $ (RR)","FM-15","7",,,,,,,,,,,,,,,,,,,,,,,,,,,,"2009-05-01"
"74486094789","2020-06-11T16:00:00","FM-12","4",,"ESE","1.5","mi","TEMP, PRECIP, SNOW",,,"PSY, SRG, SNOWBOARD",,,"FAA CWO",,,,,,,,,,,,,,,,,,,,,,,,,,,,"66","67",,"||RA","-0.00","3","97","30.01","2","29.99","0.99","66","190",,"15",,,,,,,,,,,,,,,,,,,,,,,,,,,,,,,,,,,,,"SYN08674486 11116 61913 10194 20189 30155 40164 53001 60197 761// 92051 333 96010 555 91121=","FM-12","4",,,,,,,,,,,,,,,,,,,,,,,,,,,,"2009-05-01"
"74486094789","2020-06-11T16:40:00","FM-16","7",,"ESE","1.5","mi","TEMP, PRECIP, SNOW",,,"PSY, SRG, SNOWBOARD",,,"FAA CWO",,,,,,,,,,,,,,,,,,,,,,,,,,,"30.00","70","71","0.01",,,,"96",,"SCT:04 3 SCT:04 16 BKN:07 45","29.98","9.00","70","190",,"9",,,,,,,,,,,,,,,,,,,,,,,,,,,,,,,,,,,,,"MET11806/11/20 16:40:02 SPECI KJFK 112140Z 19008KT 9SM SCT003 SCT016 BKN045 22/21 A3000 RMK AO2 RAE15 P0001 T02170211 $ (RR)","FM-16","7",,,,,,,,,,,,,,,,,,,,,,,,,,,,"2009-05-01"
"74486094789","2020-06-11T16:51:00","FM-15","7",,"ESE","1.5","mi","TEMP, PRECIP, SNOW",,,"PSY, SRG, SNOWBOARD",,,"FAA CWO",,,,,,,,,,,,,,,,,,,,,,,,,,,"30.00","69","70","0.01",,,,"97","30.00","SCT:04 3 SCT:04 16 SCT:04 45","29.98","9.00","69","210",,"10",,,,,,,,,,,,,,,,,,,,,,,,,,,,,,,,,,,,,"MET12506/11/20 16:51:02 METAR KJFK 112151Z 21009KT 9SM SCT003 SCT016 SCT045 21/21 A3000 RMK AO2 RAE15 SLP159 P0001 T02110206 $ (RR)","FM-15","7",,,,,,,,,,,,,,,,,,,,,,,,,,,,"2009-05-01"
"74486094789","2020-06-11T17:16:00","FM-16","7",,"ESE","1.5","mi","TEMP, PRECIP, SNOW",,,"PSY, SRG, SNOWBOARD",,,"FAA CWO",,,,,,,,,,,,,,,,,,,,,,,,,,,"30.02","68","69",,"BR:1 |s |",,,"96",,"OVC:08 4","30.00","0.25","68","180",,"14",,,,,,,,,,,,,,,,,,,,,,,,,,,,,,,,,,,,,"MET12506/11/20 17:16:02 SPECI KJFK 112216Z 18012KT 1/4SM R04R/2600VP6000FT BR OVC004 21/20 A3002 RMK AO2 SFC VIS 4 T02060200 $ (RR)","FM-16","7",,,,,,,,,,,,,,,,,,,,,,,,,,,,"2009-05-01"
"74486094789","2020-06-11T17:49:00","FM-16","7",,"ESE","1.5","mi","TEMP, PRECIP, SNOW",,,"PSY, SRG, SNOWBOARD",,,"FAA CWO",,,,,,,,,,,,,,,,,,,,,,,,,,,"30.02","68","70",,"BR:1 |s |",,,"94",,"X:10 0 OVC:08 2","30.00","0.25","69","180",,"13",,,,,,,,,,,,,,,,,,,,,,,,,,,,,,,,,,,,,"MET13606/11/20 17:49:02 SPECI KJFK 112249Z 18011KT 1/4SM R04R/3500VP6000FT BR BKN000 OVC002 21/20 A3002 RMK AO2 SFC VIS 2 1/2 BR BKN000 $ (RR)","FM-16","7",,,,,,,,,,,,,,,,,,,,,,,,,,,,"2009-05-01"
"74486094789","2020-06-11T17:51:00","FM-15","7",,"ESE","1.5","mi","TEMP, PRECIP, SNOW",,,"PSY, SRG, SNOWBOARD",,,"FAA CWO",,,,,,,,,,,,,,,,,,,,,,,,,,,"30.02","68","68","0.00","BR:1 |s |",,,"100","30.02","X:10 0 OVC:08 2","30.00","0.25","68","180",,"14",,,,,,,,,,,,,,,,,,,,,,,,,,,,,,,,,,,,,"MET15206/11/20 17:51:02 METAR KJFK 112251Z 18012KT 1/4SM R04R/3500V5000FT BR BKN000 OVC002 20/20 A3002 RMK AO2 SFC VIS 2 1/2 SLP165 BR BKN000 T02000200 $ (RR)","FM-15","7",,,,,,,,,,,,,,,,,,,,,,,,,,,,"2009-05-01"
"74486094789","2020-06-11T18:46:00","FM-16","7",,"ESE","1.5","mi","TEMP, PRECIP, SNOW",,,"PSY, SRG, SNOWBOARD",,,"FAA CWO",,,,,,,,,,,,,,,,,,,,,,,,,,,"30.03","66","66",,"BR:1 |s |",,,"100",,"BKN:07 3 BKN:07 250","30.01","0.25","66","200",,"9",,,,,,,,,,,,,,,,,,,,,,,,,,,,,,,,,,,,,"MET11706/11/20 18:46:02 SPECI KJFK 112346Z 20008KT 1/4SM R04R/P6000FT BR BKN003 BKN250 19/19 A3003 RMK AO2 SFC VIS 5 $ (RR)","FM-16","7",,,,,,,,,,,,,,,,,,,,,,,,,,,,"2009-05-01"
"74486094789","2020-06-11T18:51:00","FM-15","7",,"ESE","1.5","mi","TEMP, PRECIP, SNOW",,,"PSY, SRG, SNOWBOARD",,,"FAA CWO",,,,,,,,,,,,,,,,,,,,,,,,,,,"30.03","66","67","0.00","BR:1 |s |","-0.02","3","97","30.03","BKN:07 3 BKN:07 250","30.01","0.25","66","200",,"8",,,,,,,,,,,,,,,,,,,,,,,,,,,,,,,,,,,,,"MET15806/11/20 18:51:02 METAR KJFK 112351Z 20007KT 1/4SM R04R/P6000FT BR BKN003 BKN250 19/19 A3003 RMK AO2 SFC VIS 5 SLP170 60077 T01940189 10217 20183 53006 $ (RR)","FM-15","7",,,,,,,,,,,,,,,,,,,,,,,,,,,,"2009-05-01"
"74486094789","2020-06-11T19:00:00","FM-12","4",,"ESE","1.5","mi","TEMP, PRECIP, SNOW",,,"PSY, SRG, SNOWBOARD",,,"FAA CWO",,,,,,,,,,,,,,,,,,,,,,,,,,,,"66","67",,,"-0.02","3","97","30.03","2","30.00","0.25","66","200",,"8",,,,,,,,,,,,,,,,,,,,,,,,,,,,,,,,,,,,,"SYN09274486 11104 62007 10194 20189 30158 40170 53006 60201 710// 92351 333 10233 20183 555 91200=","FM-12","4",,,,,,,,,,,,,,,,,,,,,,,,,,,,"2009-05-01"
"74486094789","2020-06-11T19:51:00","FM-15","7",,"ESE","1.5","mi","TEMP, PRECIP, SNOW",,,"PSY, SRG, SNOWBOARD",,,"FAA CWO",,,,,,,,,,,,,,,,,,,,,,,,,,,"30.06","65","65","0.00",,,,"100","30.05","BKN:07 3 OVC:08 9","30.03","0.25","65","170",,"9",,,,,,,,,,,,,,,,,,,,,,,,,,,,,,,,,,,,,"MET12606/11/20 19:51:01 METAR KJFK 120051Z 17008KT 1/4SM R04R/P6000FT BKN003 OVC009 18/18 A3006 RMK AO2 SFC VIS 7 SLP177 T01830183 $","FM-15","7",,,,,,,,,,,,,,,,,,,,,,,,,,,,"2009-05-01"
"74486094789","2020-06-11T20:51:00","FM-15","7",,"ESE","1.5","mi","TEMP, PRECIP, SNOW",,,"PSY, SRG, SNOWBOARD",,,"FAA CWO",,,,,,,,,,,,,,,,,,,,,,,,,,,"30.07","64","65","0.00","BR:1 |s |",,,"97","30.07","OVC:08 2","30.04","0.25","64","160",,"3",,,,,,,,,,,,,,,,,,,,,,,,,,,,,,,,,,,,,"MET14106/11/20 20:51:01 METAR KJFK 120151Z 16003KT 1/4SM R04R/4500VP6000FT BR OVC002 18/18 A3007 RMK AO2 SFC VIS 2 1/2 SLP182 VIS LWR E T01830178 $","FM-15","7",,,,,,,,,,,,,,,,,,,,,,,,,,,,"2009-05-01"
"74486094789","2020-06-11T21:51:00","FM-15","7",,"ESE","1.5","mi","TEMP, PRECIP, SNOW",,,"PSY, SRG, SNOWBOARD",,,"FAA CWO",,,,,,,,,,,,,,,,,,,,,,,,,,,"30.08","64","64","0.00","BR:1 |s |","-0.04","1","100","30.07","BKN:07 2 OVC:08 250","30.06","0.25","64","210",,"3",,,,,,,,,,,,,,,,,,,,,,,,,,,,,,,,,,,,,"MET14306/11/20 21:51:01 METAR KJFK 120251Z 21003KT 1/4SM R04R/2400V5000FT BR BKN002 OVC250 18/18 A3008 RMK AO2 SFC VIS 2 1/2 SLP184 T01780178 51014 $","FM-15","7",,,,,,,,,,,,,,,,,,,,,,,,,,,,"2009-05-01"
"74486094789","2020-06-11T22:00:00","FM-12","4",,"ESE","1.5","mi","TEMP, PRECIP, SNOW",,,"PSY, SRG, SNOWBOARD",,,"FAA CWO",,,,,,,,,,,,,,,,,,,,,,,,,,,,"64","64",,,"-0.04","1","100","30.07","2","30.05","0.25","64","210",,"3",,,,,,,,,,,,,,,,,,,,,,,,,,,,,,,,,,,,,"SYN07074486 31104 82103 10178 20178 30175 40184 51014 710// 90251 555 91203=","FM-12","4",,,,,,,,,,,,,,,,,,,,,,,,,,,,"2009-05-01"
"74486094789","2020-06-11T22:41:00","FM-16","7",,"ESE","1.5","mi","TEMP, PRECIP, SNOW",,,"PSY, SRG, SNOWBOARD",,,"FAA CWO",,,,,,,,,,,,,,,,,,,,,,,,,,,"30.07","64","64",,"BR:1 |s |",,,"100",,"BKN:07 2 BKN:07 250","30.04","0.25","64","170",,"6",,,,,,,,,,,,,,,,,,,,,,,,,,,,,,,,,,,,,"MET12606/11/20 22:41:02 SPECI KJFK 120341Z 17005KT 1/4SM R04R/1600V1800FT BR BKN002 BKN250 18/18 A3007 RMK AO2 SFC VIS 2 T01780178 $","FM-16","7",,,,,,,,,,,,,,,,,,,,,,,,,,,,"2009-05-01"
"74486094789","2020-06-11T22:51:00","FM-15","7",,"ESE","1.5","mi","TEMP, PRECIP, SNOW",,,"PSY, SRG, SNOWBOARD",,,"FAA CWO",,,,,,,,,,,,,,,,,,,,,,,,,,,"30.08","63","64","0.00","BR:1 |s |",,,"96","30.08","OVC:08 2","30.06","0.25","63","180",,"5",,,,,,,,,,,,,,,,,,,,,,,,,,,,,,,,,,,,,"MET13006/11/20 22:51:02 METAR KJFK 120351Z 18004KT 1/4SM R04R/1400V1600FT BR OVC002 18/17 A3008 RMK AO2 SFC VIS 1 1/4 SLP185 T01780172 $","FM-15","7",,,,,,,,,,,,,,,,,,,,,,,,,,,,"2009-05-01"
"74486094789","2020-06-11T23:05:00","FM-16","7",,"ESE","1.5","mi","TEMP, PRECIP, SNOW",,,"PSY, SRG, SNOWBOARD",,,"FAA CWO",,,,,,,,,,,,,,,,,,,,,,,,,,,"30.08","64","64",,"FG:2 |FG |",,,"100",,"VV:09 2","30.06","0.25","64","190",,"5",,,,,,,,,,,,,,,,,,,,,,,,,,,,,,,,,,,,,"MET12106/11/20 23:05:02 SPECI KJFK 120405Z 19004KT 1/4SM R04R/1800VP6000FT FG VV002 18/18 A3008 RMK AO2 SFC VIS 1/2 T01780178 $","FM-16","7",,,,,,,,,,,,,,,,,,,,,,,,,,,,"2009-05-01"
"74486094789","2020-06-11T23:51:00","FM-15","7",,"ESE","1.5","mi","TEMP, PRECIP, SNOW",,,"PSY, SRG, SNOWBOARD",,,"FAA CWO",,,,,,,,,,,,,,,,,,,,,,,,,,,"30.07","64","64","0.00","BR:1 |s |",,,"100","30.06","OVC:08 3","30.04","0.25","64","000",,"0",,,,,,,,,,,,,,,,,,,,,,,,,,,,,,,,,,,,,"MET13206/11/20 23:51:02 METAR KJFK 120451Z 00000KT 1/4SM R04R/P6000FT BR OVC003 18/18 A3007 RMK AO2 SFC VIS 4 SLP181 T01780178 402330172 $","FM-15","7",,,,,,,,,,,,,,,,,,,,,,,,,,,,"2009-05-01"
"74486094789","2020-06-11T23:59:00","SOD  ","6",,"ESE","1.5","mi","TEMP, PRECIP, SNOW",,,"PSY, SRG, SNOWBOARD",,,"FAA CWO",,,,"65","69","93","30.01","29.98","66","15.3","4","-0.2","0","74","63","180","34","0.77","0","0.0","190","26","TS RA FG BR",,,,,,,,,,,,,,,,,,,,,,,,,,,,,,,,,,,,,,,,,,,,,,,,,,,,,,,,"SOD75824 HR PRECIPITATION (IN): 0.77 SNOW DEPTH (IN):0     24 HR SNOWFALL (IN):0.0  WEATHER(CODE):123  24 HR MAX TEMP (F): 7424 HR MIN TEMP (F): 63AVERAGE STATION PRESSURE:29.975 MINIMUM SEA LEVEL PRESSURE:29.96 TIME OF OCCURRENCE:0443 PEAK WIND SPEED (MPH): 34 PEAK WIND DIR (DEG):180 PEAK WIND TIME (LST):      FASTEST 2MIN SPEED (MPH): 26FASTEST 2MIN DIR (DEG):190 FASTEST 2MIN TIME (LST):     AVERAGE WIND SPEED (MPH):15.3 24 HR AVG TEMP (F): 69DEPART FROM NORMAL:  0  HEATING DEGREE DAYS:  0 COOLING DEGREE DAYS:  4 LATEST DAY MAX TEMP (0700-1900 LST):74  LATEST NIGHT MIN TEMP(1900-0800 LST):66 HOURLY INCREMENTAL PRECIPITATION VALUES (IN):.00 T    0.00 0.00 0.00 0.00 0.00 0.00 0.00 0.00 0.00 0.00 T    0.63 0.13 T    0.01 0.00 0.00 0.00 0.00 0.00 0.00 0.00","SOD  ","6",,,,,,,,,,,,,,,,,,,,,,,,,"0424","1926",,"2009-05-01"
"74486094789","2020-06-12T00:51:00","FM-15","7",,"ESE","1.5","mi","TEMP, PRECIP, SNOW",,,"PSY, SRG, SNOWBOARD",,,"FAA CWO",,,,,,,,,,,,,,,,,,,,,,,,,,,"30.06","67","68","0.00","BR:1 |s |","+0.02","8","96","30.06","OVC:08 4","30.03","0.25","67","190",,"8",,,,,,,,,,,,,,,,,,,,,,,,,,,,,,,,,,,,,"MET14506/12/20 00:51:02 METAR KJFK 120551Z 19007KT 1/4SM R04R/P6000FT BR OVC004 20/19 A3006 RMK AO2 SFC VIS 5 SLP179 T02000194 10200 20172 58006 $ (JC)","FM-15","7",,,,,,,,,,,,,,,,,,,,,,,,,,,,"2009-05-01"
"74486094789","2020-06-12T01:00:00","FM-12","4",,"ESE","1.5","mi","TEMP, PRECIP, SNOW",,,"PSY, SRG, SNOWBOARD",,,"FAA CWO",,,,,,,,,,,,,,,,,,,,,,,,,,,,"67","68",,,"+0.02","8","96","30.06","5","30.03","0.25","67","190",,"8",,,,,,,,,,,,,,,,,,,,,,,,,,,,,,,,,,,,,"SYN08674486 31204 81907 10200 20194 30168 40179 58006 710// 90551 333 10200 20172 555 91206=","FM-12","4",,,,,,,,,,,,,,,,,,,,,,,,,,,,"2009-05-01"
"74486094789","2020-06-12T01:32:00","FM-16","7",,"ESE","1.5","mi","TEMP, PRECIP, SNOW",,,"PSY, SRG, SNOWBOARD",,,"FAA CWO",,,,,,,,,,,,,,,,,,,,,,,,,,,"30.06","65","65",,"BR:1 |s |",,,"100",,"OVC:08 2","30.03","0.25","65","200",,"6",,,,,,,,,,,,,,,,,,,,,,,,,,,,,,,,,,,,,"MET12606/12/20 01:32:02 SPECI KJFK 120632Z 20005KT 1/4SM R04R/1800V2000FT BR OVC002 18/18 A3006 RMK AO2 SFC VIS 3/4 T01830183 $ (JC)","FM-16","7",,,,,,,,,,,,,,,,,,,,,,,,,,,,"2009-05-01"
"74486094789","2020-06-12T01:51:00","FM-15","7",,"ESE","1.5","mi","TEMP, PRECIP, SNOW",,,"PSY, SRG, SNOWBOARD",,,"FAA CWO",,,,,,,,,,,,,,,,,,,,,,,,,,,"30.06","66","66","0.00","FG:2 |FG |",,,"100","30.06","VV:09 2","30.03","0.25","66","190",,"7",,,,,,,,,,,,,,,,,,,,,,,,,,,,,,,,,,,,,"MET13206/12/20 01:51:02 METAR KJFK 120651Z 19006KT 1/4SM R04R/1800V2400FT FG VV002 19/19 A3006 RMK AO2 SFC VIS 1/2 SLP178 T01890189 $ (JC)","FM-15","7",,,,,,,,,,,,,,,,,,,,,,,,,,,,"2009-05-01"
"74486094789","2020-06-12T02:51:00","FM-15","7",,"ESE","1.5","mi","TEMP, PRECIP, SNOW",,,"PSY, SRG, SNOWBOARD",,,"FAA CWO",,,,,,,,,,,,,,,,,,,,,,,,,,,"30.06","65","65","0.00","FG:2 |FG |",,,"100","30.06","VV:09 2","30.03","0.25","65","180",,"6",,,,,,,,,,,,,,,,,,,,,,,,,,,,,,,,,,,,,"MET13206/12/20 02:51:02 METAR KJFK 120751Z 18005KT 1/4SM R04R/1600V2400FT FG VV002 18/18 A3006 RMK AO2 SFC VIS 1/2 SLP179 T01830183 $ (JC)","FM-15","7",,,,,,,,,,,,,,,,,,,,,,,,,,,,"2009-05-01"
"74486094789","2020-06-12T02:59:00","FM-16","7",,"ESE","1.5","mi","TEMP, PRECIP, SNOW",,,"PSY, SRG, SNOWBOARD",,,"FAA CWO",,,,,,,,,,,,,,,,,,,,,,,,,,,"30.06","65","65",,"FG:2 |FG |",,,"100",,"VV:09 2","30.03","0.25","65","180",,"6",,,,,,,,,,,,,,,,,,,,,,,,,,,,,,,,,,,,,"MET11306/12/20 02:59:02 SPECI KJFK 120759Z 18005KT 1/4SM R04R/1200V1800FT FG VV002 18/18 A3006 RMK AO2 T01830183 $ (JC)","FM-16","7",,,,,,,,,,,,,,,,,,,,,,,,,,,,"2009-05-01"
"74486094789","2020-06-12T03:51:00","FM-15","7",,"ESE","1.5","mi","TEMP, PRECIP, SNOW",,,"PSY, SRG, SNOWBOARD",,,"FAA CWO",,,,,,,,,,,,,,,,,,,,,,,,,,,"30.06","65","65","0.00","FG:2 |FG |","-0.01","3","100","30.06","VV:09 2","30.03","0.25","65","000",,"0",,,,,,,,,,,,,,,,,,,,,,,,,,,,,,,,,,,,,"MET12106/12/20 03:51:02 METAR KJFK 120851Z 00000KT 1/4SM R04R/0800FT FG VV002 18/18 A3006 RMK AO2 SLP180 T01830183 53002 $ (JC)","FM-15","7",,,,,,,,,,,,,,,,,,,,,,,,,,,,"2009-05-01"
"74486094789","2020-06-12T04:00:00","FM-12","4",,"ESE","1.5","mi","TEMP, PRECIP, SNOW",,,"PSY, SRG, SNOWBOARD",,,"FAA CWO",,,,,,,,,,,,,,,,,,,,,,,,,,,,"65","65",,"||FG","-0.01","3","100","30.06","2","30.03","0.25","65","000",,"0",,,,,,,,,,,,,,,,,,,,,,,,,,,,,,,,,,,,,"SYN07074486 31104 90000 10183 20183 30168 40180 53002 741// 90851 555 91209=","FM-12","4",,,,,,,,,,,,,,,,,,,,,,,,,,,,"2009-05-01"
"74486094789","2020-06-12T04:36:00","FM-16","7",,"ESE","1.5","mi","TEMP, PRECIP, SNOW",,,"PSY, SRG, SNOWBOARD",,,"FAA CWO",,,,,,,,,,,,,,,,,,,,,,,,,,,"30.07","66","66",,"FG:2 |FG |",,,"100",,"VV:09 2","30.04","0.00","66","000",,"0",,,,,,,,,,,,,,,,,,,,,,,,,,,,,,,,,,,,,"MET12606/12/20 04:36:02 SPECI KJFK 120936Z 00000KT M1/4SM R04R/0700V1000FT FG VV002 19/19 A3007 RMK AO2 TWR VIS 1/4 T01890189 $ (JC)","FM-16","7",,,,,,,,,,,,,,,,,,,,,,,,,,,,"2009-05-01"
"74486094789","2020-06-12T04:49:00","FM-16","6",,"ESE","1.5","mi","TEMP, PRECIP, SNOW",,,"PSY, SRG, SNOWBOARD",,,"FAA CWO",,,,,,,,,,,,,,,,,,,,,,,,,,,"30.08","66","66",,"FG:2 |FG |",,,"100",,"VV:09 2","30.06","0.25","66","000",,"0",,,,,,,,,,,,,,,,,,,,,,,,,,,,,,,,,,,,,"MET10806/12/20 04:49:02 SPECI KJFK 120949Z 00000KT 1/4SM R04R/0500V0600FT FG VV002 19/19 A3008 RMK AO2 $ FIBI (JC)","FM-16","6",,,,,,,,,,,,,,,,,,,,,,,,,,,,"2009-05-01"
"74486094789","2020-06-12T04:51:00","FM-15","7",,"ESE","1.5","mi","TEMP, PRECIP, SNOW",,,"PSY, SRG, SNOWBOARD",,,"FAA CWO",,,,,,,,,,,,,,,,,,,,,,,,,,,"30.08","66","66","0.00","FG:2 |FG |",,,"100","30.07","VV:09 2","30.06","0.25","66","300",,"3",,,,,,,,,,,,,,,,,,,,,,,,,,,,,,,,,,,,,"MET12006/12/20 04:51:02 METAR KJFK 120951Z 30003KT 1/4SM R04R/0400V0600FT FG VV002 19/19 A3008 RMK AO2 SLP184 T01890189 $ (JC)","FM-15","7",,,,,,,,,,,,,,,,,,,,,,,,,,,,"2009-05-01"
"74486094789","2020-06-12T05:12:00","FM-16","7",,"ESE","1.5","mi","TEMP, PRECIP, SNOW",,,"PSY, SRG, SNOWBOARD",,,"FAA CWO",,,,,,,,,,,,,,,,,,,,,,,,,,,"30.08","66","66",,,,,"100",,"X:10 0 SCT:04 2 BKN:07 85","30.06","5.00","66","320",,"5",,,,,,,,,,,,,,,,,,,,,,,,,,,,,,,,,,,,,"MET15506/12/20 05:12:02 SPECI KJFK 121012Z 32004KT 5SM R04R/0500V0700FT BR SCT000 SCT002 BKN085 19/19 A3008 RMK AO2 VIS E-S 1 SW-W 1/2 BR SCT000 T01890189 $ (BH)","FM-16","7",,,,,,,,,,,,,,,,,,,,,,,,,,,,"2009-05-01"
"74486094789","2020-06-12T05:28:00","FM-16","7",,"ESE","1.5","mi","TEMP, PRECIP, SNOW",,,"PSY, SRG, SNOWBOARD",,,"FAA CWO",,,,,,,,,,,,,,,,,,,,,,,,,,,"30.09","66","66",,"VCFG:2 ||FG s",,,"100",,"FEW:02 2 SCT:04 85 BKN:07 250","30.06","10.00","66","000",,"0",,,,,,,,,,,,,,,,,,,,,,,,,,,,,,,,,,,,,"MET13706/12/20 05:28:02 SPECI KJFK 121028Z 00000KT 10SM R04R/0800V4000FT VCFG FEW002 SCT085 BKN250 19/19 A3009 RMK AO2 VCFG SE-S T01890189 (BH)","FM-16","7",,,,,,,,,,,,,,,,,,,,,,,,,,,,"2009-05-01"
"74486094789","2020-06-12T05:51:00","FM-15","7",,"ESE","1.5","mi","TEMP, PRECIP, SNOW",,,"PSY, SRG, SNOWBOARD",,,"FAA CWO",,,,,,,,,,,,,,,,,,,,,,,,,,,"30.10","68","68","0.00","VCFG:2 ||FG s",,,"100","30.09","FEW:02 2 FEW:02 85 BKN:07 250","30.08","10.00","68","340",,"3",,,,,,,,,,,,,,,,,,,,,,,,,,,,,,,,,,,,,"MET12506/12/20 05:51:02 METAR KJFK 121051Z 34003KT 10SM VCFG FEW002 FEW085 BKN250 20/20 A3010 RMK AO2 SLP191 VCFG SE T02000200 (BH)","FM-15","7",,,,,,,,,,,,,,,,,,,,,,,,,,,,"2009-05-01"
"74486094789","2020-06-12T06:51:00","FM-15","7",,"ESE","1.5","mi","TEMP, PRECIP, SNOW",,,"PSY, SRG, SNOWBOARD",,,"FAA CWO",,,,,,,,,,,,,,,,,,,,,,,,,,,"30.10","65","72","0.00",,"-0.04","1","79","30.10","FEW:02 13 FEW:02 70 SCT:04 250","30.08","10.00","68","340",,"11",,,,,,,,,,,,,,,,,,,,,,,,,,,,,,,,,,,,,"MET13606/12/20 06:51:02 METAR KJFK 121151Z 34010KT 10SM FEW013 FEW070 SCT250 22/18 A3010 RMK AO2 SLP192 70077 T02220183 10222 20183 51012 (BH)","FM-15","7",,,,,,,,,,,,,,,,,,,,,,,,,,,,"2009-05-01"
"74486094789","2020-06-12T07:00:00","FM-12","4",,"ESE","1.5","mi","TEMP, PRECIP, SNOW",,,"PSY, SRG, SNOWBOARD",,,"FAA CWO",,,,,,,,,,,,,,,,,,,,,,,,,,,,"65","72",,,"-0.04","1","79","30.10","15","30.07","9.94","68","340",,"11",,,,,,,,,,,,,,,,,,,,,,,,,,,,,,,,,,,,,"SYN08674486 32466 43410 10222 20183 30182 40192 51012 91151 333 10233 20172 70196 555 91212=","FM-12","4",,,,,,,,,,,,,,,,,,,,,,,,,,,,"2009-05-01"
"74486094789","2020-06-12T07:51:00","FM-15","7",,"ESE","1.5","mi","TEMP, PRECIP, SNOW",,,"PSY, SRG, SNOWBOARD",,,"FAA CWO",,,,,,,,,,,,,,,,,,,,,,,,,,,"30.10","58","75","0.00",,,,"55","30.10","FEW:02 32 FEW:02 75 SCT:04 250","30.08","10.00","65","350",,"14",,,,,,,,,,,,,,,,,,,,,,,,,,,,,,,,,,,,,"MET11206/12/20 07:51:02 METAR KJFK 121251Z 35012KT 10SM FEW032 FEW075 SCT250 24/14 A3010 RMK AO2 SLP194 T02390144 (BH)","FM-15","7",,,,,,,,,,,,,,,,,,,,,,,,,,,,"2009-05-01"
"74486094789","2020-06-12T08:51:00","FM-15","7",,"ESE","1.5","mi","TEMP, PRECIP, SNOW",,,"PSY, SRG, SNOWBOARD",,,"FAA CWO",,,,,,,,,,,,,,,,,,,,,,,,,,,"30.10","55","79","0.00",,,,"44","30.09","FEW:02 250","30.08","10.00","65","320",,"8",,,,,,,,,,,,,,,,,,,,,,,,,,,,,,,,,,,,,"MET09806/12/20 08:51:02 METAR KJFK 121351Z 32007KT 10SM FEW250 26/13 A3010 RMK AO2 SLP191 T02610128 (BH)","FM-15","7",,,,,,,,,,,,,,,,,,,,,,,,,,,,"2009-05-01"
"74486094789","2020-06-12T09:51:00","FM-15","7",,"ESE","1.5","mi","TEMP, PRECIP, SNOW",,,"PSY, SRG, SNOWBOARD",,,"FAA CWO",,,,,,,,,,,,,,,,,,,,,,,,,,,"30.09","53","81","0.00",,"+0.01","8","38","30.09","FEW:02 250","30.06","10.00","64","290",,"10",,,,,,,,,,,,,,,,,,,,,,,,,,,,,,,,,,,,,"MET10406/12/20 09:51:02 METAR KJFK 121451Z 29009KT 10SM FEW250 27/12 A3009 RMK AO2 SLP190 T02720117 58002 (BH)","FM-15","7",,,,,,,,,,,,,,,,,,,,,,,,,,,,"2009-05-01"
"74486094789","2020-06-12T10:00:00","FM-12","4",,"ESE","1.5","mi","TEMP, PRECIP, SNOW",,,"PSY, SRG, SNOWBOARD",,,"FAA CWO",,,,,,,,,,,,,,,,,,,,,,,,,,,,"53","81",,,"+0.01","8","38","30.09",,"30.06","9.94","64","290",,"10",,,,,,,,,,,,,,,,,,,,,,,,,,,,,,,,,,,,,"SYN06474486 32966 22909 10272 20117 30178 40190 58002 91451 555 91215=","FM-12","4",,,,,,,,,,,,,,,,,,,,,,,,,,,,"2009-05-01"
"74486094789","2020-06-12T10:51:00","FM-15","7",,"ESE","1.5","mi","TEMP, PRECIP, SNOW",,,"PSY, SRG, SNOWBOARD",,,"FAA CWO",,,,,,,,,,,,,,,,,,,,,,,,,,,"30.08","55","81","0.00",,,,"41","30.08","FEW:02 60 FEW:02 250","30.06","10.00","65","200",,"9",,,,,,,,,,,,,,,,,,,,,,,,,,,,,,,,,,,,,"MET10506/12/20 10:51:02 METAR KJFK 121551Z 20008KT 10SM FEW060 FEW250 27/13 A3008 RMK AO2 SLP185 T02720128 (BH)","FM-15","7",,,,,,,,,,,,,,,,,,,,,,,,,,,,"2009-05-01"
"74486094789","2020-06-12T11:51:00","FM-15","7",,"ESE","1.5","mi","TEMP, PRECIP, SNOW",,,"PSY, SRG, SNOWBOARD",,,"FAA CWO",,,,,,,,,,,,,,,,,,,,,,,,,,,"30.07","54","81","0.00",,,,"39","30.07","FEW:02 60 FEW:02 250","30.04","10.00","65","210",,"13",,,,,,,,,,,,,,,,,,,,,,,,,,,,,,,,,,,,,"MET10506/12/20 11:51:02 METAR KJFK 121651Z 21011KT 10SM FEW060 FEW250 27/12 A3007 RMK AO2 SLP182 T02720122 (BH)","FM-15","7",,,,,,,,,,,,,,,,,,,,,,,,,,,,"2009-05-01"
"74486094789","2020-06-12T12:51:00","FM-15","7",,"ESE","1.5","mi","TEMP, PRECIP, SNOW",,,"PSY, SRG, SNOWBOARD",,,"FAA CWO",,,,,,,,,,,,,,,,,,,,,,,,,,,"30.06","52","82","0.00",,"+0.04","8","35","30.05","FEW:02 60 FEW:02 250","30.03","10.00","64","230",,"14",,,,,,,,,,,,,,,,,,,,,,,,,,,,,,,,,,,,,"MET12306/12/20 12:51:02 METAR KJFK 121751Z 23012KT 10SM FEW060 FEW250 28/11 A3006 RMK AO2 SLP177 T02780111 10283 20222 58013 (BH)","FM-15","7",,,,,,,,,,,,,,,,,,,,,,,,,,,,"2009-05-01"
"74486094789","2020-06-12T13:00:00","FM-12","4",,"ESE","1.5","mi","TEMP, PRECIP, SNOW",,,"PSY, SRG, SNOWBOARD",,,"FAA CWO",,,,,,,,,,,,,,,,,,,,,,,,,,,,"52","82",,,"+0.04","8","35","30.05","57","30.03","9.94","64","230",,"14",,,,,,,,,,,,,,,,,,,,,,,,,,,,,,,,,,,,,"SYN08074486 32766 22312 10278 20111 30168 40177 58013 91751 333 10283 20183 555 91218=","FM-12","4",,,,,,,,,,,,,,,,,,,,,,,,,,,,"2009-05-01"
"74486094789","2020-06-12T13:51:00","FM-15","7",,"ESE","1.5","mi","TEMP, PRECIP, SNOW",,,"PSY, SRG, SNOWBOARD",,,"FAA CWO",,,,,,,,,,,,,,,,,,,,,,,,,,,"30.04","58","80","0.00",,,,"47","30.04","FEW:02 65 FEW:02 250","30.01","10.00","66","190",,"16",,,,,,,,,,,,,,,,,,,,,,,,,,,,,,,,,,,,,"MET10506/12/20 13:51:02 METAR KJFK 121851Z 19014KT 10SM FEW065 FEW250 27/14 A3004 RMK AO2 SLP173 T02670144 (RR)","FM-15","7",,,,,,,,,,,,,,,,,,,,,,,,,,,,"2009-05-01"
"74486094789","2020-06-12T14:51:00","FM-15","7",,"ESE","1.5","mi","TEMP, PRECIP, SNOW",,,"PSY, SRG, SNOWBOARD",,,"FAA CWO",,,,,,,,,,,,,,,,,,,,,,,,,,,"30.03","56","79","0.00",,,,"45","30.03","SCT:04 80 SCT:04 250","30.01","10.00","65","190",,"16",,,,,,,,,,,,,,,,,,,,,,,,,,,,,,,,,,,,,"MET10506/12/20 14:51:02 METAR KJFK 121951Z 19014KT 10SM SCT080 SCT250 26/13 A3003 RMK AO2 SLP170 T02610133 (RR)","FM-15","7",,,,,,,,,,,,,,,,,,,,,,,,,,,,"2009-05-01"
"74486094789","2020-06-12T15:51:00","FM-15","7",,"ESE","1.5","mi","TEMP, PRECIP, SNOW",,,"PSY, SRG, SNOWBOARD",,,"FAA CWO",,,,,,,,,,,,,,,,,,,,,,,,,,,"30.03","58","76","0.00",,"+0.03","6","54","30.03","SCT:04 85 SCT:04 250","30.01","10.00","65","190",,"13",,,,,,,,,,,,,,,,,,,,,,,,,,,,,,,,,,,,,"MET11106/12/20 15:51:02 METAR KJFK 122051Z 19011KT 10SM SCT085 SCT250 24/14 A3003 RMK AO2 SLP168 T02440144 56009 (RR)","FM-15","7",,,,,,,,,,,,,,,,,,,,,,,,,,,,"2009-05-01"
"74486094789","2020-06-12T16:00:00","FM-12","4",,"ESE","1.5","mi","TEMP, PRECIP, SNOW",,,"PSY, SRG, SNOWBOARD",,,"FAA CWO",,,,,,,,,,,,,,,,,,,,,,,,,,,,"58","76",,,"+0.03","6","54","30.03",,"30.00","9.94","65","190",,"13",,,,,,,,,,,,,,,,,,,,,,,,,,,,,,,,,,,,,"SYN06474486 32966 41911 10244 20144 30158 40168 56009 92051 555 91221=","FM-12","4",,,,,,,,,,,,,,,,,,,,,,,,,,,,"2009-05-01"
"74486094789","2020-06-12T16:51:00","FM-15","7",,"ESE","1.5","mi","TEMP, PRECIP, SNOW",,,"PSY, SRG, SNOWBOARD",,,"FAA CWO",,,,,,,,,,,,,,,,,,,,,,,,,,,"30.01","57","74","0.00",,,,"56","30.01","SCT:04 85 SCT:04 250","29.98","10.00","64","190",,"16",,,,,,,,,,,,,,,,,,,,,,,,,,,,,,,,,,,,,"MET10506/12/20 16:51:02 METAR KJFK 122151Z 19014KT 10SM SCT085 SCT250 23/14 A3001 RMK AO2 SLP163 T02330139 (RR)","FM-15","7",,,,,,,,,,,,,,,,,,,,,,,,,,,,"2009-05-01"
"74486094789","2020-06-12T17:51:00","FM-15","7",,"ESE","1.5","mi","TEMP, PRECIP, SNOW",,,"PSY, SRG, SNOWBOARD",,,"FAA CWO",,,,,,,,,,,,,,,,,,,,,,,,,,,"30.01","59","71","0.00",,,,"66","30.01","SCT:04 85 SCT:04 250","29.98","10.00","64","190",,"15",,,,,,,,,,,,,,,,,,,,,,,,,,,,,,,,,,,,,"MET10506/12/20 17:51:02 METAR KJFK 122251Z 19013KT 10SM SCT085 SCT250 22/15 A3001 RMK AO2 SLP163 T02170150 (RR)","FM-15","7",,,,,,,,,,,,,,,,,,,,,,,,,,,,"2009-05-01"
"74486094789","2020-06-12T18:51:00","FM-15","7",,"ESE","1.5","mi","TEMP, PRECIP, SNOW",,,"PSY, SRG, SNOWBOARD",,,"FAA CWO",,,,,,,,,,,,,,,,,,,,,,,,,,,"30.02","59","69","0.00",,"+0.01","5","70","30.02","SCT:04 85 SCT:04 250","30.00","10.00","63","190",,"10",,,,,,,,,,,,,,,,,,,,,,,,,,,,,,,,,,,,,"MET12306/12/20 18:51:02 METAR KJFK 122351Z 19009KT 10SM SCT085 SCT250 21/15 A3002 RMK AO2 SLP166 T02060150 10283 20206 55002 (RR)","FM-15","7",,,,,,,,,,,,,,,,,,,,,,,,,,,,"2009-05-01"
"74486094789","2020-06-12T19:00:00","FM-12","4",,"ESE","1.5","mi","TEMP, PRECIP, SNOW",,,"PSY, SRG, SNOWBOARD",,,"FAA CWO",,,,,,,,,,,,,,,,,,,,,,,,,,,,"59","69",,,"+0.01","5","70","30.02",,"29.99","9.94","63","190",,"10",,,,,,,,,,,,,,,,,,,,,,,,,,,,,,,,,,,,,"SYN08074486 32966 41909 10206 20150 30155 40166 55002 92351 333 10283 20183 555 91300=","FM-12","4",,,,,,,,,,,,,,,,,,,,,,,,,,,,"2009-05-01"
"74486094789","2020-06-12T19:51:00","FM-15","7",,"ESE","1.5","mi","TEMP, PRECIP, SNOW",,,"PSY, SRG, SNOWBOARD",,,"FAA CWO",,,,,,,,,,,,,,,,,,,,,,,,,,,"30.03","59","68","0.00",,,,"73","30.03","FEW:02 85 SCT:04 100 SCT:04 250","30.01","10.00","63","000",,"0",,,,,,,,,,,,,,,,,,,,,,,,,,,,,,,,,,,,,"MET10706/12/20 19:51:01 METAR KJFK 130051Z 00000KT 10SM FEW085 SCT100 SCT250 20/15 A3003 RMK AO2 SLP169 T02000150","FM-15","7",,,,,,,,,,,,,,,,,,,,,,,,,,,,"2009-05-01"
"74486094789","2020-06-12T20:51:00","FM-15","7",,"ESE","1.5","mi","TEMP, PRECIP, SNOW",,,"PSY, SRG, SNOWBOARD",,,"FAA CWO",,,,,,,,,,,,,,,,,,,,,,,,,,,"30.05","59","68","0.00",,,,"73","30.04","SCT:04 90 SCT:04 250","30.03","10.00","63","000",,"0",,,,,,,,,,,,,,,,,,,,,,,,,,,,,,,,,,,,,"MET10006/12/20 20:51:01 METAR KJFK 130151Z 00000KT 10SM SCT090 SCT250 20/15 A3005 RMK AO2 SLP174 T02000150","FM-15","7",,,,,,,,,,,,,,,,,,,,,,,,,,,,"2009-05-01"
"74486094789","2020-06-12T21:51:00","FM-15","7",,"ESE","1.5","mi","TEMP, PRECIP, SNOW",,,"PSY, SRG, SNOWBOARD",,,"FAA CWO",,,,,,,,,,,,,,,,,,,,,,,,,,,"30.05","56","73","0.00",,"-0.03","1","55","30.05","BKN:07 85 BKN:07 110","30.03","10.00","63","350",,"7",,,,,,,,,,,,,,,,,,,,,,,,,,,,,,,,,,,,,"MET10606/12/20 21:51:01 METAR KJFK 130251Z 35006KT 10SM BKN085 BKN110 23/13 A3005 RMK AO2 SLP175 T02280133 51009","FM-15","7",,,,,,,,,,,,,,,,,,,,,,,,,,,,"2009-05-01"
"74486094789","2020-06-12T22:00:00","FM-12","4",,"ESE","1.5","mi","TEMP, PRECIP, SNOW",,,"PSY, SRG, SNOWBOARD",,,"FAA CWO",,,,,,,,,,,,,,,,,,,,,,,,,,,,"56","73",,,"-0.03","1","55","30.05",,"30.02","9.94","63","350",,"7",,,,,,,,,,,,,,,,,,,,,,,,,,,,,,,,,,,,,"SYN06474486 32966 63506 10228 20133 30165 40175 51009 90251 555 91303=","FM-12","4",,,,,,,,,,,,,,,,,,,,,,,,,,,,"2009-05-01"
"74486094789","2020-06-12T22:51:00","FM-15","7",,"ESE","1.5","mi","TEMP, PRECIP, SNOW",,,"PSY, SRG, SNOWBOARD",,,"FAA CWO",,,,,,,,,,,,,,,,,,,,,,,,,,,"30.05","51","73","0.00",,,,"46","30.04","FEW:02 70 SCT:04 85 SCT:04 110","30.03","10.00","60","350",,"10",,,,,,,,,,,,,,,,,,,,,,,,,,,,,,,,,,,,,"MET10706/12/20 22:51:02 METAR KJFK 130351Z 35009KT 10SM FEW070 SCT085 SCT110 23/11 A3005 RMK AO2 SLP174 T02280106","FM-15","7",,,,,,,,,,,,,,,,,,,,,,,,,,,,"2009-05-01"
"74486094789","2020-06-12T23:51:00","FM-15","7",,"ESE","1.5","mi","TEMP, PRECIP, SNOW",,,"PSY, SRG, SNOWBOARD",,,"FAA CWO",,,,,,,,,,,,,,,,,,,,,,,,,,,"30.05","48","73","0.00",,,,"41","30.05","FEW:02 70 SCT:04 85 SCT:04 100","30.03","10.00","59","350",,"14",,,,,,,,,,,,,,,,,,,,,,,,,,,,,,,,,,,,,"MET11706/12/20 23:51:02 METAR KJFK 130451Z 35012KT 10SM FEW070 SCT085 SCT100 23/09 A3005 RMK AO2 SLP177 T02280089 402830183","FM-15","7",,,,,,,,,,,,,,,,,,,,,,,,,,,,"2009-05-01"
"74486094789","2020-06-12T23:59:00","SOD  ","6",,"ESE","1.5","mi","TEMP, PRECIP, SNOW",,,"PSY, SRG, SNOWBOARD",,,"FAA CWO",,,,"59","74","63","30.06","30.03","65","9.3","9","4.5","0","83","65","190","22","0.00","0","0.0","200","20","FG BR",,,,,,,,,,,,,,,,,,,,,,,,,,,,,,,,,,,,,,,,,,,,,,,,,,,,,,,,"SOD75824 HR PRECIPITATION (IN): 0.00 SNOW DEPTH (IN):0     24 HR SNOWFALL (IN):0.0  WEATHER(CODE):128  24 HR MAX TEMP (F): 8324 HR MIN TEMP (F): 65AVERAGE STATION PRESSURE:30.030 MINIMUM SEA LEVEL PRESSURE:30.01 TIME OF OCCURRENCE:1821 PEAK WIND SPEED (MPH): 22 PEAK WIND DIR (DEG):190 PEAK WIND TIME (LST):      FASTEST 2MIN SPEED (MPH): 20FASTEST 2MIN DIR (DEG):200 FASTEST 2MIN TIME (LST):     AVERAGE WIND SPEED (MPH): 9.3 24 HR AVG TEMP (F): 74DEPART FROM NORMAL:  4  HEATING DEGREE DAYS:  0 COOLING DEGREE DAYS:  9 LATEST DAY MAX TEMP (0700-1900 LST):83  LATEST NIGHT MIN TEMP(1900-0800 LST):63 HOURLY INCREMENTAL PRECIPITATION VALUES (IN):.00 0.00 0.00 0.00 0.00 0.00 0.00 0.00 0.00 0.00 0.00 0.00 0.00 0.00 0.00 0.00 0.00 0.00 0.00 0.00 0.00 0.00 0.00 0.00","SOD  ","6",,,,,,,,,,,,,,,,,,,,,,,,,"0423","1927",,"2009-05-01"
"74486094789","2020-06-13T00:51:00","FM-15","7",,"ESE","1.5","mi","TEMP, PRECIP, SNOW",,,"PSY, SRG, SNOWBOARD",,,"FAA CWO",,,,,,,,,,,,,,,,,,,,,,,,,,,"30.08","51","69","0.00",,"-0.04","3","53","30.08","BKN:07 70 BKN:07 90","30.06","10.00","59","360","23","16",,,,,,,,,,,,,,,,,,,,,,,,,,,,,,,,,,,,,"MET12606/13/20 00:51:02 METAR KJFK 130551Z 36014G20KT 10SM BKN070 BKN090 21/11 A3008 RMK AO2 SLP186 T02060106 10233 20194 53012 (DM)","FM-15","7",,,,,,,,,,,,,,,,,,,,,,,,,,,,"2009-05-01"
"74486094789","2020-06-13T01:00:00","FM-12","4",,"ESE","1.5","mi","TEMP, PRECIP, SNOW",,,"PSY, SRG, SNOWBOARD",,,"FAA CWO",,,,,,,,,,,,,,,,,,,,,,,,,,,,"51","69",,,"-0.04","3","53","30.08","74","30.05","9.94","59","360",,"16",,,,,,,,,,,,,,,,,,,,,,,,,,,,,,,,,,,,,"SYN08674486 32866 63614 10206 20106 30175 40186 53012 90551 333 10233 20183 91020 555 91306=","FM-12","4",,,,,,,,,,,,,,,,,,,,,,,,,,,,"2009-05-01"
"74486094789","2020-06-13T01:51:00","FM-15","7",,"ESE","1.5","mi","TEMP, PRECIP, SNOW",,,"PSY, SRG, SNOWBOARD",,,"FAA CWO",,,,,,,,,,,,,,,,,,,,,,,,,,,"30.10","49","66","0.00",,,,"54","30.10","SCT:04 70 SCT:04 90","30.08","10.00","57","360",,"10",,,,,,,,,,,,,,,,,,,,,,,,,,,,,,,,,,,,,"MET10506/13/20 01:51:02 METAR KJFK 130651Z 36009KT 10SM SCT070 SCT090 19/09 A3010 RMK AO2 SLP192 T01890094 (DM)","FM-15","7",,,,,,,,,,,,,,,,,,,,,,,,,,,,"2009-05-01"
"74486094789","2020-06-13T02:51:00","FM-15","7",,"ESE","1.5","mi","TEMP, PRECIP, SNOW",,,"PSY, SRG, SNOWBOARD",,,"FAA CWO",,,,,,,,,,,,,,,,,,,,,,,,,,,"30.11","47","64","0.00",,,,"54","30.11","FEW:02 70 FEW:02 90","30.09","10.00","55","360",,"17",,,,,,,,,,,,,,,,,,,,,,,,,,,,,,,,,,,,,"MET10506/13/20 02:51:02 METAR KJFK 130751Z 36015KT 10SM FEW070 FEW090 18/08 A3011 RMK AO2 SLP197 T01780083 (DM)","FM-15","7",,,,,,,,,,,,,,,,,,,,,,,,,,,,"2009-05-01"
"74486094789","2020-06-13T03:51:00","FM-15","7",,"ESE","1.5","mi","TEMP, PRECIP, SNOW",,,"PSY, SRG, SNOWBOARD",,,"FAA CWO",,,,,,,,,,,,,,,,,,,,,,,,,,,"30.13","46","62","0.00",,"-0.05","1","56","30.13","FEW:02 70 FEW:02 90","30.11","10.00","54","360",,"13",,,,,,,,,,,,,,,,,,,,,,,,,,,,,,,,,,,,,"MET11106/13/20 03:51:02 METAR KJFK 130851Z 36011KT 10SM FEW070 FEW090 17/08 A3013 RMK AO2 SLP202 T01670078 51016 (DM)","FM-15","7",,,,,,,,,,,,,,,,,,,,,,,,,,,,"2009-05-01"
"74486094789","2020-06-13T04:00:00","FM-12","4",,"ESE","1.5","mi","TEMP, PRECIP, SNOW",,,"PSY, SRG, SNOWBOARD",,,"FAA CWO",,,,,,,,,,,,,,,,,,,,,,,,,,,,"46","62",,,"-0.05","1","56","30.13","74","30.10","9.94","54","360",,"13",,,,,,,,,,,,,,,,,,,,,,,,,,,,,,,,,,,,,"SYN06474486 32866 23611 10167 20078 30192 40202 51016 90851 555 91309=","FM-12","4",,,,,,,,,,,,,,,,,,,,,,,,,,,,"2009-05-01"
"74486094789","2020-06-13T04:51:00","FM-15","7",,"ESE","1.5","mi","TEMP, PRECIP, SNOW",,,"PSY, SRG, SNOWBOARD",,,"FAA CWO",,,,,,,,,,,,,,,,,,,,,,,,,,,"30.15","45","61","0.00",,,,"56","30.15","FEW:02 70 FEW:02 90 FEW:02 250","30.12","10.00","53","350",,"14",,,,,,,,,,,,,,,,,,,,,,,,,,,,,,,,,,,,,"MET11206/13/20 04:51:02 METAR KJFK 130951Z 35012KT 10SM FEW070 FEW090 FEW250 16/07 A3015 RMK AO2 SLP209 T01610072 (DM)","FM-15","7",,,,,,,,,,,,,,,,,,,,,,,,,,,,"2009-05-01"
"74486094789","2020-06-13T05:51:00","FM-15","7",,"ESE","1.5","mi","TEMP, PRECIP, SNOW",,,"PSY, SRG, SNOWBOARD",,,"FAA CWO",,,,,,,,,,,,,,,,,,,,,,,,,,,"30.16","44","61","0.00",,,,"54","30.16","FEW:02 40 FEW:02 100 FEW:02 250","30.14","10.00","52","360",,"14",,,,,,,,,,,,,,,,,,,,,,,,,,,,,,,,,,,,,"MET11206/13/20 05:51:02 METAR KJFK 131051Z 36012KT 10SM FEW040 FEW100 FEW250 16/07 A3016 RMK AO2 SLP213 T01610067 (MM)","FM-15","7",,,,,,,,,,,,,,,,,,,,,,,,,,,,"2009-05-01"
"74486094789","2020-06-13T06:51:00","FM-15","7",,"ESE","1.5","mi","TEMP, PRECIP, SNOW",,,"PSY, SRG, SNOWBOARD",,,"FAA CWO",,,,,,,,,,,,,,,,,,,,,,,,,,,"30.17","43","62","0.00",,"-0.04","1","50","30.17","FEW:02 45 FEW:02 100 FEW:02 250","30.14","10.00","52","360",,"14",,,,,,,,,,,,,,,,,,,,,,,,,,,,,,,,,,,,,"MET13006/13/20 06:51:02 METAR KJFK 131151Z 36012KT 10SM FEW045 FEW100 FEW250 17/06 A3017 RMK AO2 SLP216 T01670061 10206 20161 51015 (MM)","FM-15","7",,,,,,,,,,,,,,,,,,,,,,,,,,,,"2009-05-01"
"74486094789","2020-06-13T07:00:00","FM-12","4",,"ESE","1.5","mi","TEMP, PRECIP, SNOW",,,"PSY, SRG, SNOWBOARD",,,"FAA CWO",,,,,,,,,,,,,,,,,,,,,,,,,,,,"43","62",,,"-0.04","1","50","30.17","41","30.14","9.94","52","360",,"14",,,,,,,,,,,,,,,,,,,,,,,,,,,,,,,,,,,,,"SYN08074486 32666 23612 10167 20061 30205 40216 51015 91151 333 10283 20161 555 91312=","FM-12","4",,,,,,,,,,,,,,,,,,,,,,,,,,,,"2009-05-01"
"74486094789","2020-06-13T07:51:00","FM-15","7",,"ESE","1.5","mi","TEMP, PRECIP, SNOW",,,"PSY, SRG, SNOWBOARD",,,"FAA CWO",,,,,,,,,,,,,,,,,,,,,,,,,,,"30.19","45","64","0.00",,,,"50","30.19","FEW:02 50 FEW:02 250","30.16","10.00","54","350",,"13",,,,,,,,,,,,,,,,,,,,,,,,,,,,,,,,,,,,,"MET10506/13/20 07:51:02 METAR KJFK 131251Z 35011KT 10SM FEW050 FEW250 18/07 A3019 RMK AO2 SLP222 T01780072 (MM)","FM-15","7",,,,,,,,,,,,,,,,,,,,,,,,,,,,"2009-05-01"
"74486094789","2020-06-13T08:51:00","FM-15","7",,"ESE","1.5","mi","TEMP, PRECIP, SNOW",,,"PSY, SRG, SNOWBOARD",,,"FAA CWO",,,,,,,,,,,,,,,,,,,,,,,,,,,"30.20","44","66","0.00",,,,"45","30.20","FEW:02 50 FEW:02 100 SCT:04 250","30.17","10.00","55","010",,"10",,,,,,,,,,,,,,,,,,,,,,,,,,,,,,,,,,,,,"MET11206/13/20 08:51:02 METAR KJFK 131351Z 01009KT 10SM FEW050 FEW100 SCT250 19/07 A3020 RMK AO2 SLP226 T01890067 (MM)","FM-15","7",,,,,,,,,,,,,,,,,,,,,,,,,,,,"2009-05-01"
"74486094789","2020-06-13T09:51:00","FM-15","7",,"ESE","1.5","mi","TEMP, PRECIP, SNOW",,,"PSY, SRG, SNOWBOARD",,,"FAA CWO",,,,,,,,,,,,,,,,,,,,,,,,,,,"30.19","45","68","0.00",,"-0.02","0","44","30.19","FEW:02 55 FEW:02 250","30.16","10.00","56","320",,"11",,,,,,,,,,,,,,,,,,,,,,,,,,,,,,,,,,,,,"MET11106/13/20 09:51:02 METAR KJFK 131451Z 32010KT 10SM FEW055 FEW250 20/07 A3019 RMK AO2 SLP223 T02000072 50007 (MM)","FM-15","7",,,,,,,,,,,,,,,,,,,,,,,,,,,,"2009-05-01"
"74486094789","2020-06-13T10:00:00","FM-12","4",,"ESE","1.5","mi","TEMP, PRECIP, SNOW",,,"PSY, SRG, SNOWBOARD",,,"FAA CWO",,,,,,,,,,,,,,,,,,,,,,,,,,,,"45","68",,,"0.02","9","44","30.19","57","30.16","9.94","56","320",,"11",,,,,,,,,,,,,,,,,,,,,,,,,,,,,,,,,,,,,"SYN06474486 32766 23210 10200 20072 30212 40223 50007 91451 555 91315=","FM-12","4",,,,,,,,,,,,,,,,,,,,,,,,,,,,"2009-05-01"
"74486094789","2020-06-13T10:51:00","FM-15","7",,"ESE","1.5","mi","TEMP, PRECIP, SNOW",,,"PSY, SRG, SNOWBOARD",,,"FAA CWO",,,,,,,,,,,,,,,,,,,,,,,,,,,"30.20","43","70","0.00",,,,"38","30.19","FEW:02 55 FEW:02 250","30.17","10.00","56","350",,"6",,,,,,,,,,,,,,,,,,,,,,,,,,,,,,,,,,,,,"MET10506/13/20 10:51:02 METAR KJFK 131551Z 35005KT 10SM FEW055 FEW250 21/06 A3020 RMK AO2 SLP225 T02110061 (MM)","FM-15","7",,,,,,,,,,,,,,,,,,,,,,,,,,,,"2009-05-01"
"74486094789","2020-06-13T11:51:00","FM-15","7",,"ESE","1.5","mi","TEMP, PRECIP, SNOW",,,"PSY, SRG, SNOWBOARD",,,"FAA CWO",,,,,,,,,,,,,,,,,,,,,,,,,,,"30.18","45","71","0.00",,,,"39","30.18","FEW:02 60 SCT:04 250","30.16","10.00","57","VRB",,"7",,,,,,,,,,,,,,,,,,,,,,,,,,,,,,,,,,,,,"MET10506/13/20 11:51:02 METAR KJFK 131651Z VRB06KT 10SM FEW060 SCT250 22/07 A3018 RMK AO2 SLP220 T02170072 (MM)","FM-15","7",,,,,,,,,,,,,,,,,,,,,,,,,,,,"2009-05-01"
"74486094789","2020-06-13T12:51:00","FM-15","7",,"ESE","1.5","mi","TEMP, PRECIP, SNOW",,,"PSY, SRG, SNOWBOARD",,,"FAA CWO",,,,,,,,,,,,,,,,,,,,,,,,,,,"30.18","46","72","0.00",,"+0.01","8","40","30.18","FEW:02 60 FEW:02 120 SCT:04 250","30.16","10.00","58","010",,"7",,,,,,,,,,,,,,,,,,,,,,,,,,,,,,,,,,,,,"MET13006/13/20 12:51:02 METAR KJFK 131751Z 01006KT 10SM FEW060 FEW120 SCT250 22/08 A3018 RMK AO2 SLP219 T02220078 10228 20167 58004 (MM)","FM-15","7",,,,,,,,,,,,,,,,,,,,,,,,,,,,"2009-05-01"
"74486094789","2020-06-13T13:00:00","FM-12","4",,"ESE","1.5","mi","TEMP, PRECIP, SNOW",,,"PSY, SRG, SNOWBOARD",,,"FAA CWO",,,,,,,,,,,,,,,,,,,,,,,,,,,,"46","72",,,"+0.01","8","40","30.18","57","30.15","9.94","58","010",,"7",,,,,,,,,,,,,,,,,,,,,,,,,,,,,,,,,,,,,"SYN08074486 32766 40106 10222 20078 30209 40219 58004 91751 333 10228 20167 555 91318=","FM-12","4",,,,,,,,,,,,,,,,,,,,,,,,,,,,"2009-05-01"
"74486094789","2020-06-13T13:51:00","FM-15","7",,"ESE","1.5","mi","TEMP, PRECIP, SNOW",,,"PSY, SRG, SNOWBOARD",,,"FAA CWO",,,,,,,,,,,,,,,,,,,,,,,,,,,"30.17","48","72","0.00",,,,"43","30.16","FEW:02 65 SCT:04 250","30.14","10.00","59","170",,"10",,,,,,,,,,,,,,,,,,,,,,,,,,,,,,,,,,,,,"MET10506/13/20 13:51:02 METAR KJFK 131851Z 17009KT 10SM FEW065 SCT250 22/09 A3017 RMK AO2 SLP215 T02220089 (RG)","FM-15","7",,,,,,,,,,,,,,,,,,,,,,,,,,,,"2009-05-01"
"74486094789","2020-06-13T14:51:00","FM-15","7",,"ESE","1.5","mi","TEMP, PRECIP, SNOW",,,"PSY, SRG, SNOWBOARD",,,"FAA CWO",,,,,,,,,,,,,,,,,,,,,,,,,,,"30.17","48","72","0.00",,,,"43","30.16","SCT:04 65 SCT:04 250","30.14","10.00","59","200",,"11",,,,,,,,,,,,,,,,,,,,,,,,,,,,,,,,,,,,,"MET10506/13/20 14:51:02 METAR KJFK 131951Z 20010KT 10SM SCT065 SCT250 22/09 A3017 RMK AO2 SLP215 T02220089 (RG)","FM-15","7",,,,,,,,,,,,,,,,,,,,,,,,,,,,"2009-05-01"
"74486094789","2020-06-13T15:51:00","FM-15","7",,"ESE","1.5","mi","TEMP, PRECIP, SNOW",,,"PSY, SRG, SNOWBOARD",,,"FAA CWO",,,,,,,,,,,,,,,,,,,,,,,,,,,"30.16","46","72","0.00",,"+0.02","6","40","30.16","SCT:04 70 SCT:04 250","30.14","10.00","58","180",,"11",,,,,,,,,,,,,,,,,,,,,,,,,,,,,,,,,,,,,"MET11106/13/20 15:51:02 METAR KJFK 132051Z 18010KT 10SM SCT070 SCT250 22/08 A3016 RMK AO2 SLP213 T02220078 56006 (RG)","FM-15","7",,,,,,,,,,,,,,,,,,,,,,,,,,,,"2009-05-01"
"74486094789","2020-06-13T16:00:00","FM-12","4",,"ESE","1.5","mi","TEMP, PRECIP, SNOW",,,"PSY, SRG, SNOWBOARD",,,"FAA CWO",,,,,,,,,,,,,,,,,,,,,,,,,,,,"46","72",,,"+0.02","6","40","30.16","74","30.13","9.94","58","180",,"11",,,,,,,,,,,,,,,,,,,,,,,,,,,,,,,,,,,,,"SYN06474486 32866 41810 10222 20078 30202 40213 56006 92051 555 91321=","FM-12","4",,,,,,,,,,,,,,,,,,,,,,,,,,,,"2009-05-01"
"74486094789","2020-06-13T16:51:00","FM-15","7",,"ESE","1.5","mi","TEMP, PRECIP, SNOW",,,"PSY, SRG, SNOWBOARD",,,"FAA CWO",,,,,,,,,,,,,,,,,,,,,,,,,,,"30.16","45","72","0.00",,,,"38","30.16","SCT:04 70 SCT:04 250","30.14","10.00","57","190",,"8",,,,,,,,,,,,,,,,,,,,,,,,,,,,,,,,,,,,,"MET10506/13/20 16:51:02 METAR KJFK 132151Z 19007KT 10SM SCT070 SCT250 22/07 A3016 RMK AO2 SLP212 T02220072 (RG)","FM-15","7",,,,,,,,,,,,,,,,,,,,,,,,,,,,"2009-05-01"
"74486094789","2020-06-13T17:51:00","FM-15","7",,"ESE","1.5","mi","TEMP, PRECIP, SNOW",,,"PSY, SRG, SNOWBOARD",,,"FAA CWO",,,,,,,,,,,,,,,,,,,,,,,,,,,"30.17","46","69","0.00",,,,"44","30.17","SCT:04 75 SCT:04 250","30.14","10.00","57","150",,"9",,,,,,,,,,,,,,,,,,,,,,,,,,,,,,,,,,,,,"MET10506/13/20 17:51:02 METAR KJFK 132251Z 15008KT 10SM SCT075 SCT250 21/08 A3017 RMK AO2 SLP217 T02060078 (RG)","FM-15","7",,,,,,,,,,,,,,,,,,,,,,,,,,,,"2009-05-01"
"74486094789","2020-06-13T18:51:00","FM-15","7",,"ESE","1.5","mi","TEMP, PRECIP, SNOW",,,"PSY, SRG, SNOWBOARD",,,"FAA CWO",,,,,,,,,,,,,,,,,,,,,,,,,,,"30.19","48","66","0.00",,"-0.03","3","52","30.19","SCT:04 80 SCT:04 250","30.16","10.00","56","150",,"6",,,,,,,,,,,,,,,,,,,,,,,,,,,,,,,,,,,,,"MET12306/13/20 18:51:02 METAR KJFK 132351Z 15005KT 10SM SCT080 SCT250 19/09 A3019 RMK AO2 SLP223 T01890089 10228 20189 53010 (RG)","FM-15","7",,,,,,,,,,,,,,,,,,,,,,,,,,,,"2009-05-01"
"74486094789","2020-06-13T19:00:00","FM-12","4",,"ESE","1.5","mi","TEMP, PRECIP, SNOW",,,"PSY, SRG, SNOWBOARD",,,"FAA CWO",,,,,,,,,,,,,,,,,,,,,,,,,,,,"48","66",,,"-0.03","3","52","30.19","74","30.16","9.94","56","150",,"6",,,,,,,,,,,,,,,,,,,,,,,,,,,,,,,,,,,,,"SYN08074486 32866 41505 10189 20089 30212 40223 53010 92351 333 10228 20161 555 91400=","FM-12","4",,,,,,,,,,,,,,,,,,,,,,,,,,,,"2009-05-01"
"74486094789","2020-06-13T19:51:00","FM-15","7",,"ESE","1.5","mi","TEMP, PRECIP, SNOW",,,"PSY, SRG, SNOWBOARD",,,"FAA CWO",,,,,,,,,,,,,,,,,,,,,,,,,,,"30.22","46","68","0.00",,,,"45","30.22","BKN:07 80","30.19","10.00","56","020",,"14",,,,,,,,,,,,,,,,,,,,,,,,,,,,,,,,,,,,,"MET09306/13/20 19:51:01 METAR KJFK 140051Z 02012KT 10SM BKN080 20/08 A3022 RMK AO2 SLP232 T02000078","FM-15","7",,,,,,,,,,,,,,,,,,,,,,,,,,,,"2009-05-01"
"74486094789","2020-06-13T20:51:00","FM-15","7",,"ESE","1.5","mi","TEMP, PRECIP, SNOW",,,"PSY, SRG, SNOWBOARD",,,"FAA CWO",,,,,,,,,,,,,,,,,,,,,,,,,,,"30.25","42","66","0.00",,,,"42","30.25","BKN:07 75","30.22","10.00","54","020",,"15",,,,,,,,,,,,,,,,,,,,,,,,,,,,,,,,,,,,,"MET09306/13/20 20:51:01 METAR KJFK 140151Z 02013KT 10SM BKN075 19/06 A3025 RMK AO2 SLP244 T01890056","FM-15","7",,,,,,,,,,,,,,,,,,,,,,,,,,,,"2009-05-01"
"74486094789","2020-06-13T21:51:00","FM-15","7",,"ESE","1.5","mi","TEMP, PRECIP, SNOW",,,"PSY, SRG, SNOWBOARD",,,"FAA CWO",,,,,,,,,,,,,,,,,,,,,,,,,,,"30.28","40","63","0.00",,"-0.09","1","43","30.27","BKN:07 70","30.25","10.00","52","020",,"18",,,,,,,,,,,,,,,,,,,,,,,,,,,,,,,,,,,,,"MET09906/13/20 21:51:01 METAR KJFK 140251Z 02016KT 10SM BKN070 17/04 A3028 RMK AO2 SLP252 T01720044 51029","FM-15","7",,,,,,,,,,,,,,,,,,,,,,,,,,,,"2009-05-01"
"74486094789","2020-06-13T22:00:00","FM-12","4",,"ESE","1.5","mi","TEMP, PRECIP, SNOW",,,"PSY, SRG, SNOWBOARD",,,"FAA CWO",,,,,,,,,,,,,,,,,,,,,,,,,,,,"40","63",,,"-0.09","1","43","30.27","74","30.25","9.94","52","020",,"18",,,,,,,,,,,,,,,,,,,,,,,,,,,,,,,,,,,,,"SYN06474486 32866 60216 10172 20044 30243 40252 51029 90251 555 91403=","FM-12","4",,,,,,,,,,,,,,,,,,,,,,,,,,,,"2009-05-01"
"74486094789","2020-06-13T22:51:00","FM-15","7",,"ESE","1.5","mi","TEMP, PRECIP, SNOW",,,"PSY, SRG, SNOWBOARD",,,"FAA CWO",,,,,,,,,,,,,,,,,,,,,,,,,,,"30.28","40","61","0.00",,,,"46","30.28","SCT:04 70","30.25","10.00","51","010",,"14",,,,,,,,,,,,,,,,,,,,,,,,,,,,,,,,,,,,,"MET09306/13/20 22:51:02 METAR KJFK 140351Z 01012KT 10SM SCT070 16/04 A3028 RMK AO2 SLP255 T01610044","FM-15","7",,,,,,,,,,,,,,,,,,,,,,,,,,,,"2009-05-01"
"74486094789","2020-06-13T23:51:00","FM-15","7",,"ESE","1.5","mi","TEMP, PRECIP, SNOW",,,"PSY, SRG, SNOWBOARD",,,"FAA CWO",,,,,,,,,,,,,,,,,,,,,,,,,,,"30.29","40","59","0.00",,,,"49","30.29","SCT:04 70","30.27","10.00","50","010",,"14",,,,,,,,,,,,,,,,,,,,,,,,,,,,,,,,,,,,,"MET10306/13/20 23:51:02 METAR KJFK 140451Z 01012KT 10SM SCT070 15/04 A3029 RMK AO2 SLP256 T01500044 402280150","FM-15","7",,,,,,,,,,,,,,,,,,,,,,,,,,,,"2009-05-01"
"74486094789","2020-06-13T23:59:00","SOD  ","6",,"ESE","1.5","mi","TEMP, PRECIP, SNOW",,,"PSY, SRG, SNOWBOARD",,,"FAA CWO",,,,"45","66","46","30.18","30.12","55","11.8","1","-3.8","0","73","59","340","26","0.00","0","0.0","360","22",,,,,,,,,,,,,,,,,,,,,,,,,,,,,,,,,,,,,,,,,,,,,,,,,,,,,,,,,"SOD73924 HR PRECIPITATION (IN): 0.00 SNOW DEPTH (IN):0     24 HR SNOWFALL (IN):0.0  24 HR MAX TEMP (F): 7324 HR MIN TEMP (F): 59AVERAGE STATION PRESSURE:30.125 MINIMUM SEA LEVEL PRESSURE:30.05 TIME OF OCCURRENCE:0001 PEAK WIND SPEED (MPH): 26 PEAK WIND DIR (DEG):340 PEAK WIND TIME (LST):      FASTEST 2MIN SPEED (MPH): 22FASTEST 2MIN DIR (DEG):360 FASTEST 2MIN TIME (LST):     AVERAGE WIND SPEED (MPH):11.8 24 HR AVG TEMP (F): 66DEPART FROM NORMAL: -4  HEATING DEGREE DAYS:  0 COOLING DEGREE DAYS:  1 LATEST DAY MAX TEMP (0700-1900 LST):73  LATEST NIGHT MIN TEMP(1900-0800 LST):61 HOURLY INCREMENTAL PRECIPITATION VALUES (IN):.00 0.00 0.00 0.00 0.00 0.00 0.00 0.00 0.00 0.00 0.00 0.00 0.00 0.00 0.00 0.00 0.00 0.00 0.00 0.00 0.00 0.00 0.00 0.00","SOD  ","6",,,,,,,,,,,,,,,,,,,,,,,,,"0423","1927",,"2009-05-01"
"74486094789","2020-06-14T00:51:00","FM-15","7",,"ESE","1.5","mi","TEMP, PRECIP, SNOW",,,"PSY, SRG, SNOWBOARD",,,"FAA CWO",,,,,,,,,,,,,,,,,,,,,,,,,,,"30.30","38","58","0.00",,"-0.02","3","48","30.30","FEW:02 70","30.27","10.00","48","020",,"10",,,,,,,,,,,,,,,,,,,,,,,,,,,,,,,,,,,,,"MET11606/14/20 00:51:02 METAR KJFK 140551Z 02009KT 10SM FEW070 14/03 A3030 RMK AO2 SLP260 T01440033 10200 20144 53008 (DM)","FM-15","7",,,,,,,,,,,,,,,,,,,,,,,,,,,,"2009-05-01"
"74486094789","2020-06-14T01:00:00","FM-12","4",,"ESE","1.5","mi","TEMP, PRECIP, SNOW",,,"PSY, SRG, SNOWBOARD",,,"FAA CWO",,,,,,,,,,,,,,,,,,,,,,,,,,,,"38","58",,,"-0.02","3","48","30.30","74","30.27","9.94","48","020",,"10",,,,,,,,,,,,,,,,,,,,,,,,,,,,,,,,,,,,,"SYN08074486 32866 20209 10144 20033 30249 40260 53008 90551 333 10206 20144 555 91406=","FM-12","4",,,,,,,,,,,,,,,,,,,,,,,,,,,,"2009-05-01"
"74486094789","2020-06-14T01:51:00","FM-15","7",,"ESE","1.5","mi","TEMP, PRECIP, SNOW",,,"PSY, SRG, SNOWBOARD",,,"FAA CWO",,,,,,,,,,,,,,,,,,,,,,,,,,,"30.31","39","57","0.00",,,,"51","30.31","FEW:02 70 FEW:02 130","30.29","10.00","48","010",,"13",,,,,,,,,,,,,,,,,,,,,,,,,,,,,,,,,,,,,"MET10506/14/20 01:51:02 METAR KJFK 140651Z 01011KT 10SM FEW070 FEW130 14/04 A3031 RMK AO2 SLP264 T01390039 (DM)","FM-15","7",,,,,,,,,,,,,,,,,,,,,,,,,,,,"2009-05-01"
"74486094789","2020-06-14T02:51:00","FM-15","7",,"ESE","1.5","mi","TEMP, PRECIP, SNOW",,,"PSY, SRG, SNOWBOARD",,,"FAA CWO",,,,,,,,,,,,,,,,,,,,,,,,,,,"30.32","40","56","0.00",,,,"55","30.32","FEW:02 70 FEW:02 130 FEW:02 250","30.29","10.00","48","030",,"14",,,,,,,,,,,,,,,,,,,,,,,,,,,,,,,,,,,,,"MET11206/14/20 02:51:02 METAR KJFK 140751Z 03012KT 10SM FEW070 FEW130 FEW250 13/04 A3032 RMK AO2 SLP266 T01330044 (DM)","FM-15","7",,,,,,,,,,,,,,,,,,,,,,,,,,,,"2009-05-01"
"74486094789","2020-06-14T03:51:00","FM-15","7",,"ESE","1.5","mi","TEMP, PRECIP, SNOW",,,"PSY, SRG, SNOWBOARD",,,"FAA CWO",,,,,,,,,,,,,,,,,,,,,,,,,,,"30.33","41","54","0.00",,"-0.03","1","62","30.33","FEW:02 70 FEW:02 130 SCT:04 220","30.30","10.00","48","020",,"13",,,,,,,,,,,,,,,,,,,,,,,,,,,,,,,,,,,,,"MET11806/14/20 03:51:02 METAR KJFK 140851Z 02011KT 10SM FEW070 FEW130 SCT220 12/05 A3033 RMK AO2 SLP270 T01220050 51009 (DM)","FM-15","7",,,,,,,,,,,,,,,,,,,,,,,,,,,,"2009-05-01"
"74486094789","2020-06-14T04:00:00","FM-12","4",,"ESE","1.5","mi","TEMP, PRECIP, SNOW",,,"PSY, SRG, SNOWBOARD",,,"FAA CWO",,,,,,,,,,,,,,,,,,,,,,,,,,,,"41","54",,,"-0.03","1","62","30.33","74","30.29","9.94","48","020",,"13",,,,,,,,,,,,,,,,,,,,,,,,,,,,,,,,,,,,,"SYN06474486 32866 40211 10122 20050 30259 40270 51009 90851 555 91409=","FM-12","4",,,,,,,,,,,,,,,,,,,,,,,,,,,,"2009-05-01"
"74486094789","2020-06-14T04:51:00","FM-15","7",,"ESE","1.5","mi","TEMP, PRECIP, SNOW",,,"PSY, SRG, SNOWBOARD",,,"FAA CWO",,,,,,,,,,,,,,,,,,,,,,,,,,,"30.34","41","54","0.00",,,,"62","30.34","FEW:02 70 SCT:04 150 SCT:04 200","30.32","10.00","48","020",,"13",,,,,,,,,,,,,,,,,,,,,,,,,,,,,,,,,,,,,"MET11206/14/20 04:51:02 METAR KJFK 140951Z 02011KT 10SM FEW070 SCT150 SCT200 12/05 A3034 RMK AO2 SLP274 T01220050 (DM)","FM-15","7",,,,,,,,,,,,,,,,,,,,,,,,,,,,"2009-05-01"
"74486094789","2020-06-14T05:51:00","FM-15","7",,"ESE","1.5","mi","TEMP, PRECIP, SNOW",,,"PSY, SRG, SNOWBOARD",,,"FAA CWO",,,,,,,,,,,,,,,,,,,,,,,,,,,"30.36","41","55","0.00",,,,"59","30.35","FEW:02 70 SCT:04 140 BKN:07 190","30.34","10.00","48","010",,"10",,,,,,,,,,,,,,,,,,,,,,,,,,,,,,,,,,,,,"MET11206/14/20 05:51:02 METAR KJFK 141051Z 01009KT 10SM FEW070 SCT140 BKN190 13/05 A3036 RMK AO2 SLP279 T01280050 (ML)","FM-15","7",,,,,,,,,,,,,,,,,,,,,,,,,,,,"2009-05-01"
"74486094789","2020-06-14T06:51:00","FM-15","7",,"ESE","1.5","mi","TEMP, PRECIP, SNOW",,,"PSY, SRG, SNOWBOARD",,,"FAA CWO",,,,,,,,,,,,,,,,,,,,,,,,,,,"30.36","42","58","0.00",,"-0.04","1","56","30.36","BKN:07 32 BKN:07 140 BKN:07 200","30.34","10.00","50","010",,"13",,,,,,,,,,,,,,,,,,,,,,,,,,,,,,,,,,,,,"MET13006/14/20 06:51:02 METAR KJFK 141151Z 01011KT 10SM BKN032 BKN140 BKN200 14/06 A3036 RMK AO2 SLP282 T01440056 10144 20122 51012 (ML)","FM-15","7",,,,,,,,,,,,,,,,,,,,,,,,,,,,"2009-05-01"
"74486094789","2020-06-14T07:00:00","FM-12","4",,"ESE","1.5","mi","TEMP, PRECIP, SNOW",,,"PSY, SRG, SNOWBOARD",,,"FAA CWO",,,,,,,,,,,,,,,,,,,,,,,,,,,,"42","58",,,"-0.04","1","56","30.36","26","30.33","9.94","50","010",,"13",,,,,,,,,,,,,,,,,,,,,,,,,,,,,,,,,,,,,"SYN08074486 32566 60111 10144 20056 30270 40282 51012 91151 333 10228 20122 555 91412=","FM-12","4",,,,,,,,,,,,,,,,,,,,,,,,,,,,"2009-05-01"
"74486094789","2020-06-14T07:51:00","FM-15","7",,"ESE","1.5","mi","TEMP, PRECIP, SNOW",,,"PSY, SRG, SNOWBOARD",,,"FAA CWO",,,,,,,,,,,,,,,,,,,,,,,,,,,"30.38","42","62","0.00",,,,"48","30.38","SCT:04 33 BKN:07 140 BKN:07 200","30.35","10.00","52","010",,"10",,,,,,,,,,,,,,,,,,,,,,,,,,,,,,,,,,,,,"MET11206/14/20 07:51:02 METAR KJFK 141251Z 01009KT 10SM SCT033 BKN140 BKN200 17/06 A3038 RMK AO2 SLP287 T01670056 (ML)","FM-15","7",,,,,,,,,,,,,,,,,,,,,,,,,,,,"2009-05-01"
"74486094789","2020-06-14T08:51:00","FM-15","7",,"ESE","1.5","mi","TEMP, PRECIP, SNOW",,,"PSY, SRG, SNOWBOARD",,,"FAA CWO",,,,,,,,,,,,,,,,,,,,,,,,,,,"30.38","45","65","0.00",,,,"49","30.38","FEW:02 60 SCT:04 140 SCT:04 200","30.35","10.00","55","010",,"10",,,,,,,,,,,,,,,,,,,,,,,,,,,,,,,,,,,,,"MET11206/14/20 08:51:02 METAR KJFK 141351Z 01009KT 10SM FEW060 SCT140 SCT200 18/07 A3038 RMK AO2 SLP287 T01830072 (ML)","FM-15","7",,,,,,,,,,,,,,,,,,,,,,,,,,,,"2009-05-01"
"74486094789","2020-06-14T09:51:00","FM-15","7",,"ESE","1.5","mi","TEMP, PRECIP, SNOW",,,"PSY, SRG, SNOWBOARD",,,"FAA CWO",,,,,,,,,,,,,,,,,,,,,,,,,,,"30.38","46","68","0.00",,"-0.02","1","45","30.38","FEW:02 60 FEW:02 150 SCT:04 250","30.35","10.00","56","350",,"7",,,,,,,,,,,,,,,,,,,,,,,,,,,,,,,,,,,,,"MET11806/14/20 09:51:02 METAR KJFK 141451Z 35006KT 10SM FEW060 FEW150 SCT250 20/08 A3038 RMK AO2 SLP288 T02000078 51007 (ML)","FM-15","7",,,,,,,,,,,,,,,,,,,,,,,,,,,,"2009-05-01"
"74486094789","2020-06-14T10:00:00","FM-12","4",,"ESE","1.5","mi","TEMP, PRECIP, SNOW",,,"PSY, SRG, SNOWBOARD",,,"FAA CWO",,,,,,,,,,,,,,,,,,,,,,,,,,,,"46","68",,,"-0.02","1","45","30.38","57","30.35","9.94","56","350",,"7",,,,,,,,,,,,,,,,,,,,,,,,,,,,,,,,,,,,,"SYN06474486 32766 43506 10200 20078 30276 40288 51007 91451 555 91415=","FM-12","4",,,,,,,,,,,,,,,,,,,,,,,,,,,,"2009-05-01"
"74486094789","2020-06-14T10:11:00","FM-16","7",,"ESE","1.5","mi","TEMP, PRECIP, SNOW",,,"PSY, SRG, SNOWBOARD",,,"FAA CWO",,,,,,,,,,,,,,,,,,,,,,,,,,,"30.38","46","68",,,,,"45",,"FEW:02 60 FEW:02 150 SCT:04 250","30.35","10.00","56","000",,"0",,,,,,,,,,,,,,,,,,,,,,,,,,,,,,,,,,,,,"MET10506/14/20 10:11:02 SPECI KJFK 141511Z 00000KT 10SM FEW060 FEW150 SCT250 20/08 A3038 RMK AO2 T02000078 (ML)","FM-16","7",,,,,,,,,,,,,,,,,,,,,,,,,,,,"2009-05-01"
"74486094789","2020-06-14T10:51:00","FM-15","7",,"ESE","1.5","mi","TEMP, PRECIP, SNOW",,,"PSY, SRG, SNOWBOARD",,,"FAA CWO",,,,,,,,,,,,,,,,,,,,,,,,,,,"30.38","47","69","0.00",,,,"45","30.37","FEW:02 60 FEW:02 150 SCT:04 250","30.35","10.00","57","000",,"0",,,,,,,,,,,,,,,,,,,,,,,,,,,,,,,,,,,,,"MET11206/14/20 10:51:02 METAR KJFK 141551Z 00000KT 10SM FEW060 FEW150 SCT250 21/08 A3038 RMK AO2 SLP286 T02060083 (ML)","FM-15","7",,,,,,,,,,,,,,,,,,,,,,,,,,,,"2009-05-01"
"74486094789","2020-06-14T11:51:00","FM-15","7",,"ESE","1.5","mi","TEMP, PRECIP, SNOW",,,"PSY, SRG, SNOWBOARD",,,"FAA CWO",,,,,,,,,,,,,,,,,,,,,,,,,,,"30.36","49","69","0.00",,,,"49","30.36","FEW:02 60 FEW:02 150 SCT:04 250","30.34","10.00","58","220",,"7",,,,,,,,,,,,,,,,,,,,,,,,,,,,,,,,,,,,,"MET11206/14/20 11:51:02 METAR KJFK 141651Z 22006KT 10SM FEW060 FEW150 SCT250 21/09 A3036 RMK AO2 SLP281 T02060094 (ML)","FM-15","7",,,,,,,,,,,,,,,,,,,,,,,,,,,,"2009-05-01"
"74486094789","2020-06-14T12:51:00","FM-15","7",,"ESE","1.5","mi","TEMP, PRECIP, SNOW",,,"PSY, SRG, SNOWBOARD",,,"FAA CWO",,,,,,,,,,,,,,,,,,,,,,,,,,,"30.36","50","70","0.00",,"+0.02","6","49","30.36","SCT:04 60 SCT:04 150 SCT:04 250","30.34","10.00","59","190",,"10",,,,,,,,,,,,,,,,,,,,,,,,,,,,,,,,,,,,,"MET13006/14/20 12:51:02 METAR KJFK 141751Z 19009KT 10SM SCT060 SCT150 SCT250 21/10 A3036 RMK AO2 SLP281 T02110100 10217 20144 56007 (ML)","FM-15","7",,,,,,,,,,,,,,,,,,,,,,,,,,,,"2009-05-01"
"74486094789","2020-06-14T13:00:00","FM-12","4",,"ESE","1.5","mi","TEMP, PRECIP, SNOW",,,"PSY, SRG, SNOWBOARD",,,"FAA CWO",,,,,,,,,,,,,,,,,,,,,,,,,,,,"50","70",,,"+0.02","6","49","30.36","57","30.33","9.94","59","190",,"10",,,,,,,,,,,,,,,,,,,,,,,,,,,,,,,,,,,,,"SYN08074486 32766 41909 10211 20100 30270 40281 56007 91751 333 10217 20144 555 91418=","FM-12","4",,,,,,,,,,,,,,,,,,,,,,,,,,,,"2009-05-01"
"74486094789","2020-06-14T13:51:00","FM-15","7",,"ESE","1.5","mi","TEMP, PRECIP, SNOW",,,"PSY, SRG, SNOWBOARD",,,"FAA CWO",,,,,,,,,,,,,,,,,,,,,,,,,,,"30.36","50","69","0.00",,,,"51","30.35","SCT:04 60","30.34","10.00","58","130",,"9",,,,,,,,,,,,,,,,,,,,,,,,,,,,,,,,,,,,,"MET09806/14/20 13:51:02 METAR KJFK 141851Z 13008KT 10SM SCT060 21/10 A3036 RMK AO2 SLP279 T02060100 (RG)","FM-15","7",,,,,,,,,,,,,,,,,,,,,,,,,,,,"2009-05-01"
"74486094789","2020-06-14T14:51:00","FM-15","7",,"ESE","1.5","mi","TEMP, PRECIP, SNOW",,,"PSY, SRG, SNOWBOARD",,,"FAA CWO",,,,,,,,,,,,,,,,,,,,,,,,,,,"30.36","50","69","0.00",,,,"51","30.35","FEW:02 60","30.34","10.00","58","150",,"11",,,,,,,,,,,,,,,,,,,,,,,,,,,,,,,,,,,,,"MET09806/14/20 14:51:02 METAR KJFK 141951Z 15010KT 10SM FEW060 21/10 A3036 RMK AO2 SLP279 T02060100 (RG)","FM-15","7",,,,,,,,,,,,,,,,,,,,,,,,,,,,"2009-05-01"
"74486094789","2020-06-14T15:51:00","FM-15","7",,"ESE","1.5","mi","TEMP, PRECIP, SNOW",,,"PSY, SRG, SNOWBOARD",,,"FAA CWO",,,,,,,,,,,,,,,,,,,,,,,,,,,"30.36","49","68","0.00",,"+0.01","6","51","30.35","FEW:02 60","30.34","10.00","58","130",,"13",,,,,,,,,,,,,,,,,,,,,,,,,,,,,,,,,,,,,"MET10406/14/20 15:51:02 METAR KJFK 142051Z 13011KT 10SM FEW060 20/09 A3036 RMK AO2 SLP279 T02000094 56002 (RG)","FM-15","7",,,,,,,,,,,,,,,,,,,,,,,,,,,,"2009-05-01"
"74486094789","2020-06-14T16:00:00","FM-12","4",,"ESE","1.5","mi","TEMP, PRECIP, SNOW",,,"PSY, SRG, SNOWBOARD",,,"FAA CWO",,,,,,,,,,,,,,,,,,,,,,,,,,,,"49","68",,,"+0.01","6","51","30.35","57","30.33","9.94","58","130",,"13",,,,,,,,,,,,,,,,,,,,,,,,,,,,,,,,,,,,,"SYN06474486 32766 21311 10200 20094 30270 40279 56002 92051 555 91421=","FM-12","4",,,,,,,,,,,,,,,,,,,,,,,,,,,,"2009-05-01"
"74486094789","2020-06-14T16:51:00","FM-15","7",,"ESE","1.5","mi","TEMP, PRECIP, SNOW",,,"PSY, SRG, SNOWBOARD",,,"FAA CWO",,,,,,,,,,,,,,,,,,,,,,,,,,,"30.35","49","68","0.00",,,,"51","30.35","FEW:02 70","30.32","10.00","58","120",,"9",,,,,,,,,,,,,,,,,,,,,,,,,,,,,,,,,,,,,"MET09806/14/20 16:51:02 METAR KJFK 142151Z 12008KT 10SM FEW070 20/09 A3035 RMK AO2 SLP277 T02000094 (RG)","FM-15","7",,,,,,,,,,,,,,,,,,,,,,,,,,,,"2009-05-01"
"74486094789","2020-06-14T17:51:00","FM-15","7",,"ESE","1.5","mi","TEMP, PRECIP, SNOW",,,"PSY, SRG, SNOWBOARD",,,"FAA CWO",,,,,,,,,,,,,,,,,,,,,,,,,,,"30.36","50","66","0.00",,,,"56","30.36","FEW:02 65","30.34","10.00","57","150",,"11",,,,,,,,,,,,,,,,,,,,,,,,,,,,,,,,,,,,,"MET09806/14/20 17:51:02 METAR KJFK 142251Z 15010KT 10SM FEW065 19/10 A3036 RMK AO2 SLP280 T01890100 (RG)","FM-15","7",,,,,,,,,,,,,,,,,,,,,,,,,,,,"2009-05-01"
"74486094789","2020-06-14T18:51:00","FM-15","7",,"ESE","1.5","mi","TEMP, PRECIP, SNOW",,,"PSY, SRG, SNOWBOARD",,,"FAA CWO",,,,,,,,,,,,,,,,,,,,,,,,,,,"30.37","50","64","0.00",,"-0.01","3","60","30.37","FEW:02 60","30.35","10.00","56","130",,"9",,,,,,,,,,,,,,,,,,,,,,,,,,,,,,,,,,,,,"MET11606/14/20 18:51:02 METAR KJFK 142351Z 13008KT 10SM FEW060 18/10 A3037 RMK AO2 SLP284 T01780100 10211 20178 53005 (RG)","FM-15","7",,,,,,,,,,,,,,,,,,,,,,,,,,,,"2009-05-01"
"74486094789","2020-06-14T19:00:00","FM-12","4",,"ESE","1.5","mi","TEMP, PRECIP, SNOW",,,"PSY, SRG, SNOWBOARD",,,"FAA CWO",,,,,,,,,,,,,,,,,,,,,,,,,,,,"50","64",,,"-0.01","3","60","30.37","57","30.34","9.94","56","130",,"9",,,,,,,,,,,,,,,,,,,,,,,,,,,,,,,,,,,,,"SYN08074486 32766 21308 10178 20100 30273 40284 53005 92351 333 10217 20122 555 91500=","FM-12","4",,,,,,,,,,,,,,,,,,,,,,,,,,,,"2009-05-01"
"74486094789","2020-06-14T19:51:00","FM-15","7",,"ESE","1.5","mi","TEMP, PRECIP, SNOW",,,"PSY, SRG, SNOWBOARD",,,"FAA CWO",,,,,,,,,,,,,,,,,,,,,,,,,,,"30.38","51","62","0.00",,,,"67","30.38","FEW:02 65","30.35","10.00","56","130",,"7",,,,,,,,,,,,,,,,,,,,,,,,,,,,,,,,,,,,,"MET09306/14/20 19:51:01 METAR KJFK 150051Z 13006KT 10SM FEW065 17/11 A3038 RMK AO2 SLP288 T01670106","FM-15","7",,,,,,,,,,,,,,,,,,,,,,,,,,,,"2009-05-01"
"74486094789","2020-06-14T20:51:00","FM-15","7",,"ESE","1.5","mi","TEMP, PRECIP, SNOW",,,"PSY, SRG, SNOWBOARD",,,"FAA CWO",,,,,,,,,,,,,,,,,,,,,,,,,,,"30.39","51","61","0.00",,,,"70","30.38","FEW:02 70","30.37","10.00","56","100",,"5",,,,,,,,,,,,,,,,,,,,,,,,,,,,,,,,,,,,,"MET09306/14/20 20:51:01 METAR KJFK 150151Z 10004KT 10SM FEW070 16/11 A3039 RMK AO2 SLP289 T01610106","FM-15","7",,,,,,,,,,,,,,,,,,,,,,,,,,,,"2009-05-01"
"74486094789","2020-06-14T21:51:00","FM-15","7",,"ESE","1.5","mi","TEMP, PRECIP, SNOW",,,"PSY, SRG, SNOWBOARD",,,"FAA CWO",,,,,,,,,,,,,,,,,,,,,,,,,,,"30.39","52","61","0.00",,"-0.02","1","72","30.39","CLR:00","30.37","10.00","56","000",,"0",,,,,,,,,,,,,,,,,,,,,,,,,,,,,,,,,,,,,"MET09606/14/20 21:51:01 METAR KJFK 150251Z 00000KT 10SM CLR 16/11 A3039 RMK AO2 SLP291 T01610111 51006","FM-15","7",,,,,,,,,,,,,,,,,,,,,,,,,,,,"2009-05-01"
"74486094789","2020-06-14T22:00:00","FM-12","4",,"ESE","1.5","mi","TEMP, PRECIP, SNOW",,,"PSY, SRG, SNOWBOARD",,,"FAA CWO",,,,,,,,,,,,,,,,,,,,,,,,,,,,"52","61",,,"-0.02","1","72","30.39",,"30.36","9.94","56","000",,"0",,,,,,,,,,,,,,,,,,,,,,,,,,,,,,,,,,,,,"SYN06474486 32966 00000 10161 20111 30280 40291 51006 90251 555 91503=","FM-12","4",,,,,,,,,,,,,,,,,,,,,,,,,,,,"2009-05-01"
"74486094789","2020-06-14T22:51:00","FM-15","7",,"ESE","1.5","mi","TEMP, PRECIP, SNOW",,,"PSY, SRG, SNOWBOARD",,,"FAA CWO",,,,,,,,,,,,,,,,,,,,,,,,,,,"30.38","52","60","0.00",,,,"75","30.38","CLR:00","30.35","10.00","56","060",,"3",,,,,,,,,,,,,,,,,,,,,,,,,,,,,,,,,,,,,"MET09006/14/20 22:51:02 METAR KJFK 150351Z 06003KT 10SM CLR 16/11 A3038 RMK AO2 SLP289 T01560111","FM-15","7",,,,,,,,,,,,,,,,,,,,,,,,,,,,"2009-05-01"
"74486094789","2020-06-14T23:51:00","FM-15","7",,"ESE","1.5","mi","TEMP, PRECIP, SNOW",,,"PSY, SRG, SNOWBOARD",,,"FAA CWO",,,,,,,,,,,,,,,,,,,,,,,,,,,"30.38","52","60","0.00",,,,"75","30.38","CLR:00","30.35","10.00","56","000",,"0",,,,,,,,,,,,,,,,,,,,,,,,,,,,,,,,,,,,,"MET10006/14/20 23:51:02 METAR KJFK 150451Z 00000KT 10SM CLR 16/11 A3038 RMK AO2 SLP287 T01560111 402170122","FM-15","7",,,,,,,,,,,,,,,,,,,,,,,,,,,,"2009-05-01"
"74486094789","2020-06-14T23:59:00","SOD  ","6",,"ESE","1.5","mi","TEMP, PRECIP, SNOW",,,"PSY, SRG, SNOWBOARD",,,"FAA CWO",,,,"47","63","57","30.36","30.32","54","8.7","0","-7.1","2","71","54","010","23","0.00","0","0.0","020","17",,,,,,,,,,,,,,,,,,,,,,,,,,,,,,,,,,,,,,,,,,,,,,,,,,,,,,,,,"SOD73924 HR PRECIPITATION (IN): 0.00 SNOW DEPTH (IN):0     24 HR SNOWFALL (IN):0.0  24 HR MAX TEMP (F): 7124 HR MIN TEMP (F): 54AVERAGE STATION PRESSURE:30.320 MINIMUM SEA LEVEL PRESSURE:30.29 TIME OF OCCURRENCE:0037 PEAK WIND SPEED (MPH): 23 PEAK WIND DIR (DEG): 10 PEAK WIND TIME (LST):      FASTEST 2MIN SPEED (MPH): 17FASTEST 2MIN DIR (DEG): 20 FASTEST 2MIN TIME (LST):     AVERAGE WIND SPEED (MPH): 8.7 24 HR AVG TEMP (F): 63DEPART FROM NORMAL: -7  HEATING DEGREE DAYS:  2 COOLING DEGREE DAYS:  0 LATEST DAY MAX TEMP (0700-1900 LST):71  LATEST NIGHT MIN TEMP(1900-0800 LST):54 HOURLY INCREMENTAL PRECIPITATION VALUES (IN):.00 0.00 0.00 0.00 0.00 0.00 0.00 0.00 0.00 0.00 0.00 0.00 0.00 0.00 0.00 0.00 0.00 0.00 0.00 0.00 0.00 0.00 0.00 0.00","SOD  ","6",,,,,,,,,,,,,,,,,,,,,,,,,"0423","1928",,"2009-05-01"
"74486094789","2020-06-15T00:51:00","FM-15","7",,"ESE","1.5","mi","TEMP, PRECIP, SNOW",,,"PSY, SRG, SNOWBOARD",,,"FAA CWO",,,,,,,,,,,,,,,,,,,,,,,,,,,"30.38","52","59","0.00",,"+0.01","6","78","30.37","CLR:00","30.35","10.00","55","020",,"6",,,,,,,,,,,,,,,,,,,,,,,,,,,,,,,,,,,,,"MET11306/15/20 00:51:02 METAR KJFK 150551Z 02005KT 10SM CLR 15/11 A3038 RMK AO2 SLP286 T01500111 10178 20150 56004 (JC)","FM-15","7",,,,,,,,,,,,,,,,,,,,,,,,,,,,"2009-05-01"
"74486094789","2020-06-15T01:00:00","FM-12","4",,"ESE","1.5","mi","TEMP, PRECIP, SNOW",,,"PSY, SRG, SNOWBOARD",,,"FAA CWO",,,,,,,,,,,,,,,,,,,,,,,,,,,,"52","59",,,"+0.01","6","78","30.37",,"30.35","9.94","55","020",,"6",,,,,,,,,,,,,,,,,,,,,,,,,,,,,,,,,,,,,"SYN08074486 32966 00205 10150 20111 30276 40286 56004 90551 333 10178 20122 555 91506=","FM-12","4",,,,,,,,,,,,,,,,,,,,,,,,,,,,"2009-05-01"
"74486094789","2020-06-15T01:51:00","FM-15","7",,"ESE","1.5","mi","TEMP, PRECIP, SNOW",,,"PSY, SRG, SNOWBOARD",,,"FAA CWO",,,,,,,,,,,,,,,,,,,,,,,,,,,"30.38","50","58","0.00",,,,"75","30.37","CLR:00","30.35","10.00","54","040",,"5",,,,,,,,,,,,,,,,,,,,,,,,,,,,,,,,,,,,,"MET09506/15/20 01:51:02 METAR KJFK 150651Z 04004KT 10SM CLR 14/10 A3038 RMK AO2 SLP285 T01440100 (JC)","FM-15","7",,,,,,,,,,,,,,,,,,,,,,,,,,,,"2009-05-01"
"74486094789","2020-06-15T02:51:00","FM-15","7",,"ESE","1.5","mi","TEMP, PRECIP, SNOW",,,"PSY, SRG, SNOWBOARD",,,"FAA CWO",,,,,,,,,,,,,,,,,,,,,,,,,,,"30.37","49","58","0.00",,,,"72","30.37","CLR:00","30.35","10.00","53","020",,"7",,,,,,,,,,,,,,,,,,,,,,,,,,,,,,,,,,,,,"MET09506/15/20 02:51:02 METAR KJFK 150751Z 02006KT 10SM CLR 14/09 A3037 RMK AO2 SLP285 T01440094 (JC)","FM-15","7",,,,,,,,,,,,,,,,,,,,,,,,,,,,"2009-05-01"
"74486094789","2020-06-15T03:51:00","FM-15","7",,"ESE","1.5","mi","TEMP, PRECIP, SNOW",,,"PSY, SRG, SNOWBOARD",,,"FAA CWO",,,,,,,,,,,,,,,,,,,,,,,,,,,"30.38","50","57","0.00",,"-0.00","3","78","30.38","CLR:00","30.35","10.00","53","020",,"5",,,,,,,,,,,,,,,,,,,,,,,,,,,,,,,,,,,,,"MET10106/15/20 03:51:02 METAR KJFK 150851Z 02004KT 10SM CLR 14/10 A3038 RMK AO2 SLP288 T01390100 53001 (JC)","FM-15","7",,,,,,,,,,,,,,,,,,,,,,,,,,,,"2009-05-01"
"74486094789","2020-06-15T04:00:00","FM-12","4",,"ESE","1.5","mi","TEMP, PRECIP, SNOW",,,"PSY, SRG, SNOWBOARD",,,"FAA CWO",,,,,,,,,,,,,,,,,,,,,,,,,,,,"50","57",,,"-0.00","3","78","30.38",,"30.35","9.94","53","020",,"5",,,,,,,,,,,,,,,,,,,,,,,,,,,,,,,,,,,,,"SYN06474486 32966 00204 10139 20100 30276 40288 53001 90851 555 91509=","FM-12","4",,,,,,,,,,,,,,,,,,,,,,,,,,,,"2009-05-01"
"74486094789","2020-06-15T04:51:00","FM-15","7",,"ESE","1.5","mi","TEMP, PRECIP, SNOW",,,"PSY, SRG, SNOWBOARD",,,"FAA CWO",,,,,,,,,,,,,,,,,,,,,,,,,,,"30.40","53","58","0.00",,,,"84","30.40","FEW:02 250","30.37","10.00","55","360",,"8",,,,,,,,,,,,,,,,,,,,,,,,,,,,,,,,,,,,,"MET09806/15/20 04:51:02 METAR KJFK 150951Z 36007KT 10SM FEW250 14/12 A3040 RMK AO2 SLP293 T01440117 (JC)","FM-15","7",,,,,,,,,,,,,,,,,,,,,,,,,,,,"2009-05-01"
"74486094789","2020-06-15T05:51:00","FM-15","7",,"ESE","1.5","mi","TEMP, PRECIP, SNOW",,,"PSY, SRG, SNOWBOARD",,,"FAA CWO",,,,,,,,,,,,,,,,,,,,,,,,,,,"30.41","53","61","0.00",,,,"75","30.41","FEW:02 180 SCT:04 250","30.38","10.00","57","040",,"9",,,,,,,,,,,,,,,,,,,,,,,,,,,,,,,,,,,,,"MET10506/15/20 05:51:02 METAR KJFK 151051Z 04008KT 10SM FEW180 SCT250 16/12 A3041 RMK AO2 SLP298 T01610117 (BH)","FM-15","7",,,,,,,,,,,,,,,,,,,,,,,,,,,,"2009-05-01"
"74486094789","2020-06-15T06:51:00","FM-15","7",,"ESE","1.5","mi","TEMP, PRECIP, SNOW",,,"PSY, SRG, SNOWBOARD",,,"FAA CWO",,,,,,,,,,,,,,,,,,,,,,,,,,,"30.42","51","64","0.00",,"-0.04","1","63","30.41","FEW:02 180 BKN:07 250","30.40","10.00","57","040",,"11",,,,,,,,,,,,,,,,,,,,,,,,,,,,,,,,,,,,,"MET12306/15/20 06:51:02 METAR KJFK 151151Z 04010KT 10SM FEW180 BKN250 18/11 A3042 RMK AO2 SLP299 T01780106 10178 20133 51012 (BH)","FM-15","7",,,,,,,,,,,,,,,,,,,,,,,,,,,,"2009-05-01"
"74486094789","2020-06-15T07:00:00","FM-12","4",,"ESE","1.5","mi","TEMP, PRECIP, SNOW",,,"PSY, SRG, SNOWBOARD",,,"FAA CWO",,,,,,,,,,,,,,,,,,,,,,,,,,,,"51","64",,,"-0.04","1","63","30.41",,"30.39","9.94","57","040",,"11",,,,,,,,,,,,,,,,,,,,,,,,,,,,,,,,,,,,,"SYN08074486 32966 60410 10178 20106 30290 40299 51012 91151 333 10217 20133 555 91512=","FM-12","4",,,,,,,,,,,,,,,,,,,,,,,,,,,,"2009-05-01"
"74486094789","2020-06-15T07:51:00","FM-15","7",,"ESE","1.5","mi","TEMP, PRECIP, SNOW",,,"PSY, SRG, SNOWBOARD",,,"FAA CWO",,,,,,,,,,,,,,,,,,,,,,,,,,,"30.44","50","67","0.00",,,,"55","30.43","BKN:07 320","30.42","10.00","58","040",,"10",,,,,,,,,,,,,,,,,,,,,,,,,,,,,,,,,,,,,"MET09806/15/20 07:51:02 METAR KJFK 151251Z 04009KT 10SM BKN320 19/10 A3044 RMK AO2 SLP306 T01940100 (BH)","FM-15","7",,,,,,,,,,,,,,,,,,,,,,,,,,,,"2009-05-01"
"74486094789","2020-06-15T08:51:00","FM-15","7",,"ESE","1.5","mi","TEMP, PRECIP, SNOW",,,"PSY, SRG, SNOWBOARD",,,"FAA CWO",,,,,,,,,,,,,,,,,,,,,,,,,,,"30.42","49","69","0.00",,,,"49","30.42","FEW:02 35 FEW:02 180 BKN:07 320","30.40","10.00","58","070",,"10",,,,,,,,,,,,,,,,,,,,,,,,,,,,,,,,,,,,,"MET11206/15/20 08:51:02 METAR KJFK 151351Z 07009KT 10SM FEW035 FEW180 BKN320 21/09 A3042 RMK AO2 SLP302 T02060094 (BH)","FM-15","7",,,,,,,,,,,,,,,,,,,,,,,,,,,,"2009-05-01"
"74486094789","2020-06-15T09:51:00","FM-15","7",,"ESE","1.5","mi","TEMP, PRECIP, SNOW",,,"PSY, SRG, SNOWBOARD",,,"FAA CWO",,,,,,,,,,,,,,,,,,,,,,,,,,,"30.42","47","71","0.00",,"-0.00","0","42","30.42","FEW:02 35 BKN:07 320","30.40","10.00","58","050",,"11",,,,,,,,,,,,,,,,,,,,,,,,,,,,,,,,,,,,,"MET11106/15/20 09:51:02 METAR KJFK 151451Z 05010KT 10SM FEW035 BKN320 22/08 A3042 RMK AO2 SLP300 T02170083 50001 (BH)","FM-15","7",,,,,,,,,,,,,,,,,,,,,,,,,,,,"2009-05-01"
"74486094789","2020-06-15T10:00:00","FM-12","4",,"ESE","1.5","mi","TEMP, PRECIP, SNOW",,,"PSY, SRG, SNOWBOARD",,,"FAA CWO",,,,,,,,,,,,,,,,,,,,,,,,,,,,"47","71",,,"0.00","9","42","30.42","41","30.39","9.94","58","050",,"11",,,,,,,,,,,,,,,,,,,,,,,,,,,,,,,,,,,,,"SYN06474486 32666 60510 10217 20083 30290 40300 50001 91451 555 91515=","FM-12","4",,,,,,,,,,,,,,,,,,,,,,,,,,,,"2009-05-01"
"74486094789","2020-06-15T10:51:00","FM-15","7",,"ESE","1.5","mi","TEMP, PRECIP, SNOW",,,"PSY, SRG, SNOWBOARD",,,"FAA CWO",,,,,,,,,,,,,,,,,,,,,,,,,,,"30.42","56","70","0.00",,,,"61","30.42","FEW:02 47 BKN:07 300","30.40","10.00","62","180",,"7",,,,,,,,,,,,,,,,,,,,,,,,,,,,,,,,,,,,,"MET10506/15/20 10:51:02 METAR KJFK 151551Z 18006KT 10SM FEW047 BKN300 21/13 A3042 RMK AO2 SLP300 T02110133 (BH)","FM-15","7",,,,,,,,,,,,,,,,,,,,,,,,,,,,"2009-05-01"
"74486094789","2020-06-15T11:51:00","FM-15","7",,"ESE","1.5","mi","TEMP, PRECIP, SNOW",,,"PSY, SRG, SNOWBOARD",,,"FAA CWO",,,,,,,,,,,,,,,,,,,,,,,,,,,"30.42","57","66","0.00",,,,"73","30.41","FEW:02 50 FEW:02 160 BKN:07 300","30.40","10.00","61","140",,"11",,,,,,,,,,,,,,,,,,,,,,,,,,,,,,,,,,,,,"MET11206/15/20 11:51:02 METAR KJFK 151651Z 14010KT 10SM FEW050 FEW160 BKN300 19/14 A3042 RMK AO2 SLP299 T01890139 (BH)","FM-15","7",,,,,,,,,,,,,,,,,,,,,,,,,,,,"2009-05-01"
"74486094789","2020-06-15T12:51:00","FM-15","7",,"ESE","1.5","mi","TEMP, PRECIP, SNOW",,,"PSY, SRG, SNOWBOARD",,,"FAA CWO",,,,,,,,,,,,,,,,,,,,,,,,,,,"30.40","56","69","0.00",,"+0.02","8","63","30.40","FEW:02 50 FEW:02 160 BKN:07 270","30.37","10.00","61","130",,"10",,,,,,,,,,,,,,,,,,,,,,,,,,,,,,,,,,,,,"MET13006/15/20 12:51:02 METAR KJFK 151751Z 13009KT 10SM FEW050 FEW160 BKN270 21/13 A3040 RMK AO2 SLP294 T02060133 10228 20178 58006 (BH)","FM-15","7",,,,,,,,,,,,,,,,,,,,,,,,,,,,"2009-05-01"
"74486094789","2020-06-15T13:00:00","FM-12","4",,"ESE","1.5","mi","TEMP, PRECIP, SNOW",,,"PSY, SRG, SNOWBOARD",,,"FAA CWO",,,,,,,,,,,,,,,,,,,,,,,,,,,,"56","69",,,"+0.02","8","63","30.40","57","30.37","9.94","61","130",,"10",,,,,,,,,,,,,,,,,,,,,,,,,,,,,,,,,,,,,"SYN08074486 32766 61309 10206 20133 30283 40294 58006 91751 333 10228 20178 555 91518=","FM-12","4",,,,,,,,,,,,,,,,,,,,,,,,,,,,"2009-05-01"
"74486094789","2020-06-15T13:51:00","FM-15","7",,"ESE","1.5","mi","TEMP, PRECIP, SNOW",,,"PSY, SRG, SNOWBOARD",,,"FAA CWO",,,,,,,,,,,,,,,,,,,,,,,,,,,"30.39","55","70","0.00",,,,"59","30.39","FEW:02 32 FEW:02 47 BKN:07 250","30.37","10.00","61","140",,"10",,,,,,,,,,,,,,,,,,,,,,,,,,,,,,,,,,,,,"MET11206/15/20 13:51:02 METAR KJFK 151851Z 14009KT 10SM FEW032 FEW047 BKN250 21/13 A3039 RMK AO2 SLP290 T02110128 (RR)","FM-15","7",,,,,,,,,,,,,,,,,,,,,,,,,,,,"2009-05-01"
"74486094789","2020-06-15T14:51:00","FM-15","7",,"ESE","1.5","mi","TEMP, PRECIP, SNOW",,,"PSY, SRG, SNOWBOARD",,,"FAA CWO",,,,,,,,,,,,,,,,,,,,,,,,,,,"30.39","57","68","0.00",,,,"68","30.39","FEW:02 35 FEW:02 50 BKN:07 250","30.37","10.00","62","150",,"15",,,,,,,,,,,,,,,,,,,,,,,,,,,,,,,,,,,,,"MET11206/15/20 14:51:02 METAR KJFK 151951Z 15013KT 10SM FEW035 FEW050 BKN250 20/14 A3039 RMK AO2 SLP291 T02000139 (RR)","FM-15","7",,,,,,,,,,,,,,,,,,,,,,,,,,,,"2009-05-01"
"74486094789","2020-06-15T15:51:00","FM-15","7",,"ESE","1.5","mi","TEMP, PRECIP, SNOW",,,"PSY, SRG, SNOWBOARD",,,"FAA CWO",,,,,,,,,,,,,,,,,,,,,,,,,,,"30.38","57","69","0.00",,"+0.02","8","66","30.37","FEW:02 35 FEW:02 60 BKN:07 250","30.35","10.00","62","180",,"8",,,,,,,,,,,,,,,,,,,,,,,,,,,,,,,,,,,,,"MET11806/15/20 15:51:02 METAR KJFK 152051Z 18007KT 10SM FEW035 FEW060 BKN250 21/14 A3038 RMK AO2 SLP286 T02060139 58008 (RR)","FM-15","7",,,,,,,,,,,,,,,,,,,,,,,,,,,,"2009-05-01"
"74486094789","2020-06-15T16:00:00","FM-12","4",,"ESE","1.5","mi","TEMP, PRECIP, SNOW",,,"PSY, SRG, SNOWBOARD",,,"FAA CWO",,,,,,,,,,,,,,,,,,,,,,,,,,,,"57","69",,,"+0.02","8","66","30.37","41","30.35","9.94","62","180",,"8",,,,,,,,,,,,,,,,,,,,,,,,,,,,,,,,,,,,,"SYN06474486 32666 61807 10206 20139 30276 40286 58008 92051 555 91521=","FM-12","4",,,,,,,,,,,,,,,,,,,,,,,,,,,,"2009-05-01"
"74486094789","2020-06-15T16:51:00","FM-15","7",,"ESE","1.5","mi","TEMP, PRECIP, SNOW",,,"PSY, SRG, SNOWBOARD",,,"FAA CWO",,,,,,,,,,,,,,,,,,,,,,,,,,,"30.37","57","67","0.00",,,,"71","30.37","FEW:02 35 FEW:02 60 BKN:07 250","30.35","10.00","61","140",,"13",,,,,,,,,,,,,,,,,,,,,,,,,,,,,,,,,,,,,"MET11206/15/20 16:51:02 METAR KJFK 152151Z 14011KT 10SM FEW035 FEW060 BKN250 19/14 A3037 RMK AO2 SLP284 T01940139 (RR)","FM-15","7",,,,,,,,,,,,,,,,,,,,,,,,,,,,"2009-05-01"
"74486094789","2020-06-15T17:51:00","FM-15","7",,"ESE","1.5","mi","TEMP, PRECIP, SNOW",,,"PSY, SRG, SNOWBOARD",,,"FAA CWO",,,,,,,,,,,,,,,,,,,,,,,,,,,"30.37","56","66","0.00",,,,"70","30.37","FEW:02 35 FEW:02 60 BKN:07 250","30.35","10.00","60","140",,"9",,,,,,,,,,,,,,,,,,,,,,,,,,,,,,,,,,,,,"MET11206/15/20 17:51:02 METAR KJFK 152251Z 14008KT 10SM FEW035 FEW060 BKN250 19/13 A3037 RMK AO2 SLP285 T01890133 (RR)","FM-15","7",,,,,,,,,,,,,,,,,,,,,,,,,,,,"2009-05-01"
"74486094789","2020-06-15T18:51:00","FM-15","7",,"ESE","1.5","mi","TEMP, PRECIP, SNOW",,,"PSY, SRG, SNOWBOARD",,,"FAA CWO",,,,,,,,,,,,,,,,,,,,,,,,,,,"30.38","54","64","0.00",,"-0.01","3","70","30.38","FEW:02 35 BKN:07 250","30.35","10.00","58","130",,"8",,,,,,,,,,,,,,,,,,,,,,,,,,,,,,,,,,,,,"MET12306/15/20 18:51:02 METAR KJFK 152351Z 13007KT 10SM FEW035 BKN250 18/12 A3038 RMK AO2 SLP288 T01780122 10217 20178 53003 (RR)","FM-15","7",,,,,,,,,,,,,,,,,,,,,,,,,,,,"2009-05-01"
"74486094789","2020-06-15T19:00:00","FM-12","4",,"ESE","1.5","mi","TEMP, PRECIP, SNOW",,,"PSY, SRG, SNOWBOARD",,,"FAA CWO",,,,,,,,,,,,,,,,,,,,,,,,,,,,"54","64",,,"-0.01","3","70","30.38","41","30.35","9.94","58","130",,"8",,,,,,,,,,,,,,,,,,,,,,,,,,,,,,,,,,,,,"SYN08074486 32666 61307 10178 20122 30276 40288 53003 92351 333 10228 20133 555 91600=","FM-12","4",,,,,,,,,,,,,,,,,,,,,,,,,,,,"2009-05-01"
"74486094789","2020-06-15T19:51:00","FM-15","7",,"ESE","1.5","mi","TEMP, PRECIP, SNOW",,,"PSY, SRG, SNOWBOARD",,,"FAA CWO",,,,,,,,,,,,,,,,,,,,,,,,,,,"30.39","56","62","0.00",,,,"80","30.38","BKN:07 250","30.37","10.00","59","130",,"7",,,,,,,,,,,,,,,,,,,,,,,,,,,,,,,,,,,,,"MET09306/15/20 19:51:01 METAR KJFK 160051Z 13006KT 10SM BKN250 17/13 A3039 RMK AO2 SLP289 T01670133","FM-15","7",,,,,,,,,,,,,,,,,,,,,,,,,,,,"2009-05-01"
"74486094789","2020-06-15T20:51:00","FM-15","7",,"ESE","1.5","mi","TEMP, PRECIP, SNOW",,,"PSY, SRG, SNOWBOARD",,,"FAA CWO",,,,,,,,,,,,,,,,,,,,,,,,,,,"30.40","55","61","0.00",,,,"81","30.39","BKN:07 250","30.37","10.00","58","120",,"5",,,,,,,,,,,,,,,,,,,,,,,,,,,,,,,,,,,,,"MET09306/15/20 20:51:01 METAR KJFK 160151Z 12004KT 10SM BKN250 16/13 A3040 RMK AO2 SLP292 T01610128","FM-15","7",,,,,,,,,,,,,,,,,,,,,,,,,,,,"2009-05-01"
"74486094789","2020-06-15T21:51:00","FM-15","7",,"ESE","1.5","mi","TEMP, PRECIP, SNOW",,,"PSY, SRG, SNOWBOARD",,,"FAA CWO",,,,,,,,,,,,,,,,,,,,,,,,,,,"30.39","55","60","0.00",,"-0.01","0","84","30.39","BKN:07 250","30.37","10.00","57","100",,"5",,,,,,,,,,,,,,,,,,,,,,,,,,,,,,,,,,,,,"MET09906/15/20 21:51:01 METAR KJFK 160251Z 10004KT 10SM BKN250 16/13 A3039 RMK AO2 SLP291 T01560128 50003","FM-15","7",,,,,,,,,,,,,,,,,,,,,,,,,,,,"2009-05-01"
"74486094789","2020-06-15T22:00:00","FM-12","4",,"ESE","1.5","mi","TEMP, PRECIP, SNOW",,,"PSY, SRG, SNOWBOARD",,,"FAA CWO",,,,,,,,,,,,,,,,,,,,,,,,,,,,"55","60",,,"0.01","9","84","30.39",,"30.36","9.94","57","100",,"5",,,,,,,,,,,,,,,,,,,,,,,,,,,,,,,,,,,,,"SYN06474486 32966 61004 10156 20128 30280 40291 50003 90251 555 91603=","FM-12","4",,,,,,,,,,,,,,,,,,,,,,,,,,,,"2009-05-01"
"74486094789","2020-06-15T22:51:00","FM-15","7",,"ESE","1.5","mi","TEMP, PRECIP, SNOW",,,"PSY, SRG, SNOWBOARD",,,"FAA CWO",,,,,,,,,,,,,,,,,,,,,,,,,,,"30.39","54","60","0.00",,,,"80","30.39","SCT:04 250","30.37","10.00","57","000",,"0",,,,,,,,,,,,,,,,,,,,,,,,,,,,,,,,,,,,,"MET09306/15/20 22:51:02 METAR KJFK 160351Z 00000KT 10SM SCT250 16/12 A3039 RMK AO2 SLP290 T01560122","FM-15","7",,,,,,,,,,,,,,,,,,,,,,,,,,,,"2009-05-01"
"74486094789","2020-06-15T23:51:00","FM-15","7",,"ESE","1.5","mi","TEMP, PRECIP, SNOW",,,"PSY, SRG, SNOWBOARD",,,"FAA CWO",,,,,,,,,,,,,,,,,,,,,,,,,,,"30.39","54","60","0.00",,,,"80","30.39","BKN:07 250","30.37","10.00","57","030",,"3",,,,,,,,,,,,,,,,,,,,,,,,,,,,,,,,,,,,,"MET10306/15/20 23:51:02 METAR KJFK 160451Z 03003KT 10SM BKN250 16/12 A3039 RMK AO2 SLP290 T01560122 402280133","FM-15","7",,,,,,,,,,,,,,,,,,,,,,,,,,,,"2009-05-01"
"74486094789","2020-06-15T23:59:00","SOD  ","6",,"ESE","1.5","mi","TEMP, PRECIP, SNOW",,,"PSY, SRG, SNOWBOARD",,,"FAA CWO",,,,"53","65","70","30.39","30.37","58","8.1","0","-5.4","0","73","56","010","22","0.00","0","0.0","150","15",,,,,,,,,,,,,,,,,,,,,,,,,,,,,,,,,,,,,,,,,,,,,,,,,,,,,,,,,"SOD73924 HR PRECIPITATION (IN): 0.00 SNOW DEPTH (IN):0     24 HR SNOWFALL (IN):0.0  24 HR MAX TEMP (F): 7324 HR MIN TEMP (F): 56AVERAGE STATION PRESSURE:30.365 MINIMUM SEA LEVEL PRESSURE:30.37 TIME OF OCCURRENCE:1819 PEAK WIND SPEED (MPH): 22 PEAK WIND DIR (DEG): 10 PEAK WIND TIME (LST):      FASTEST 2MIN SPEED (MPH): 15FASTEST 2MIN DIR (DEG):150 FASTEST 2MIN TIME (LST):     AVERAGE WIND SPEED (MPH): 8.1 24 HR AVG TEMP (F): 65DEPART FROM NORMAL: -5  HEATING DEGREE DAYS:  0 COOLING DEGREE DAYS:  0 LATEST DAY MAX TEMP (0700-1900 LST):73  LATEST NIGHT MIN TEMP(1900-0800 LST):56 HOURLY INCREMENTAL PRECIPITATION VALUES (IN):.00 0.00 0.00 0.00 0.00 0.00 0.00 0.00 0.00 0.00 0.00 0.00 0.00 0.00 0.00 0.00 0.00 0.00 0.00 0.00 0.00 0.00 0.00 0.00","SOD  ","6",,,,,,,,,,,,,,,,,,,,,,,,,"0424","1928",,"2009-05-01"
"74486094789","2020-06-16T00:51:00","FM-15","7",,"ESE","1.5","mi","TEMP, PRECIP, SNOW",,,"PSY, SRG, SNOWBOARD",,,"FAA CWO",,,,,,,,,,,,,,,,,,,,,,,,,,,"30.38","54","59","0.00",,"+0.01","8","83","30.38","SCT:04 250","30.35","10.00","56","360",,"5",,,,,,,,,,,,,,,,,,,,,,,,,,,,,,,,,,,,,"MET11606/16/20 00:51:02 METAR KJFK 160551Z 36004KT 10SM SCT250 15/12 A3038 RMK AO2 SLP288 T01500122 10178 20150 58003 (JC)","FM-15","7",,,,,,,,,,,,,,,,,,,,,,,,,,,,"2009-05-01"
"74486094789","2020-06-16T01:00:00","FM-12","4",,"ESE","1.5","mi","TEMP, PRECIP, SNOW",,,"PSY, SRG, SNOWBOARD",,,"FAA CWO",,,,,,,,,,,,,,,,,,,,,,,,,,,,"54","59",,,"+0.01","8","83","30.38",,"30.35","9.94","56","360",,"5",,,,,,,,,,,,,,,,,,,,,,,,,,,,,,,,,,,,,"SYN08074486 32966 43604 10150 20122 30276 40288 58003 90551 333 10178 20133 555 91606=","FM-12","4",,,,,,,,,,,,,,,,,,,,,,,,,,,,"2009-05-01"
"74486094789","2020-06-16T01:51:00","FM-15","7",,"ESE","1.5","mi","TEMP, PRECIP, SNOW",,,"PSY, SRG, SNOWBOARD",,,"FAA CWO",,,,,,,,,,,,,,,,,,,,,,,,,,,"30.38","54","59","0.00",,,,"83","30.37","SCT:04 250","30.35","10.00","56","010",,"3",,,,,,,,,,,,,,,,,,,,,,,,,,,,,,,,,,,,,"MET09806/16/20 01:51:02 METAR KJFK 160651Z 01003KT 10SM SCT250 15/12 A3038 RMK AO2 SLP286 T01500122 (JC)","FM-15","7",,,,,,,,,,,,,,,,,,,,,,,,,,,,"2009-05-01"
"74486094789","2020-06-16T02:51:00","FM-15","7",,"ESE","1.5","mi","TEMP, PRECIP, SNOW",,,"PSY, SRG, SNOWBOARD",,,"FAA CWO",,,,,,,,,,,,,,,,,,,,,,,,,,,"30.37","53","58","0.00",,,,"84","30.37","BKN:07 250","30.35","10.00","55","020",,"5",,,,,,,,,,,,,,,,,,,,,,,,,,,,,,,,,,,,,"MET09806/16/20 02:51:02 METAR KJFK 160751Z 02004KT 10SM BKN250 14/12 A3037 RMK AO2 SLP284 T01440117 (JC)","FM-15","7",,,,,,,,,,,,,,,,,,,,,,,,,,,,"2009-05-01"
"74486094789","2020-06-16T03:51:00","FM-15","7",,"ESE","1.5","mi","TEMP, PRECIP, SNOW",,,"PSY, SRG, SNOWBOARD",,,"FAA CWO",,,,,,,,,,,,,,,,,,,,,,,,,,,"30.36","52","58","0.00",,"+0.02","8","81","30.36","BKN:07 250","30.34","10.00","55","360",,"7",,,,,,,,,,,,,,,,,,,,,,,,,,,,,,,,,,,,,"MET10406/16/20 03:51:02 METAR KJFK 160851Z 36006KT 10SM BKN250 14/11 A3036 RMK AO2 SLP282 T01440111 58006 (JC)","FM-15","7",,,,,,,,,,,,,,,,,,,,,,,,,,,,"2009-05-01"
"74486094789","2020-06-16T04:00:00","FM-12","4",,"ESE","1.5","mi","TEMP, PRECIP, SNOW",,,"PSY, SRG, SNOWBOARD",,,"FAA CWO",,,,,,,,,,,,,,,,,,,,,,,,,,,,"52","58",,,"+0.02","8","81","30.36",,"30.33","9.94","55","360",,"7",,,,,,,,,,,,,,,,,,,,,,,,,,,,,,,,,,,,,"SYN06474486 32966 63606 10144 20111 30270 40282 58006 90851 555 91609=","FM-12","4",,,,,,,,,,,,,,,,,,,,,,,,,,,,"2009-05-01"
"74486094789","2020-06-16T04:51:00","FM-15","7",,"ESE","1.5","mi","TEMP, PRECIP, SNOW",,,"PSY, SRG, SNOWBOARD",,,"FAA CWO",,,,,,,,,,,,,,,,,,,,,,,,,,,"30.37","55","59","0.00",,,,"87","30.37","FEW:02 160 BKN:07 250","30.35","10.00","57","360",,"7",,,,,,,,,,,,,,,,,,,,,,,,,,,,,,,,,,,,,"MET10506/16/20 04:51:02 METAR KJFK 160951Z 36006KT 10SM FEW160 BKN250 15/13 A3037 RMK AO2 SLP285 T01500128 (JC)","FM-15","7",,,,,,,,,,,,,,,,,,,,,,,,,,,,"2009-05-01"
"74486094789","2020-06-16T05:51:00","FM-15","7",,"ESE","1.5","mi","TEMP, PRECIP, SNOW",,,"PSY, SRG, SNOWBOARD",,,"FAA CWO",,,,,,,,,,,,,,,,,,,,,,,,,,,"30.38","54","62","0.00",,,,"75","30.38","FEW:02 160 BKN:07 250","30.35","10.00","58","360",,"9",,,,,,,,,,,,,,,,,,,,,,,,,,,,,,,,,,,,,"MET10506/16/20 05:51:02 METAR KJFK 161051Z 36008KT 10SM FEW160 BKN250 17/12 A3038 RMK AO2 SLP287 T01670122 (BH)","FM-15","7",,,,,,,,,,,,,,,,,,,,,,,,,,,,"2009-05-01"
"74486094789","2020-06-16T06:51:00","FM-15","7",,"ESE","1.5","mi","TEMP, PRECIP, SNOW",,,"PSY, SRG, SNOWBOARD",,,"FAA CWO",,,,,,,,,,,,,,,,,,,,,,,,,,,"30.39","54","67","0.00",,"-0.03","3","63","30.39","FEW:02 160 SCT:04 250","30.37","10.00","60","020",,"9",,,,,,,,,,,,,,,,,,,,,,,,,,,,,,,,,,,,,"MET12306/16/20 06:51:02 METAR KJFK 161151Z 02008KT 10SM FEW160 SCT250 19/12 A3039 RMK AO2 SLP291 T01940122 10194 20144 53009 (BH)","FM-15","7",,,,,,,,,,,,,,,,,,,,,,,,,,,,"2009-05-01"
"74486094789","2020-06-16T07:00:00","FM-12","4",,"ESE","1.5","mi","TEMP, PRECIP, SNOW",,,"PSY, SRG, SNOWBOARD",,,"FAA CWO",,,,,,,,,,,,,,,,,,,,,,,,,,,,"54","67",,,"-0.03","3","63","30.39",,"30.36","9.94","60","020",,"9",,,,,,,,,,,,,,,,,,,,,,,,,,,,,,,,,,,,,"SYN08074486 32966 40208 10194 20122 30280 40291 53009 91151 333 10228 20144 555 91612=","FM-12","4",,,,,,,,,,,,,,,,,,,,,,,,,,,,"2009-05-01"
"74486094789","2020-06-16T07:51:00","FM-15","7",,"ESE","1.5","mi","TEMP, PRECIP, SNOW",,,"PSY, SRG, SNOWBOARD",,,"FAA CWO",,,,,,,,,,,,,,,,,,,,,,,,,,,"30.39","50","69","0.00",,,,"51","30.39","FEW:02 160 SCT:04 250","30.37","10.00","58","040",,"15",,,,,,,,,,,,,,,,,,,,,,,,,,,,,,,,,,,,,"MET10506/16/20 07:51:02 METAR KJFK 161251Z 04013KT 10SM FEW160 SCT250 21/10 A3039 RMK AO2 SLP291 T02060100 (BH)","FM-15","7",,,,,,,,,,,,,,,,,,,,,,,,,,,,"2009-05-01"
"74486094789","2020-06-16T08:51:00","FM-15","7",,"ESE","1.5","mi","TEMP, PRECIP, SNOW",,,"PSY, SRG, SNOWBOARD",,,"FAA CWO",,,,,,,,,,,,,,,,,,,,,,,,,,,"30.39","49","72","0.00",,,,"44","30.39","FEW:02 50 FEW:02 160 SCT:04 250","30.37","10.00","59","030","17","11",,,,,,,,,,,,,,,,,,,,,,,,,,,,,,,,,,,,,"MET11506/16/20 08:51:02 METAR KJFK 161351Z 03010G15KT 10SM FEW050 FEW160 SCT250 22/09 A3039 RMK AO2 SLP292 T02220094 (BH)","FM-15","7",,,,,,,,,,,,,,,,,,,,,,,,,,,,"2009-05-01"
"74486094789","2020-06-16T09:51:00","FM-15","7",,"ESE","1.5","mi","TEMP, PRECIP, SNOW",,,"PSY, SRG, SNOWBOARD",,,"FAA CWO",,,,,,,,,,,,,,,,,,,,,,,,,,,"30.39","47","73","0.00",,"+0.00","8","40","30.39","FEW:02 55 FEW:02 160 SCT:04 250","30.37","10.00","59","050","22","10",,,,,,,,,,,,,,,,,,,,,,,,,,,,,,,,,,,,,"MET12106/16/20 09:51:02 METAR KJFK 161451Z 05009G19KT 10SM FEW055 FEW160 SCT250 23/08 A3039 RMK AO2 SLP290 T02280083 58000 (BH)","FM-15","7",,,,,,,,,,,,,,,,,,,,,,,,,,,,"2009-05-01"
"74486094789","2020-06-16T10:00:00","FM-12","4",,"ESE","1.5","mi","TEMP, PRECIP, SNOW",,,"PSY, SRG, SNOWBOARD",,,"FAA CWO",,,,,,,,,,,,,,,,,,,,,,,,,,,,"47","73",,,"+0.00","7","40","30.39","57","30.36","9.94","59","050",,"10",,,,,,,,,,,,,,,,,,,,,,,,,,,,,,,,,,,,,"SYN07474486 32766 40509 10228 20083 30280 40290 58000 91451 333 91019 555 91615=","FM-12","4",,,,,,,,,,,,,,,,,,,,,,,,,,,,"2009-05-01"
"74486094789","2020-06-16T10:51:00","FM-15","7",,"ESE","1.5","mi","TEMP, PRECIP, SNOW",,,"PSY, SRG, SNOWBOARD",,,"FAA CWO",,,,,,,,,,,,,,,,,,,,,,,,,,,"30.38","45","75","0.00",,,,"34","30.38","FEW:02 60 FEW:02 160 SCT:04 250","30.35","10.00","59","050","24","16",,,,,,,,,,,,,,,,,,,,,,,,,,,,,,,,,,,,,"MET11506/16/20 10:51:02 METAR KJFK 161551Z 05014G21KT 10SM FEW060 FEW160 SCT250 24/07 A3038 RMK AO2 SLP289 T02390072 (BH)","FM-15","7",,,,,,,,,,,,,,,,,,,,,,,,,,,,"2009-05-01"
"74486094789","2020-06-16T11:51:00","FM-15","7",,"ESE","1.5","mi","TEMP, PRECIP, SNOW",,,"PSY, SRG, SNOWBOARD",,,"FAA CWO",,,,,,,,,,,,,,,,,,,,,,,,,,,"30.38","54","73","0.00",,,,"51","30.38","FEW:02 60 FEW:02 160 SCT:04 250","30.35","10.00","62","110",,"10",,,,,,,,,,,,,,,,,,,,,,,,,,,,,,,,,,,,,"MET11206/16/20 11:51:02 METAR KJFK 161651Z 11009KT 10SM FEW060 FEW160 SCT250 23/12 A3038 RMK AO2 SLP287 T02280122 (BH)","FM-15","7",,,,,,,,,,,,,,,,,,,,,,,,,,,,"2009-05-01"
"74486094789","2020-06-16T12:51:00","FM-15","7",,"ESE","1.5","mi","TEMP, PRECIP, SNOW",,,"PSY, SRG, SNOWBOARD",,,"FAA CWO",,,,,,,,,,,,,,,,,,,,,,,,,,,"30.37","52","72","0.00",,"+0.02","8","50","30.37","FEW:02 60 FEW:02 160 BKN:07 250","30.35","10.00","61","130",,"15",,,,,,,,,,,,,,,,,,,,,,,,,,,,,,,,,,,,,"MET13006/16/20 12:51:02 METAR KJFK 161751Z 13013KT 10SM FEW060 FEW160 BKN250 22/11 A3037 RMK AO2 SLP284 T02220111 10244 20194 58007 (BH)","FM-15","7",,,,,,,,,,,,,,,,,,,,,,,,,,,,"2009-05-01"
"74486094789","2020-06-16T13:00:00","FM-12","4",,"ESE","1.5","mi","TEMP, PRECIP, SNOW",,,"PSY, SRG, SNOWBOARD",,,"FAA CWO",,,,,,,,,,,,,,,,,,,,,,,,,,,,"52","72",,,"+0.02","8","50","30.37","57","30.34","9.94","61","130",,"15",,,,,,,,,,,,,,,,,,,,,,,,,,,,,,,,,,,,,"SYN08074486 32766 61313 10222 20111 30273 40284 58007 91751 333 10244 20178 555 91618=","FM-12","4",,,,,,,,,,,,,,,,,,,,,,,,,,,,"2009-05-01"
"74486094789","2020-06-16T13:51:00","FM-15","7",,"ESE","1.5","mi","TEMP, PRECIP, SNOW",,,"PSY, SRG, SNOWBOARD",,,"FAA CWO",,,,,,,,,,,,,,,,,,,,,,,,,,,"30.36","53","72","0.00",,,,"52","30.36","FEW:02 60 FEW:02 160 BKN:07 250","30.34","10.00","61","130",,"17",,,,,,,,,,,,,,,,,,,,,,,,,,,,,,,,,,,,,"MET11206/16/20 13:51:02 METAR KJFK 161851Z 13015KT 10SM FEW060 FEW160 BKN250 22/12 A3036 RMK AO2 SLP280 T02220117 (RR)","FM-15","7",,,,,,,,,,,,,,,,,,,,,,,,,,,,"2009-05-01"
"74486094789","2020-06-16T14:51:00","FM-15","7",,"ESE","1.5","mi","TEMP, PRECIP, SNOW",,,"PSY, SRG, SNOWBOARD",,,"FAA CWO",,,,,,,,,,,,,,,,,,,,,,,,,,,"30.35","56","72","0.00",,,,"57","30.34","FEW:02 60 FEW:02 150 BKN:07 250","30.32","10.00","63","120",,"17",,,,,,,,,,,,,,,,,,,,,,,,,,,,,,,,,,,,,"MET11206/16/20 14:51:02 METAR KJFK 161951Z 12015KT 10SM FEW060 FEW150 BKN250 22/13 A3035 RMK AO2 SLP275 T02220133 (RR)","FM-15","7",,,,,,,,,,,,,,,,,,,,,,,,,,,,"2009-05-01"
"74486094789","2020-06-16T15:51:00","FM-15","7",,"ESE","1.5","mi","TEMP, PRECIP, SNOW",,,"PSY, SRG, SNOWBOARD",,,"FAA CWO",,,,,,,,,,,,,,,,,,,,,,,,,,,"30.34","56","71","0.00",,"+0.03","6","59","30.34","FEW:02 60 FEW:02 150 BKN:07 250","30.32","10.00","62","120","22","16",,,,,,,,,,,,,,,,,,,,,,,,,,,,,,,,,,,,,"MET12106/16/20 15:51:02 METAR KJFK 162051Z 12014G19KT 10SM FEW060 FEW150 BKN250 22/13 A3034 RMK AO2 SLP274 T02170133 56010 (RR)","FM-15","7",,,,,,,,,,,,,,,,,,,,,,,,,,,,"2009-05-01"
"74486094789","2020-06-16T16:00:00","FM-12","4",,"ESE","1.5","mi","TEMP, PRECIP, SNOW",,,"PSY, SRG, SNOWBOARD",,,"FAA CWO",,,,,,,,,,,,,,,,,,,,,,,,,,,,"56","71",,,"+0.03","6","59","30.34","57","30.31","9.94","62","120",,"16",,,,,,,,,,,,,,,,,,,,,,,,,,,,,,,,,,,,,"SYN07474486 32766 61214 10217 20133 30263 40274 56010 92051 333 91019 555 91621=","FM-12","4",,,,,,,,,,,,,,,,,,,,,,,,,,,,"2009-05-01"
"74486094789","2020-06-16T16:51:00","FM-15","7",,"ESE","1.5","mi","TEMP, PRECIP, SNOW",,,"PSY, SRG, SNOWBOARD",,,"FAA CWO",,,,,,,,,,,,,,,,,,,,,,,,,,,"30.33","55","70","0.00",,,,"59","30.32","FEW:02 60 FEW:02 150 BKN:07 250","30.30","10.00","61","100",,"16",,,,,,,,,,,,,,,,,,,,,,,,,,,,,,,,,,,,,"MET11206/16/20 16:51:02 METAR KJFK 162151Z 10014KT 10SM FEW060 FEW150 BKN250 21/13 A3033 RMK AO2 SLP269 T02110128 (RR)","FM-15","7",,,,,,,,,,,,,,,,,,,,,,,,,,,,"2009-05-01"
"74486094789","2020-06-16T17:51:00","FM-15","7",,"ESE","1.5","mi","TEMP, PRECIP, SNOW",,,"PSY, SRG, SNOWBOARD",,,"FAA CWO",,,,,,,,,,,,,,,,,,,,,,,,,,,"30.32","55","69","0.00",,,,"61","30.31","FEW:02 150 BKN:07 250","30.29","10.00","61","110",,"9",,,,,,,,,,,,,,,,,,,,,,,,,,,,,,,,,,,,,"MET10506/16/20 17:51:02 METAR KJFK 162251Z 11008KT 10SM FEW150 BKN250 21/13 A3032 RMK AO2 SLP265 T02060128 (RR)","FM-15","7",,,,,,,,,,,,,,,,,,,,,,,,,,,,"2009-05-01"
"74486094789","2020-06-16T18:51:00","FM-15","7",,"ESE","1.5","mi","TEMP, PRECIP, SNOW",,,"PSY, SRG, SNOWBOARD",,,"FAA CWO",,,,,,,,,,,,,,,,,,,,,,,,,,,"30.32","53","67","0.00",,"+0.02","5","61","30.31","FEW:02 150 SCT:04 250","30.29","10.00","59","090",,"13",,,,,,,,,,,,,,,,,,,,,,,,,,,,,,,,,,,,,"MET12306/16/20 18:51:02 METAR KJFK 162351Z 09011KT 10SM FEW150 SCT250 19/12 A3032 RMK AO2 SLP265 T01940117 10233 20194 55008 (RR)","FM-15","7",,,,,,,,,,,,,,,,,,,,,,,,,,,,"2009-05-01"
"74486094789","2020-06-16T19:00:00","FM-12","4",,"ESE","1.5","mi","TEMP, PRECIP, SNOW",,,"PSY, SRG, SNOWBOARD",,,"FAA CWO",,,,,,,,,,,,,,,,,,,,,,,,,,,,"53","67",,,"+0.02","5","61","30.31",,"30.29","9.94","59","090",,"13",,,,,,,,,,,,,,,,,,,,,,,,,,,,,,,,,,,,,"SYN08074486 32966 40911 10194 20117 30256 40265 55008 92351 333 10244 20144 555 91700=","FM-12","4",,,,,,,,,,,,,,,,,,,,,,,,,,,,"2009-05-01"
"74486094789","2020-06-16T19:51:00","FM-15","7",,"ESE","1.5","mi","TEMP, PRECIP, SNOW",,,"PSY, SRG, SNOWBOARD",,,"FAA CWO",,,,,,,,,,,,,,,,,,,,,,,,,,,"30.31","54","64","0.00",,,,"70","30.31","SCT:04 250","30.29","10.00","58","100",,"6",,,,,,,,,,,,,,,,,,,,,,,,,,,,,,,,,,,,,"MET09306/16/20 19:51:01 METAR KJFK 170051Z 10005KT 10SM SCT250 18/12 A3031 RMK AO2 SLP264 T01780122","FM-15","7",,,,,,,,,,,,,,,,,,,,,,,,,,,,"2009-05-01"
"74486094789","2020-06-16T20:51:00","FM-15","7",,"ESE","1.5","mi","TEMP, PRECIP, SNOW",,,"PSY, SRG, SNOWBOARD",,,"FAA CWO",,,,,,,,,,,,,,,,,,,,,,,,,,,"30.32","54","63","0.00",,,,"73","30.31","SCT:04 250","30.29","10.00","58","090",,"6",,,,,,,,,,,,,,,,,,,,,,,,,,,,,,,,,,,,,"MET09306/16/20 20:51:01 METAR KJFK 170151Z 09005KT 10SM SCT250 17/12 A3032 RMK AO2 SLP265 T01720122","FM-15","7",,,,,,,,,,,,,,,,,,,,,,,,,,,,"2009-05-01"
"74486094789","2020-06-16T21:51:00","FM-15","7",,"ESE","1.5","mi","TEMP, PRECIP, SNOW",,,"PSY, SRG, SNOWBOARD",,,"FAA CWO",,,,,,,,,,,,,,,,,,,,,,,,,,,"30.32","54","63","0.00",,"-0.00","3","73","30.32","FEW:02 80 FEW:02 250","30.29","10.00","58","060",,"6",,,,,,,,,,,,,,,,,,,,,,,,,,,,,,,,,,,,,"MET10606/16/20 21:51:01 METAR KJFK 170251Z 06005KT 10SM FEW080 FEW250 17/12 A3032 RMK AO2 SLP266 T01720122 53001","FM-15","7",,,,,,,,,,,,,,,,,,,,,,,,,,,,"2009-05-01"
"74486094789","2020-06-16T22:00:00","FM-12","4",,"ESE","1.5","mi","TEMP, PRECIP, SNOW",,,"PSY, SRG, SNOWBOARD",,,"FAA CWO",,,,,,,,,,,,,,,,,,,,,,,,,,,,"54","63",,,"-0.00","3","73","30.32","74","30.29","9.94","58","060",,"6",,,,,,,,,,,,,,,,,,,,,,,,,,,,,,,,,,,,,"SYN06474486 32866 20605 10172 20122 30256 40266 53001 90251 555 91703=","FM-12","4",,,,,,,,,,,,,,,,,,,,,,,,,,,,"2009-05-01"
"74486094789","2020-06-16T22:51:00","FM-15","7",,"ESE","1.5","mi","TEMP, PRECIP, SNOW",,,"PSY, SRG, SNOWBOARD",,,"FAA CWO",,,,,,,,,,,,,,,,,,,,,,,,,,,"30.31","54","62","0.00",,,,"75","30.31","FEW:02 250","30.29","10.00","58","060",,"5",,,,,,,,,,,,,,,,,,,,,,,,,,,,,,,,,,,,,"MET09306/16/20 22:51:02 METAR KJFK 170351Z 06004KT 10SM FEW250 17/12 A3031 RMK AO2 SLP264 T01670122","FM-15","7",,,,,,,,,,,,,,,,,,,,,,,,,,,,"2009-05-01"
"74486094789","2020-06-16T23:51:00","FM-15","7",,"ESE","1.5","mi","TEMP, PRECIP, SNOW",,,"PSY, SRG, SNOWBOARD",,,"FAA CWO",,,,,,,,,,,,,,,,,,,,,,,,,,,"30.30","54","61","0.00",,,,"78","30.30","FEW:02 250","30.27","10.00","57","060",,"5",,,,,,,,,,,,,,,,,,,,,,,,,,,,,,,,,,,,,"MET10306/16/20 23:51:02 METAR KJFK 170451Z 06004KT 10SM FEW250 16/12 A3030 RMK AO2 SLP261 T01610122 402440144","FM-15","7",,,,,,,,,,,,,,,,,,,,,,,,,,,,"2009-05-01"
"74486094789","2020-06-16T23:59:00","SOD  ","6",,"ESE","1.5","mi","TEMP, PRECIP, SNOW",,,"PSY, SRG, SNOWBOARD",,,"FAA CWO",,,,"53","67","64","30.35","30.34","59","9.9","2","-3.8","0","76","58","040","26","0.00","0","0.0","130","20",,,,,,,,,,,,,,,,,,,,,,,,,,,,,,,,,,,,,,,,,,,,,,,,,,,,,,,,,"SOD73924 HR PRECIPITATION (IN): 0.00 SNOW DEPTH (IN):0     24 HR SNOWFALL (IN):0.0  24 HR MAX TEMP (F): 7624 HR MIN TEMP (F): 58AVERAGE STATION PRESSURE:30.335 MINIMUM SEA LEVEL PRESSURE:30.30 TIME OF OCCURRENCE:2359 PEAK WIND SPEED (MPH): 26 PEAK WIND DIR (DEG): 40 PEAK WIND TIME (LST):      FASTEST 2MIN SPEED (MPH): 20FASTEST 2MIN DIR (DEG):130 FASTEST 2MIN TIME (LST):     AVERAGE WIND SPEED (MPH): 9.9 24 HR AVG TEMP (F): 67DEPART FROM NORMAL: -4  HEATING DEGREE DAYS:  0 COOLING DEGREE DAYS:  2 LATEST DAY MAX TEMP (0700-1900 LST):76  LATEST NIGHT MIN TEMP(1900-0800 LST):58 HOURLY INCREMENTAL PRECIPITATION VALUES (IN):.00 0.00 0.00 0.00 0.00 0.00 0.00 0.00 0.00 0.00 0.00 0.00 0.00 0.00 0.00 0.00 0.00 0.00 0.00 0.00 0.00 0.00 0.00 0.00","SOD  ","6",,,,,,,,,,,,,,,,,,,,,,,,,"0424","1928",,"2009-05-01"
"74486094789","2020-06-17T00:51:00","FM-15","7",,"ESE","1.5","mi","TEMP, PRECIP, SNOW",,,"PSY, SRG, SNOWBOARD",,,"FAA CWO",,,,,,,,,,,,,,,,,,,,,,,,,,,"30.29","53","60","0.00",,"+0.03","8","78","30.29","FEW:02 250","30.27","10.00","56","040",,"7",,,,,,,,,,,,,,,,,,,,,,,,,,,,,,,,,,,,,"MET11606/17/20 00:51:02 METAR KJFK 170551Z 04006KT 10SM FEW250 16/12 A3029 RMK AO2 SLP257 T01560117 10194 20156 58009 (JC)","FM-15","7",,,,,,,,,,,,,,,,,,,,,,,,,,,,"2009-05-01"
"74486094789","2020-06-17T01:00:00","FM-12","4",,"ESE","1.5","mi","TEMP, PRECIP, SNOW",,,"PSY, SRG, SNOWBOARD",,,"FAA CWO",,,,,,,,,,,,,,,,,,,,,,,,,,,,"53","60",,,"+0.03","8","78","30.29",,"30.26","9.94","56","040",,"7",,,,,,,,,,,,,,,,,,,,,,,,,,,,,,,,,,,,,"SYN08074486 32966 20406 10156 20117 30246 40257 58009 90551 333 10194 20144 555 91706=","FM-12","4",,,,,,,,,,,,,,,,,,,,,,,,,,,,"2009-05-01"
"74486094789","2020-06-17T01:51:00","FM-15","7",,"ESE","1.5","mi","TEMP, PRECIP, SNOW",,,"PSY, SRG, SNOWBOARD",,,"FAA CWO",,,,,,,,,,,,,,,,,,,,,,,,,,,"30.29","53","60","0.00",,,,"78","30.29","FEW:02 250","30.27","10.00","56","010",,"6",,,,,,,,,,,,,,,,,,,,,,,,,,,,,,,,,,,,,"MET09806/17/20 01:51:02 METAR KJFK 170651Z 01005KT 10SM FEW250 16/12 A3029 RMK AO2 SLP257 T01560117 (JC)","FM-15","7",,,,,,,,,,,,,,,,,,,,,,,,,,,,"2009-05-01"
"74486094789","2020-06-17T02:51:00","FM-15","7",,"ESE","1.5","mi","TEMP, PRECIP, SNOW",,,"PSY, SRG, SNOWBOARD",,,"FAA CWO",,,,,,,,,,,,,,,,,,,,,,,,,,,"30.29","53","59","0.00",,,,"81","30.29","FEW:02 250","30.27","10.00","56","040",,"6",,,,,,,,,,,,,,,,,,,,,,,,,,,,,,,,,,,,,"MET09806/17/20 02:51:02 METAR KJFK 170751Z 04005KT 10SM FEW250 15/12 A3029 RMK AO2 SLP257 T01500117 (JC)","FM-15","7",,,,,,,,,,,,,,,,,,,,,,,,,,,,"2009-05-01"
"74486094789","2020-06-17T03:51:00","FM-15","7",,"ESE","1.5","mi","TEMP, PRECIP, SNOW",,,"PSY, SRG, SNOWBOARD",,,"FAA CWO",,,,,,,,,,,,,,,,,,,,,,,,,,,"30.27","53","58","0.00",,"+0.02","8","84","30.27","FEW:02 250","30.24","10.00","55","040",,"7",,,,,,,,,,,,,,,,,,,,,,,,,,,,,,,,,,,,,"MET10406/17/20 03:51:02 METAR KJFK 170851Z 04006KT 10SM FEW250 14/12 A3027 RMK AO2 SLP250 T01440117 58007 (JC)","FM-15","7",,,,,,,,,,,,,,,,,,,,,,,,,,,,"2009-05-01"
"74486094789","2020-06-17T04:00:00","FM-12","4",,"ESE","1.5","mi","TEMP, PRECIP, SNOW",,,"PSY, SRG, SNOWBOARD",,,"FAA CWO",,,,,,,,,,,,,,,,,,,,,,,,,,,,"53","58",,,"+0.02","8","84","30.27",,"30.24","9.94","55","040",,"7",,,,,,,,,,,,,,,,,,,,,,,,,,,,,,,,,,,,,"SYN06474486 32966 20406 10144 20117 30239 40250 58007 90851 555 91709=","FM-12","4",,,,,,,,,,,,,,,,,,,,,,,,,,,,"2009-05-01"
"74486094789","2020-06-17T04:51:00","FM-15","7",,"ESE","1.5","mi","TEMP, PRECIP, SNOW",,,"PSY, SRG, SNOWBOARD",,,"FAA CWO",,,,,,,,,,,,,,,,,,,,,,,,,,,"30.28","55","59","0.00",,,,"87","30.28","FEW:02 40 SCT:04 250","30.25","10.00","57","030",,"7",,,,,,,,,,,,,,,,,,,,,,,,,,,,,,,,,,,,,"MET10506/17/20 04:51:02 METAR KJFK 170951Z 03006KT 10SM FEW040 SCT250 15/13 A3028 RMK AO2 SLP255 T01500128 (JC)","FM-15","7",,,,,,,,,,,,,,,,,,,,,,,,,,,,"2009-05-01"
"74486094789","2020-06-17T05:51:00","FM-15","7",,"ESE","1.5","mi","TEMP, PRECIP, SNOW",,,"PSY, SRG, SNOWBOARD",,,"FAA CWO",,,,,,,,,,,,,,,,,,,,,,,,,,,"30.29","56","62","0.00",,,,"80","30.29","FEW:02 18 FEW:02 150 SCT:04 250","30.27","10.00","59","040",,"9",,,,,,,,,,,,,,,,,,,,,,,,,,,,,,,,,,,,,"MET11206/17/20 05:51:02 METAR KJFK 171051Z 04008KT 10SM FEW018 FEW150 SCT250 17/13 A3029 RMK AO2 SLP257 T01670133 (BH)","FM-15","7",,,,,,,,,,,,,,,,,,,,,,,,,,,,"2009-05-01"
"74486094789","2020-06-17T06:51:00","FM-15","7",,"ESE","1.5","mi","TEMP, PRECIP, SNOW",,,"PSY, SRG, SNOWBOARD",,,"FAA CWO",,,,,,,,,,,,,,,,,,,,,,,,,,,"30.28","53","66","0.00",,"-0.01","0","63","30.28","FEW:02 20 FEW:02 150 BKN:07 280","30.25","10.00","59","050",,"10",,,,,,,,,,,,,,,,,,,,,,,,,,,,,,,,,,,,,"MET13006/17/20 06:51:02 METAR KJFK 171151Z 05009KT 10SM FEW020 FEW150 BKN280 19/12 A3028 RMK AO2 SLP254 T01890117 10189 20144 50004 (BH)","FM-15","7",,,,,,,,,,,,,,,,,,,,,,,,,,,,"2009-05-01"
"74486094789","2020-06-17T07:00:00","FM-12","4",,"ESE","1.5","mi","TEMP, PRECIP, SNOW",,,"PSY, SRG, SNOWBOARD",,,"FAA CWO",,,,,,,,,,,,,,,,,,,,,,,,,,,,"53","66",,,"0.01","9","63","30.28","26","30.25","9.94","59","050",,"10",,,,,,,,,,,,,,,,,,,,,,,,,,,,,,,,,,,,,"SYN08074486 32566 60509 10189 20117 30243 40254 50004 91151 333 10244 20144 555 91712=","FM-12","4",,,,,,,,,,,,,,,,,,,,,,,,,,,,"2009-05-01"
"74486094789","2020-06-17T07:51:00","FM-15","7",,"ESE","1.5","mi","TEMP, PRECIP, SNOW",,,"PSY, SRG, SNOWBOARD",,,"FAA CWO",,,,,,,,,,,,,,,,,,,,,,,,,,,"30.30","53","69","0.00",,,,"57","30.29","FEW:02 25 FEW:02 150 BKN:07 280","30.27","10.00","60","070",,"10",,,,,,,,,,,,,,,,,,,,,,,,,,,,,,,,,,,,,"MET11206/17/20 07:51:02 METAR KJFK 171251Z 07009KT 10SM FEW025 FEW150 BKN280 21/12 A3030 RMK AO2 SLP259 T02060117 (BH)","FM-15","7",,,,,,,,,,,,,,,,,,,,,,,,,,,,"2009-05-01"
"74486094789","2020-06-17T08:51:00","FM-15","7",,"ESE","1.5","mi","TEMP, PRECIP, SNOW",,,"PSY, SRG, SNOWBOARD",,,"FAA CWO",,,,,,,,,,,,,,,,,,,,,,,,,,,"30.28","54","71","0.00",,,,"55","30.28","SCT:04 31 BKN:07 280","30.25","10.00","61","030",,"8",,,,,,,,,,,,,,,,,,,,,,,,,,,,,,,,,,,,,"MET10506/17/20 08:51:02 METAR KJFK 171351Z 03007KT 10SM SCT031 BKN280 22/12 A3028 RMK AO2 SLP253 T02170122 (BH)","FM-15","7",,,,,,,,,,,,,,,,,,,,,,,,,,,,"2009-05-01"
"74486094789","2020-06-17T09:51:00","FM-15","7",,"ESE","1.5","mi","TEMP, PRECIP, SNOW",,,"PSY, SRG, SNOWBOARD",,,"FAA CWO",,,,,,,,,,,,,,,,,,,,,,,,,,,"30.28","57","73","0.00",,"-0.00","1","57","30.28","BKN:07 31 BKN:07 280","30.25","10.00","63","020",,"8",,,,,,,,,,,,,,,,,,,,,,,,,,,,,,,,,,,,,"MET11106/17/20 09:51:02 METAR KJFK 171451Z 02007KT 10SM BKN031 BKN280 23/14 A3028 RMK AO2 SLP254 T02280139 51000 (BH)","FM-15","7",,,,,,,,,,,,,,,,,,,,,,,,,,,,"2009-05-01"
"74486094789","2020-06-17T10:00:00","FM-12","4",,"ESE","1.5","mi","TEMP, PRECIP, SNOW",,,"PSY, SRG, SNOWBOARD",,,"FAA CWO",,,,,,,,,,,,,,,,,,,,,,,,,,,,"57","73",,,"0.00","4","57","30.28","26","30.25","9.94","63","020",,"8",,,,,,,,,,,,,,,,,,,,,,,,,,,,,,,,,,,,,"SYN06474486 32566 60207 10228 20139 30243 40254 51000 91451 555 91715=","FM-12","4",,,,,,,,,,,,,,,,,,,,,,,,,,,,"2009-05-01"
"74486094789","2020-06-17T10:51:00","FM-15","7",,"ESE","1.5","mi","TEMP, PRECIP, SNOW",,,"PSY, SRG, SNOWBOARD",,,"FAA CWO",,,,,,,,,,,,,,,,,,,,,,,,,,,"30.27","57","77","0.00",,,,"50","30.27","BKN:07 32 BKN:07 280","30.24","10.00","65","040",,"10",,,,,,,,,,,,,,,,,,,,,,,,,,,,,,,,,,,,,"MET11806/17/20 10:51:02 METAR KJFK 171551Z 04009KT 10SM BKN032 BKN280 25/14 A3027 RMK AO2 SLP249 BKN032 V SCT T02500139 (BH)","FM-15","7",,,,,,,,,,,,,,,,,,,,,,,,,,,,"2009-05-01"
"74486094789","2020-06-17T11:51:00","FM-15","7",,"ESE","1.5","mi","TEMP, PRECIP, SNOW",,,"PSY, SRG, SNOWBOARD",,,"FAA CWO",,,,,,,,,,,,,,,,,,,,,,,,,,,"30.24","59","78","0.00",,,,"52","30.24","SCT:04 33 BKN:07 260","30.22","10.00","66","040","18","10",,,,,,,,,,,,,,,,,,,,,,,,,,,,,,,,,,,,,"MET10806/17/20 11:51:02 METAR KJFK 171651Z 04009G16KT 10SM SCT033 BKN260 26/15 A3024 RMK AO2 SLP241 T02560150 (BH)","FM-15","7",,,,,,,,,,,,,,,,,,,,,,,,,,,,"2009-05-01"
"74486094789","2020-06-17T12:51:00","FM-15","7",,"ESE","1.5","mi","TEMP, PRECIP, SNOW",,,"PSY, SRG, SNOWBOARD",,,"FAA CWO",,,,,,,,,,,,,,,,,,,,,,,,,,,"30.22","59","80","0.00",,"+0.06","8","49","30.22","FEW:02 37 BKN:07 260","30.19","10.00","67","VRB",,"10",,,,,,,,,,,,,,,,,,,,,,,,,,,,,,,,,,,,,"MET12306/17/20 12:51:02 METAR KJFK 171751Z 06009KT 10SM FEW037 BKN260 27/15 A3022 RMK AO2 SLP234 T02670150 10267 20189 58020 (BH)","FM-15","7",,,,,,,,,,,,,,,,,,,,,,,,,,,,"2009-05-01"
"74486094789","2020-06-17T13:00:00","FM-12","4",,"ESE","1.5","mi","TEMP, PRECIP, SNOW",,,"PSY, SRG, SNOWBOARD",,,"FAA CWO",,,,,,,,,,,,,,,,,,,,,,,,,,,,"59","80",,,"+0.06","8","49","30.22","41","30.19","9.94","67","060",,"10",,,,,,,,,,,,,,,,,,,,,,,,,,,,,,,,,,,,,"SYN08074486 32666 60609 10267 20150 30222 40234 58020 91751 333 10267 20189 555 91718=","FM-12","4",,,,,,,,,,,,,,,,,,,,,,,,,,,,"2009-05-01"
"74486094789","2020-06-17T13:51:00","FM-15","7",,"ESE","1.5","mi","TEMP, PRECIP, SNOW",,,"PSY, SRG, SNOWBOARD",,,"FAA CWO",,,,,,,,,,,,,,,,,,,,,,,,,,,"30.22","63","76","0.00",,,,"64","30.22","SCT:04 38 BKN:07 250","30.19","10.00","68","130",,"14",,,,,,,,,,,,,,,,,,,,,,,,,,,,,,,,,,,,,"MET10506/17/20 13:51:02 METAR KJFK 171851Z 13012KT 10SM SCT038 BKN250 24/17 A3022 RMK AO2 SLP232 T02440172 (RR)","FM-15","7",,,,,,,,,,,,,,,,,,,,,,,,,,,,"2009-05-01"
"74486094789","2020-06-17T14:51:00","FM-15","7",,"ESE","1.5","mi","TEMP, PRECIP, SNOW",,,"PSY, SRG, SNOWBOARD",,,"FAA CWO",,,,,,,,,,,,,,,,,,,,,,,,,,,"30.22","61","69","0.00",,,,"76","30.22","BKN:07 37 BKN:07 250","30.19","10.00","64","120",,"14",,,,,,,,,,,,,,,,,,,,,,,,,,,,,,,,,,,,,"MET10506/17/20 14:51:02 METAR KJFK 171951Z 12012KT 10SM BKN037 BKN250 21/16 A3022 RMK AO2 SLP233 T02060161 (RR)","FM-15","7",,,,,,,,,,,,,,,,,,,,,,,,,,,,"2009-05-01"
"74486094789","2020-06-17T15:51:00","FM-15","7",,"ESE","1.5","mi","TEMP, PRECIP, SNOW",,,"PSY, SRG, SNOWBOARD",,,"FAA CWO",,,,,,,,,,,,,,,,,,,,,,,,,,,"30.23","62","68","0.00",,"-0.00","3","81","30.22","FEW:02 15 BKN:07 33 BKN:07 250","30.21","10.00","64","120",,"14",,,,,,,,,,,,,,,,,,,,,,,,,,,,,,,,,,,,,"MET11806/17/20 15:51:02 METAR KJFK 172051Z 12012KT 10SM FEW015 BKN033 BKN250 20/17 A3023 RMK AO2 SLP235 T02000167 53001 (RR)","FM-15","7",,,,,,,,,,,,,,,,,,,,,,,,,,,,"2009-05-01"
"74486094789","2020-06-17T16:00:00","FM-12","4",,"ESE","1.5","mi","TEMP, PRECIP, SNOW",,,"PSY, SRG, SNOWBOARD",,,"FAA CWO",,,,,,,,,,,,,,,,,,,,,,,,,,,,"62","68",,,"-0.00","3","81","30.22","15","30.20","9.94","64","120",,"14",,,,,,,,,,,,,,,,,,,,,,,,,,,,,,,,,,,,,"SYN06474486 32466 61212 10200 20167 30226 40235 53001 92051 555 91721=","FM-12","4",,,,,,,,,,,,,,,,,,,,,,,,,,,,"2009-05-01"
"74486094789","2020-06-17T16:51:00","FM-15","7",,"ESE","1.5","mi","TEMP, PRECIP, SNOW",,,"PSY, SRG, SNOWBOARD",,,"FAA CWO",,,,,,,,,,,,,,,,,,,,,,,,,,,"30.23","63","68","0.00",,,,"84","30.22","FEW:02 11 BKN:07 30","30.21","10.00","65","100",,"14",,,,,,,,,,,,,,,,,,,,,,,,,,,,,,,,,,,,,"MET10506/17/20 16:51:02 METAR KJFK 172151Z 10012KT 10SM FEW011 BKN030 20/17 A3023 RMK AO2 SLP235 T02000172 (RR)","FM-15","7",,,,,,,,,,,,,,,,,,,,,,,,,,,,"2009-05-01"
"74486094789","2020-06-17T17:00:00","FM-16","7",,"ESE","1.5","mi","TEMP, PRECIP, SNOW",,,"PSY, SRG, SNOWBOARD",,,"FAA CWO",,,,,,,,,,,,,,,,,,,,,,,,,,,"30.23","63","68",,,,,"84",,"SCT:04 9 BKN:07 30 BKN:07 250","30.21","10.00","65","110",,"9",,,,,,,,,,,,,,,,,,,,,,,,,,,,,,,,,,,,,"MET10506/17/20 17:00:02 SPECI KJFK 172200Z 11008KT 10SM SCT009 BKN030 BKN250 20/17 A3023 RMK AO2 T02000172 (RR)","FM-16","7",,,,,,,,,,,,,,,,,,,,,,,,,,,,"2009-05-01"
"74486094789","2020-06-17T17:21:00","FM-16","7",,"ESE","1.5","mi","TEMP, PRECIP, SNOW",,,"PSY, SRG, SNOWBOARD",,,"FAA CWO",,,,,,,,,,,,,,,,,,,,,,,,,,,"30.23","63","67",,,,,"87",,"BKN:07 9 OVC:08 30","30.21","10.00","65","100",,"13",,,,,,,,,,,,,,,,,,,,,,,,,,,,,,,,,,,,,"MET09806/17/20 17:21:02 SPECI KJFK 172221Z 10011KT 10SM BKN009 OVC030 19/17 A3023 RMK AO2 T01940172 (RR)","FM-16","7",,,,,,,,,,,,,,,,,,,,,,,,,,,,"2009-05-01"
"74486094789","2020-06-17T17:51:00","FM-15","7",,"ESE","1.5","mi","TEMP, PRECIP, SNOW",,,"PSY, SRG, SNOWBOARD",,,"FAA CWO",,,,,,,,,,,,,,,,,,,,,,,,,,,"30.24","62","65","0.00",,,,"90","30.23","BKN:07 7 BKN:07 30 BKN:07 250","30.22","10.00","63","110",,"13",,,,,,,,,,,,,,,,,,,,,,,,,,,,,,,,,,,,,"MET11206/17/20 17:51:02 METAR KJFK 172251Z 11011KT 10SM BKN007 BKN030 BKN250 18/17 A3024 RMK AO2 SLP238 T01830167 (RR)","FM-15","7",,,,,,,,,,,,,,,,,,,,,,,,,,,,"2009-05-01"
"74486094789","2020-06-17T18:48:00","FM-16","7",,"ESE","1.5","mi","TEMP, PRECIP, SNOW",,,"PSY, SRG, SNOWBOARD",,,"FAA CWO",,,,,,,,,,,,,,,,,,,,,,,,,,,"30.23","63","64",,"BR:1 ||",,,"94",,"OVC:08 5","30.21","2.00","63","120",,"7",,,,,,,,,,,,,,,,,,,,,,,,,,,,,,,,,,,,,"MET09306/17/20 18:48:02 SPECI KJFK 172348Z 12006KT 2SM BR OVC005 18/17 A3023 RMK AO2 SFC VIS 5 (RR)","FM-16","7",,,,,,,,,,,,,,,,,,,,,,,,,,,,"2009-05-01"
"74486094789","2020-06-17T18:49:00","FM-16","6",,"ESE","1.5","mi","TEMP, PRECIP, SNOW",,,"PSY, SRG, SNOWBOARD",,,"FAA CWO",,,,,,,,,,,,,,,,,,,,,,,,,,,"30.23","63","64",,"BR:1 ||",,,"94",,"OVC:08 4","30.21","2.00","63","120",,"8",,,,,,,,,,,,,,,,,,,,,,,,,,,,,,,,,,,,,"MET09806/17/20 18:49:02 SPECI KJFK 172349Z 12007KT 2SM BR OVC004 18/17 A3023 RMK AO2 SFC VIS 5 FIBI (RR)","FM-16","6",,,,,,,,,,,,,,,,,,,,,,,,,,,,"2009-05-01"
"74486094789","2020-06-17T18:51:00","FM-15","7",,"ESE","1.5","mi","TEMP, PRECIP, SNOW",,,"PSY, SRG, SNOWBOARD",,,"FAA CWO",,,,,,,,,,,,,,,,,,,,,,,,,,,"30.23","62","64","0.00","BR:1 ||","-0.00","0","93","30.22","OVC:08 4","30.21","2.00","63","120",,"9",,,,,,,,,,,,,,,,,,,,,,,,,,,,,,,,,,,,,"MET12806/17/20 18:51:02 METAR KJFK 172351Z 12008KT 2SM BR OVC004 18/17 A3023 RMK AO2 SFC VIS 5 SLP235 T01780167 10267 20178 50000 (RR)","FM-15","7",,,,,,,,,,,,,,,,,,,,,,,,,,,,"2009-05-01"
"74486094789","2020-06-17T19:00:00","FM-12","4",,"ESE","1.5","mi","TEMP, PRECIP, SNOW",,,"PSY, SRG, SNOWBOARD",,,"FAA CWO",,,,,,,,,,,,,,,,,,,,,,,,,,,,"62","64",,,"0.00","9","93","30.22","5","30.20","1.99","63","120",,"9",,,,,,,,,,,,,,,,,,,,,,,,,,,,,,,,,,,,,"SYN08674486 31232 81208 10178 20167 30226 40235 50000 710// 92351 333 10267 20144 555 91800=","FM-12","4",,,,,,,,,,,,,,,,,,,,,,,,,,,,"2009-05-01"
"74486094789","2020-06-17T19:51:00","FM-15","7",,"ESE","1.5","mi","TEMP, PRECIP, SNOW",,,"PSY, SRG, SNOWBOARD",,,"FAA CWO",,,,,,,,,,,,,,,,,,,,,,,,,,,"30.23","62","63","0.00","BR:1 ||",,,"97","30.22","OVC:08 3","30.21","2.00","62","110",,"10",,,,,,,,,,,,,,,,,,,,,,,,,,,,,,,,,,,,,"MET12306/17/20 19:51:01 METAR KJFK 180051Z 11009KT 2SM R04R/5000VP6000FT BR OVC003 17/17 A3023 RMK AO2 SFC VIS 3 SLP235 T01720167","FM-15","7",,,,,,,,,,,,,,,,,,,,,,,,,,,,"2009-05-01"
"74486094789","2020-06-17T20:51:00","FM-15","7",,"ESE","1.5","mi","TEMP, PRECIP, SNOW",,,"PSY, SRG, SNOWBOARD",,,"FAA CWO",,,,,,,,,,,,,,,,,,,,,,,,,,,"30.22","62","63","0.00","BR:1 ||",,,"97","30.22","OVC:08 3","30.19","2.00","62","070",,"6",,,,,,,,,,,,,,,,,,,,,,,,,,,,,,,,,,,,,"MET10506/17/20 20:51:01 METAR KJFK 180151Z 07005KT 2SM BR OVC003 17/17 A3022 RMK AO2 SFC VIS 3 SLP234 T01720167","FM-15","7",,,,,,,,,,,,,,,,,,,,,,,,,,,,"2009-05-01"
"74486094789","2020-06-17T21:49:00","FM-16","6",,"ESE","1.5","mi","TEMP, PRECIP, SNOW",,,"PSY, SRG, SNOWBOARD",,,"FAA CWO",,,,,,,,,,,,,,,,,,,,,,,,,,,"30.21","63","63",,"BR:1 ||",,,"100",,"OVC:08 4","30.19","1.00","63","120",,"7",,,,,,,,,,,,,,,,,,,,,,,,,,,,,,,,,,,,,"MET11106/17/20 21:49:03 SPECI KJFK 180249Z 12006KT 1SM R04R/P6000FT BR OVC004 17/17 A3021 RMK AO2 SFC VIS 6 FIBI (JC)","FM-16","6",,,,,,,,,,,,,,,,,,,,,,,,,,,,"2009-05-01"
"74486094789","2020-06-17T21:51:00","FM-15","7",,"ESE","1.5","mi","TEMP, PRECIP, SNOW",,,"PSY, SRG, SNOWBOARD",,,"FAA CWO",,,,,,,,,,,,,,,,,,,,,,,,,,,"30.21","62","63","0.00","BR:1 ||","+0.01","8","97","30.21","OVC:08 4","30.19","1.00","62","110",,"7",,,,,,,,,,,,,,,,,,,,,,,,,,,,,,,,,,,,,"MET12406/17/20 21:51:01 METAR KJFK 180251Z 11006KT 1SM R04R/P6000FT BR OVC004 17/17 A3021 RMK AO2 SFC VIS 6 SLP231 T01720167 58004","FM-15","7",,,,,,,,,,,,,,,,,,,,,,,,,,,,"2009-05-01"
"74486094789","2020-06-17T22:00:00","FM-12","4",,"ESE","1.5","mi","TEMP, PRECIP, SNOW",,,"PSY, SRG, SNOWBOARD",,,"FAA CWO",,,,,,,,,,,,,,,,,,,,,,,,,,,,"62","63",,,"+0.01","8","97","30.21","5","30.18","0.99","62","110",,"7",,,,,,,,,,,,,,,,,,,,,,,,,,,,,,,,,,,,,"SYN07074486 31216 81106 10172 20167 30219 40231 58004 710// 90251 555 91803=","FM-12","4",,,,,,,,,,,,,,,,,,,,,,,,,,,,"2009-05-01"
"74486094789","2020-06-17T22:49:00","FM-16","6",,"ESE","1.5","mi","TEMP, PRECIP, SNOW",,,"PSY, SRG, SNOWBOARD",,,"FAA CWO",,,,,,,,,,,,,,,,,,,,,,,,,,,"30.21","61","63",,"-DZ:01 BR:1 |s DZ s |DZ s",,,"94",,"OVC:08 2","30.19","0.12","62","120",,"7",,,,,,,,,,,,,,,,,,,,,,,,,,,,,,,,,,,,,"MET13706/17/20 22:49:03 SPECI KJFK 180349Z 12006KT 1/8SM R04R/4000V5000FT -DZ BR OVC002 17/16 A3021 RMK AO2 SFC VIS 1 1/2 DZB46 P0000 FIBI (JC)","FM-16","6",,,,,,,,,,,,,,,,,,,,,,,,,,,,"2009-05-01"
"74486094789","2020-06-17T22:51:00","FM-15","7",,"ESE","1.5","mi","TEMP, PRECIP, SNOW",,,"PSY, SRG, SNOWBOARD",,,"FAA CWO",,,,,,,,,,,,,,,,,,,,,,,,,,,"30.21","61","62","T","-DZ:01 BR:1 |s DZ s |DZ s",,,"96","30.20","OVC:08 2","30.19","0.12","61","130",,"7",,,,,,,,,,,,,,,,,,,,,,,,,,,,,,,,,,,,,"MET14406/17/20 22:51:02 METAR KJFK 180351Z 13006KT 1/8SM R04R/4000V5000FT -DZ BR OVC002 17/16 A3021 RMK AO2 SFC VIS 1 1/2 DZB46 SLP228 P0000 T01670161","FM-15","7",,,,,,,,,,,,,,,,,,,,,,,,,,,,"2009-05-01"
"74486094789","2020-06-17T23:51:00","FM-15","7",,"ESE","1.5","mi","TEMP, PRECIP, SNOW",,,"PSY, SRG, SNOWBOARD",,,"FAA CWO",,,,,,,,,,,,,,,,,,,,,,,,,,,"30.20","62","62","T","-DZ:01 BR:1 |s DZ s |DZ s",,,"100","30.20","OVC:08 2","30.17","0.12","62","060",,"8",,,,,,,,,,,,,,,,,,,,,,,,,,,,,,,,,,,,,"MET14506/17/20 23:51:02 METAR KJFK 180451Z 06007KT 1/8SM R04R/4500VP6000FT -DZ BR OVC002 17/17 A3020 RMK AO2 SFC VIS 2 SLP227 P0000 T01670167 402670144","FM-15","7",,,,,,,,,,,,,,,,,,,,,,,,,,,,"2009-05-01"
"74486094789","2020-06-17T23:59:00","SOD  ","6",,"ESE","1.5","mi","TEMP, PRECIP, SNOW",,,"PSY, SRG, SNOWBOARD",,,"FAA CWO",,,,"58","69","77","30.25","30.22","62","9.3","4","-2.1","0","80","58","120","23","T","0","0.0","120","20","DZ BR",,,,,,,,,,,,,,,,,,,,,,,,,,,,,,,,,,,,,,,,,,,,,,,,,,,,,,,,"SOD75324 HR PRECIPITATION (IN):    T SNOW DEPTH (IN):0     24 HR SNOWFALL (IN):0.0  WEATHER(CODE):1  24 HR MAX TEMP (F): 8024 HR MIN TEMP (F): 58AVERAGE STATION PRESSURE:30.225 MINIMUM SEA LEVEL PRESSURE:30.19 TIME OF OCCURRENCE:2359 PEAK WIND SPEED (MPH): 23 PEAK WIND DIR (DEG):120 PEAK WIND TIME (LST):      FASTEST 2MIN SPEED (MPH): 20FASTEST 2MIN DIR (DEG):120 FASTEST 2MIN TIME (LST):     AVERAGE WIND SPEED (MPH): 9.3 24 HR AVG TEMP (F): 69DEPART FROM NORMAL: -2  HEATING DEGREE DAYS:  0 COOLING DEGREE DAYS:  4 LATEST DAY MAX TEMP (0700-1900 LST):80  LATEST NIGHT MIN TEMP(1900-0800 LST):58 HOURLY INCREMENTAL PRECIPITATION VALUES (IN):.00 0.00 0.00 0.00 0.00 0.00 0.00 0.00 0.00 0.00 0.00 0.00 0.00 0.00 0.00 0.00 0.00 0.00 0.00 0.00 0.00 0.00 T    T","SOD  ","6",,,,,,,,,,,,,,,,,,,,,,,,,"0424","1929",,"2009-05-01"
"74486094789","2020-06-18T00:49:00","FM-16","6",,"ESE","1.5","mi","TEMP, PRECIP, SNOW",,,"PSY, SRG, SNOWBOARD",,,"FAA CWO",,,,,,,,,,,,,,,,,,,,,,,,,,,"30.20","63","63",,"BR:1 |s |",,,"100",,"OVC:08 3","30.17","0.25","63","060",,"8",,,,,,,,,,,,,,,,,,,,,,,,,,,,,,,,,,,,,"MET12506/18/20 00:49:02 SPECI KJFK 180549Z 06007KT 1/4SM R04R/P6000FT BR OVC003 17/17 A3020 RMK AO2 SFC VIS 5 DZE15 P0000 FIBI (JC)","FM-16","6",,,,,,,,,,,,,,,,,,,,,,,,,,,,"2009-05-01"
"74486094789","2020-06-18T00:51:00","FM-15","7",,"ESE","1.5","mi","TEMP, PRECIP, SNOW",,,"PSY, SRG, SNOWBOARD",,,"FAA CWO",,,,,,,,,,,,,,,,,,,,,,,,,,,"30.19","62","62","T","BR:1 |s |","+0.02","8","100","30.19","OVC:08 3","30.16","0.25","62","050",,"7",,,,,,,,,,,,,,,,,,,,,,,,,,,,,,,,,,,,,"MET16106/18/20 00:51:02 METAR KJFK 180551Z 05006KT 1/4SM R04R/P6000FT BR OVC003 17/17 A3019 RMK AO2 SFC VIS 4 DZE15 SLP224 P0000 60000 T01670167 10178 20167 58007 (JC)","FM-15","7",,,,,,,,,,,,,,,,,,,,,,,,,,,,"2009-05-01"
"74486094789","2020-06-18T01:00:00","FM-12","4",,"ESE","1.5","mi","TEMP, PRECIP, SNOW",,,"PSY, SRG, SNOWBOARD",,,"FAA CWO",,,,,,,,,,,,,,,,,,,,,,,,,,,,"62","62",,,"+0.02","8","100","30.19","2","30.16","0.25","62","050",,"7",,,,,,,,,,,,,,,,,,,,,,,,,,,,,,,,,,,,,"SYN09274486 11104 80506 10167 20167 30212 40224 58007 69901 710// 90551 333 10189 20144 555 91806=","FM-12","4",,,,,,,,,,,,,,,,,,,,,,,,,,,,"2009-05-01"
"74486094789","2020-06-18T01:51:00","FM-15","7",,"ESE","1.5","mi","TEMP, PRECIP, SNOW",,,"PSY, SRG, SNOWBOARD",,,"FAA CWO",,,,,,,,,,,,,,,,,,,,,,,,,,,"30.18","62","63","0.00","BR:1 |s |",,,"97","30.18","OVC:08 2","30.16","0.25","62","090",,"7",,,,,,,,,,,,,,,,,,,,,,,,,,,,,,,,,,,,,"MET12506/18/20 01:51:02 METAR KJFK 180651Z 09006KT 1/4SM R04R/P6000FT BR OVC002 17/17 A3018 RMK AO2 SFC VIS 6 SLP221 T01720167 (JC)","FM-15","7",,,,,,,,,,,,,,,,,,,,,,,,,,,,"2009-05-01"
"74486094789","2020-06-18T02:51:00","FM-15","7",,"ESE","1.5","mi","TEMP, PRECIP, SNOW",,,"PSY, SRG, SNOWBOARD",,,"FAA CWO",,,,,,,,,,,,,,,,,,,,,,,,,,,"30.18","62","63","0.00","BR:1 |s |",,,"97","30.18","OVC:08 3","30.16","0.25","62","070",,"5",,,,,,,,,,,,,,,,,,,,,,,,,,,,,,,,,,,,,"MET12506/18/20 02:51:02 METAR KJFK 180751Z 07004KT 1/4SM R04R/P6000FT BR OVC003 17/17 A3018 RMK AO2 SFC VIS 3 SLP219 T01720167 (JC)","FM-15","7",,,,,,,,,,,,,,,,,,,,,,,,,,,,"2009-05-01"
"74486094789","2020-06-18T03:51:00","FM-15","7",,"ESE","1.5","mi","TEMP, PRECIP, SNOW",,,"PSY, SRG, SNOWBOARD",,,"FAA CWO",,,,,,,,,,,,,,,,,,,,,,,,,,,"30.19","62","63","0.00","BR:1 |s |","+0.00","5","97","30.19","OVC:08 2","30.16","0.25","62","VRB",,"3",,,,,,,,,,,,,,,,,,,,,,,,,,,,,,,,,,,,,"MET13806/18/20 03:51:02 METAR KJFK 180851Z VRB03KT 1/4SM R04R/P6000FT BR OVC002 17/17 A3019 RMK AO2 SFC VIS 4 PRESRR SLP223 T01720167 55001 (JC)","FM-15","7",,,,,,,,,,,,,,,,,,,,,,,,,,,,"2009-05-01"
"74486094789","2020-06-18T04:00:00","FM-12","4",,"ESE","1.5","mi","TEMP, PRECIP, SNOW",,,"PSY, SRG, SNOWBOARD",,,"FAA CWO",,,,,,,,,,,,,,,,,,,,,,,,,,,,"62","63",,,"+0.00","5","97","30.19","2","30.16","0.25","62",,,"3",,,,,,,,,,,,,,,,,,,,,,,,,,,,,,,,,,,,,"SYN07074486 31104 8//03 10172 20167 30212 40223 55001 710// 90851 555 91809=","FM-12","4",,,,,,,,,,,,,,,,,,,,,,,,,,,,"2009-05-01"
"74486094789","2020-06-18T04:51:00","FM-15","7",,"ESE","1.5","mi","TEMP, PRECIP, SNOW",,,"PSY, SRG, SNOWBOARD",,,"FAA CWO",,,,,,,,,,,,,,,,,,,,,,,,,,,"30.20","62","63","0.00","BR:1 |s |",,,"97","30.20","OVC:08 3","30.17","0.25","62","060",,"7",,,,,,,,,,,,,,,,,,,,,,,,,,,,,,,,,,,,,"MET12906/18/20 04:51:02 METAR KJFK 180951Z 06006KT 1/4SM R04R/2800V5000FT BR OVC003 17/17 A3020 RMK AO2 SFC VIS 3 SLP226 T01720167 (JC)","FM-15","7",,,,,,,,,,,,,,,,,,,,,,,,,,,,"2009-05-01"
"74486094789","2020-06-18T05:51:00","FM-15","7",,"ESE","1.5","mi","TEMP, PRECIP, SNOW",,,"PSY, SRG, SNOWBOARD",,,"FAA CWO",,,,,,,,,,,,,,,,,,,,,,,,,,,"30.21","63","63","0.00","BR:1 |s |",,,"100","30.21","OVC:08 2","30.19","0.25","63","060",,"6",,,,,,,,,,,,,,,,,,,,,,,,,,,,,,,,,,,,,"MET12906/18/20 05:51:02 METAR KJFK 181051Z 06005KT 1/4SM R04R/3000V3500FT BR OVC002 17/17 A3021 RMK AO2 SFC VIS 2 SLP231 T01720172 (BH)","FM-15","7",,,,,,,,,,,,,,,,,,,,,,,,,,,,"2009-05-01"
"74486094789","2020-06-18T06:51:00","FM-15","7",,"ESE","1.5","mi","TEMP, PRECIP, SNOW",,,"PSY, SRG, SNOWBOARD",,,"FAA CWO",,,,,,,,,,,,,,,,,,,,,,,,,,,"30.21","64","65","0.00","BR:1 ||","-0.02","0","97","30.21","OVC:08 3","30.19","1.00","64","040",,"8",,,,,,,,,,,,,,,,,,,,,,,,,,,,,,,,,,,,,"MET14106/18/20 06:51:02 METAR KJFK 181151Z 04007KT 1SM R04R/P6000FT BR OVC003 18/18 A3021 RMK AO2 SFC VIS 3 SLP229 T01830178 10183 20167 50006 (BH)","FM-15","7",,,,,,,,,,,,,,,,,,,,,,,,,,,,"2009-05-01"
"74486094789","2020-06-18T07:00:00","FM-12","4",,"ESE","1.5","mi","TEMP, PRECIP, SNOW",,,"PSY, SRG, SNOWBOARD",,,"FAA CWO",,,,,,,,,,,,,,,,,,,,,,,,,,,,"64","65",,,"0.02","9","97","30.21","2","30.18","0.99","64","040",,"8",,,,,,,,,,,,,,,,,,,,,,,,,,,,,,,,,,,,,"SYN08674486 31116 80407 10183 20178 30219 40229 50006 710// 91151 333 10267 20167 555 91812=","FM-12","4",,,,,,,,,,,,,,,,,,,,,,,,,,,,"2009-05-01"
"74486094789","2020-06-18T07:12:00","FM-16","7",,"ESE","1.5","mi","TEMP, PRECIP, SNOW",,,"PSY, SRG, SNOWBOARD",,,"FAA CWO",,,,,,,,,,,,,,,,,,,,,,,,,,,"30.20","64","66",,"BR:1 ||",,,"93",,"OVC:08 4","30.17","5.00","65","040",,"10",,,,,,,,,,,,,,,,,,,,,,,,,,,,,,,,,,,,,"MET09306/18/20 07:12:02 SPECI KJFK 181212Z 04009KT 5SM BR OVC004 19/18 A3020 RMK AO2 T01890178 (BH)","FM-16","7",,,,,,,,,,,,,,,,,,,,,,,,,,,,"2009-05-01"
"74486094789","2020-06-18T07:49:00","FM-16","6",,"ESE","1.5","mi","TEMP, PRECIP, SNOW",,,"PSY, SRG, SNOWBOARD",,,"FAA CWO",,,,,,,,,,,,,,,,,,,,,,,,,,,"30.20","64","70",,,,,"83",,"BKN:07 6","30.17","8.00","66","070",,"9",,,,,,,,,,,,,,,,,,,,,,,,,,,,,,,,,,,,,"MET08506/18/20 07:49:02 SPECI KJFK 181249Z 07008KT 8SM BKN006 21/18 A3020 RMK AO2 FIBI (BH)","FM-16","6",,,,,,,,,,,,,,,,,,,,,,,,,,,,"2009-05-01"
"74486094789","2020-06-18T07:51:00","FM-15","7",,"ESE","1.5","mi","TEMP, PRECIP, SNOW",,,"PSY, SRG, SNOWBOARD",,,"FAA CWO",,,,,,,,,,,,,,,,,,,,,,,,,,,"30.20","65","69","0.00",,,,"87","30.19","BKN:07 6","30.17","8.00","66","060",,"9",,,,,,,,,,,,,,,,,,,,,,,,,,,,,,,,,,,,,"MET09706/18/20 07:51:02 METAR KJFK 181251Z 06008KT 8SM BKN006 21/18 A3020 RMK AO2 SLP225 T02060183 (BH)","FM-15","7",,,,,,,,,,,,,,,,,,,,,,,,,,,,"2009-05-01"
"74486094789","2020-06-18T08:51:00","FM-15","7",,"ESE","1.5","mi","TEMP, PRECIP, SNOW",,,"PSY, SRG, SNOWBOARD",,,"FAA CWO",,,,,,,,,,,,,,,,,,,,,,,,,,,"30.21","66","71","0.00",,,,"84","30.21","OVC:08 9","30.19","10.00","68","110",,"6",,,,,,,,,,,,,,,,,,,,,,,,,,,,,,,,,,,,,"MET09806/18/20 08:51:02 METAR KJFK 181351Z 11005KT 10SM OVC009 22/19 A3021 RMK AO2 SLP229 T02170189 (BH)","FM-15","7",,,,,,,,,,,,,,,,,,,,,,,,,,,,"2009-05-01"
"74486094789","2020-06-18T09:51:00","FM-15","7",,"ESE","1.5","mi","TEMP, PRECIP, SNOW",,,"PSY, SRG, SNOWBOARD",,,"FAA CWO",,,,,,,,,,,,,,,,,,,,,,,,,,,"30.21","67","73","0.00",,"+0.00","5","81","30.21","BKN:07 7 BKN:07 250","30.19","10.00","69","100",,"8",,,,,,,,,,,,,,,,,,,,,,,,,,,,,,,,,,,,,"MET11106/18/20 09:51:02 METAR KJFK 181451Z 10007KT 10SM BKN007 BKN250 23/19 A3021 RMK AO2 SLP229 T02280194 55000 (BH)","FM-15","7",,,,,,,,,,,,,,,,,,,,,,,,,,,,"2009-05-01"
"74486094789","2020-06-18T10:00:00","FM-12","4",,"ESE","1.5","mi","TEMP, PRECIP, SNOW",,,"PSY, SRG, SNOWBOARD",,,"FAA CWO",,,,,,,,,,,,,,,,,,,,,,,,,,,,"67","73",,,"+0.00","5","81","30.21","8","30.18","9.94","69","100",,"8",,,,,,,,,,,,,,,,,,,,,,,,,,,,,,,,,,,,,"SYN06474486 32366 61007 10228 20194 30219 40229 55000 91451 555 91815=","FM-12","4",,,,,,,,,,,,,,,,,,,,,,,,,,,,"2009-05-01"
"74486094789","2020-06-18T10:25:00","FM-16","7",,"ESE","1.5","mi","TEMP, PRECIP, SNOW",,,"PSY, SRG, SNOWBOARD",,,"FAA CWO",,,,,,,,,,,,,,,,,,,,,,,,,,,"30.21","68","75",,,,,"79",,"FEW:02 7 BKN:07 11 BKN:07 90","30.19","10.00","70","120",,"13",,,,,,,,,,,,,,,,,,,,,,,,,,,,,,,,,,,,,"MET10506/18/20 10:25:02 SPECI KJFK 181525Z 12011KT 10SM FEW007 BKN011 BKN090 24/20 A3021 RMK AO2 T02390200 (BH)","FM-16","7",,,,,,,,,,,,,,,,,,,,,,,,,,,,"2009-05-01"
"74486094789","2020-06-18T10:51:00","FM-15","7",,"ESE","1.5","mi","TEMP, PRECIP, SNOW",,,"PSY, SRG, SNOWBOARD",,,"FAA CWO",,,,,,,,,,,,,,,,,,,,,,,,,,,"30.21","67","73","0.00",,,,"81","30.21","FEW:02 7 BKN:07 11 BKN:07 35","30.19","10.00","69","110",,"10",,,,,,,,,,,,,,,,,,,,,,,,,,,,,,,,,,,,,"MET11206/18/20 10:51:02 METAR KJFK 181551Z 11009KT 10SM FEW007 BKN011 BKN035 23/19 A3021 RMK AO2 SLP230 T02280194 (BH)","FM-15","7",,,,,,,,,,,,,,,,,,,,,,,,,,,,"2009-05-01"
"74486094789","2020-06-18T11:49:00","FM-16","6",,"ESE","1.5","mi","TEMP, PRECIP, SNOW",,,"PSY, SRG, SNOWBOARD",,,"FAA CWO",,,,,,,,,,,,,,,,,,,,,,,,,,,"30.20","66","73",,,,,"78",,"SCT:04 11 BKN:07 22 BKN:07 90","30.17","10.00","69","120",,"10",,,,,,,,,,,,,,,,,,,,,,,,,,,,,,,,,,,,,"MET10006/18/20 11:49:02 SPECI KJFK 181649Z 12009KT 10SM SCT011 BKN022 BKN090 23/19 A3020 RMK AO2 FIBI (BH)","FM-16","6",,,,,,,,,,,,,,,,,,,,,,,,,,,,"2009-05-01"
"74486094789","2020-06-18T11:51:00","FM-15","7",,"ESE","1.5","mi","TEMP, PRECIP, SNOW",,,"PSY, SRG, SNOWBOARD",,,"FAA CWO",,,,,,,,,,,,,,,,,,,,,,,,,,,"30.20","66","73","T",,,,"79","30.20","SCT:04 11 BKN:07 22 BKN:07 90","30.17","10.00","69","120",,"9",,,,,,,,,,,,,,,,,,,,,,,,,,,,,,,,,,,,,"MET11206/18/20 11:51:02 METAR KJFK 181651Z 12008KT 10SM SCT011 BKN022 BKN090 23/19 A3020 RMK AO2 SLP226 T02280189 (BH)","FM-15","7",,,,,,,,,,,,,,,,,,,,,,,,,,,,"2009-05-01"
"74486094789","2020-06-18T12:40:00","FM-16","7",,"ESE","1.5","mi","TEMP, PRECIP, SNOW",,,"PSY, SRG, SNOWBOARD",,,"FAA CWO",,,,,,,,,,,,,,,,,,,,,,,,,,,"30.19","66","74","T",,,,"76",,"FEW:02 11 SCT:04 26 BKN:07 90","30.16","10.00","69","120",,"9",,,,,,,,,,,,,,,,,,,,,,,,,,,,,,,,,,,,,"MET12206/18/20 12:40:02 SPECI KJFK 181740Z 12008KT 10SM FEW011 SCT026 BKN090 23/19 A3019 RMK AO2 RAB1655E09 P0000 T02330189 (BH)","FM-16","7",,,,,,,,,,,,,,,,,,,,,,,,,,,,"2009-05-01"
"74486094789","2020-06-18T12:51:00","FM-15","7",,"ESE","1.5","mi","TEMP, PRECIP, SNOW",,,"PSY, SRG, SNOWBOARD",,,"FAA CWO",,,,,,,,,,,,,,,,,,,,,,,,,,,"30.19","66","74","T",,"+0.02","8","76","30.19","FEW:02 11 SCT:04 26 BKN:07 85","30.16","10.00","69","130",,"9",,,,,,,,,,,,,,,,,,,,,,,,,,,,,,,,,,,,,"MET15306/18/20 12:51:02 METAR KJFK 181751Z 13008KT 10SM FEW011 SCT026 BKN085 23/19 A3019 RMK AO2 RAB1655E09 SLP223 P0000 60000 T02330189 10239 20183 58006 (BH)","FM-15","7",,,,,,,,,,,,,,,,,,,,,,,,,,,,"2009-05-01"
"74486094789","2020-06-18T13:00:00","FM-12","4",,"ESE","1.5","mi","TEMP, PRECIP, SNOW",,,"PSY, SRG, SNOWBOARD",,,"FAA CWO",,,,,,,,,,,,,,,,,,,,,,,,,,,,"66","74",,,"+0.02","8","76","30.19","15","30.16","9.94","69","130",,"9",,,,,,,,,,,,,,,,,,,,,,,,,,,,,,,,,,,,,"SYN08674486 12466 61308 10233 20189 30212 40223 58006 69901 91751 333 10239 20178 555 91818=","FM-12","4",,,,,,,,,,,,,,,,,,,,,,,,,,,,"2009-05-01"
"74486094789","2020-06-18T13:32:00","FM-16","7",,"ESE","1.5","mi","TEMP, PRECIP, SNOW",,,"PSY, SRG, SNOWBOARD",,,"FAA CWO",,,,,,,,,,,,,,,,,,,,,,,,,,,"30.19","66","72",,,,,"82",,"FEW:02 11 BKN:07 23 BKN:07 80","30.16","10.00","68","140",,"11",,,,,,,,,,,,,,,,,,,,,,,,,,,,,,,,,,,,,"MET10506/18/20 13:32:02 SPECI KJFK 181832Z 14010KT 10SM FEW011 BKN023 BKN080 22/19 A3019 RMK AO2 T02220189 (RR)","FM-16","7",,,,,,,,,,,,,,,,,,,,,,,,,,,,"2009-05-01"
"74486094789","2020-06-18T13:51:00","FM-15","7",,"ESE","1.5","mi","TEMP, PRECIP, SNOW",,,"PSY, SRG, SNOWBOARD",,,"FAA CWO",,,,,,,,,,,,,,,,,,,,,,,,,,,"30.19","65","72","0.00",,,,"79","30.18","FEW:02 11 BKN:07 21 BKN:07 80","30.16","10.00","68","120",,"9",,,,,,,,,,,,,,,,,,,,,,,,,,,,,,,,,,,,,"MET11206/18/20 13:51:02 METAR KJFK 181851Z 12008KT 10SM FEW011 BKN021 BKN080 22/18 A3019 RMK AO2 SLP221 T02220183 (RR)","FM-15","7",,,,,,,,,,,,,,,,,,,,,,,,,,,,"2009-05-01"
"74486094789","2020-06-18T14:47:00","FM-16","7",,"ESE","1.5","mi","TEMP, PRECIP, SNOW",,,"PSY, SRG, SNOWBOARD",,,"FAA CWO",,,,,,,,,,,,,,,,,,,,,,,,,,,"30.18","66","73",,,,,"78",,"FEW:02 11 SCT:04 27 BKN:07 70","30.16","10.00","69","160",,"7",,,,,,,,,,,,,,,,,,,,,,,,,,,,,,,,,,,,,"MET09506/18/20 14:47:02 SPECI KJFK 181947Z 16006KT 10SM FEW011 SCT027 BKN070 23/19 A3018 RMK AO2 (RR)","FM-16","7",,,,,,,,,,,,,,,,,,,,,,,,,,,,"2009-05-01"
"74486094789","2020-06-18T14:51:00","FM-15","7",,"ESE","1.5","mi","TEMP, PRECIP, SNOW",,,"PSY, SRG, SNOWBOARD",,,"FAA CWO",,,,,,,,,,,,,,,,,,,,,,,,,,,"30.18","66","73","0.00",,,,"79","30.17","FEW:02 11 SCT:04 27 BKN:07 70","30.16","10.00","69","170",,"7",,,,,,,,,,,,,,,,,,,,,,,,,,,,,,,,,,,,,"MET11206/18/20 14:51:02 METAR KJFK 181951Z 17006KT 10SM FEW011 SCT027 BKN070 23/19 A3018 RMK AO2 SLP218 T02280189 (RR)","FM-15","7",,,,,,,,,,,,,,,,,,,,,,,,,,,,"2009-05-01"
"74486094789","2020-06-18T15:15:00","FM-16","7",,"ESE","1.5","mi","TEMP, PRECIP, SNOW",,,"PSY, SRG, SNOWBOARD",,,"FAA CWO",,,,,,,,,,,,,,,,,,,,,,,,,,,"30.17","66","72",,,,,"82",,"BKN:07 13 BKN:07 29 OVC:08 70","30.14","10.00","68","150",,"9",,,,,,,,,,,,,,,,,,,,,,,,,,,,,,,,,,,,,"MET10506/18/20 15:15:02 SPECI KJFK 182015Z 15008KT 10SM BKN013 BKN029 OVC070 22/19 A3017 RMK AO2 T02220189 (RR)","FM-16","7",,,,,,,,,,,,,,,,,,,,,,,,,,,,"2009-05-01"
"74486094789","2020-06-18T15:51:00","FM-15","7",,"ESE","1.5","mi","TEMP, PRECIP, SNOW",,,"PSY, SRG, SNOWBOARD",,,"FAA CWO",,,,,,,,,,,,,,,,,,,,,,,,,,,"30.16","65","70","0.00",,"+0.03","8","84","30.16","BKN:07 10 BKN:07 29","30.14","10.00","67","130",,"8",,,,,,,,,,,,,,,,,,,,,,,,,,,,,,,,,,,,,"MET11106/18/20 15:51:02 METAR KJFK 182051Z 13007KT 10SM BKN010 BKN029 21/18 A3016 RMK AO2 SLP213 T02110183 58009 (RR)","FM-15","7",,,,,,,,,,,,,,,,,,,,,,,,,,,,"2009-05-01"
"74486094789","2020-06-18T16:00:00","FM-12","4",,"ESE","1.5","mi","TEMP, PRECIP, SNOW",,,"PSY, SRG, SNOWBOARD",,,"FAA CWO",,,,,,,,,,,,,,,,,,,,,,,,,,,,"65","70",,,"+0.03","8","84","30.16","15","30.13","9.94","67","130",,"8",,,,,,,,,,,,,,,,,,,,,,,,,,,,,,,,,,,,,"SYN06474486 32466 61307 10211 20183 30202 40213 58009 92051 555 91821=","FM-12","4",,,,,,,,,,,,,,,,,,,,,,,,,,,,"2009-05-01"
"74486094789","2020-06-18T16:33:00","FM-16","7",,"ESE","1.5","mi","TEMP, PRECIP, SNOW",,,"PSY, SRG, SNOWBOARD",,,"FAA CWO",,,,,,,,,,,,,,,,,,,,,,,,,,,"30.14","65","70",,,,,"84",,"FEW:02 7 OVC:08 13","30.11","10.00","67","130",,"6",,,,,,,,,,,,,,,,,,,,,,,,,,,,,,,,,,,,,"MET10806/18/20 16:33:02 SPECI KJFK 182133Z 13005KT 10SM FEW007 OVC013 21/18 A3014 RMK AO2 CIG 008 W T02110183 (RR)","FM-16","7",,,,,,,,,,,,,,,,,,,,,,,,,,,,"2009-05-01"
"74486094789","2020-06-18T16:51:00","FM-15","7",,"ESE","1.5","mi","TEMP, PRECIP, SNOW",,,"PSY, SRG, SNOWBOARD",,,"FAA CWO",,,,,,,,,,,,,,,,,,,,,,,,,,,"30.14","65","71","0.00",,,,"81","30.14","SCT:04 8 BKN:07 13 BKN:07 29","30.11","10.00","67","VRB",,"5",,,,,,,,,,,,,,,,,,,,,,,,,,,,,,,,,,,,,"MET11206/18/20 16:51:02 METAR KJFK 182151Z VRB04KT 10SM SCT008 BKN013 BKN029 22/18 A3014 RMK AO2 SLP207 T02170183 (RR)","FM-15","7",,,,,,,,,,,,,,,,,,,,,,,,,,,,"2009-05-01"
"74486094789","2020-06-18T17:51:00","FM-15","7",,"ESE","1.5","mi","TEMP, PRECIP, SNOW",,,"PSY, SRG, SNOWBOARD",,,"FAA CWO",,,,,,,,,,,,,,,,,,,,,,,,,,,"30.14","65","70","0.00",,,,"84","30.14","BKN:07 10 BKN:07 29 BKN:07 250","30.11","10.00","67","120",,"7",,,,,,,,,,,,,,,,,,,,,,,,,,,,,,,,,,,,,"MET12506/18/20 17:51:02 METAR KJFK 182251Z 12006KT 10SM BKN010 BKN029 BKN250 21/18 A3014 RMK AO2 SLP205 BKN010 V SCT T02110183 (RR)","FM-15","7",,,,,,,,,,,,,,,,,,,,,,,,,,,,"2009-05-01"
"74486094789","2020-06-18T18:19:00","FM-16","7",,"ESE","1.5","mi","TEMP, PRECIP, SNOW",,,"PSY, SRG, SNOWBOARD",,,"FAA CWO",,,,,,,,,,,,,,,,,,,,,,,,,,,"30.13","65","69",,,,,"87",,"BKN:07 8 BKN:07 29 BKN:07 250","30.11","10.00","66","110",,"8",,,,,,,,,,,,,,,,,,,,,,,,,,,,,,,,,,,,,"MET10506/18/20 18:19:02 SPECI KJFK 182319Z 11007KT 10SM BKN008 BKN029 BKN250 21/18 A3013 RMK AO2 T02060183 (RR)","FM-16","7",,,,,,,,,,,,,,,,,,,,,,,,,,,,"2009-05-01"
"74486094789","2020-06-18T18:51:00","FM-15","7",,"ESE","1.5","mi","TEMP, PRECIP, SNOW",,,"PSY, SRG, SNOWBOARD",,,"FAA CWO",,,,,,,,,,,,,,,,,,,,,,,,,,,"30.13","65","68","0.00",,"+0.03","6","90","30.13","BKN:07 6 BKN:07 29 BKN:07 250","30.11","10.00","66","100",,"8",,,,,,,,,,,,,,,,,,,,,,,,,,,,,,,,,,,,,"MET13006/18/20 18:51:02 METAR KJFK 182351Z 10007KT 10SM BKN006 BKN029 BKN250 20/18 A3013 RMK AO2 SLP202 T02000183 10233 20200 56011 (RR)","FM-15","7",,,,,,,,,,,,,,,,,,,,,,,,,,,,"2009-05-01"
"74486094789","2020-06-18T19:00:00","FM-12","4",,"ESE","1.5","mi","TEMP, PRECIP, SNOW",,,"PSY, SRG, SNOWBOARD",,,"FAA CWO",,,,,,,,,,,,,,,,,,,,,,,,,,,,"65","68",,,"+0.03","6","90","30.13","5","30.10","9.94","66","100",,"8",,,,,,,,,,,,,,,,,,,,,,,,,,,,,,,,,,,,,"SYN08074486 32266 61007 10200 20183 30192 40202 56011 92351 333 10239 20167 555 91900=","FM-12","4",,,,,,,,,,,,,,,,,,,,,,,,,,,,"2009-05-01"
"74486094789","2020-06-18T19:51:00","FM-15","7",,"ESE","1.5","mi","TEMP, PRECIP, SNOW",,,"PSY, SRG, SNOWBOARD",,,"FAA CWO",,,,,,,,,,,,,,,,,,,,,,,,,,,"30.13","65","66","0.00","BR:1 ||",,,"96","30.13","BKN:07 5 BKN:07 250","30.11","5.00","65","110",,"7",,,,,,,,,,,,,,,,,,,,,,,,,,,,,,,,,,,,,"MET12006/18/20 19:51:01 METAR KJFK 190051Z 11006KT 5SM R04R/3500VP6000FT BR BKN005 BKN250 19/18 A3013 RMK AO2 SLP204 T01890183","FM-15","7",,,,,,,,,,,,,,,,,,,,,,,,,,,,"2009-05-01"
"74486094789","2020-06-18T20:08:00","FM-16","7",,"ESE","1.5","mi","TEMP, PRECIP, SNOW",,,"PSY, SRG, SNOWBOARD",,,"FAA CWO",,,,,,,,,,,,,,,,,,,,,,,,,,,"30.14","65","65",,"BR:1 |s |",,,"100",,"BKN:07 3 BKN:07 250","30.11","0.25V","65","110",,"10",,,,,,,,,,,,,,,,,,,,,,,,,,,,,,,,,,,,,"MET13706/18/20 20:08:01 SPECI KJFK 190108Z 11009KT 1/4SM R04R/2400V3000FT BR BKN003 BKN250 18/18 A3014 RMK AO2 SFC VIS 5 VIS LWR E-SE T01830183","FM-16","7",,,,,,,,,,,,,,,,,,,,,,,,,,,,"2009-05-01"
"74486094789","2020-06-18T20:51:00","FM-15","7",,"ESE","1.5","mi","TEMP, PRECIP, SNOW",,,"PSY, SRG, SNOWBOARD",,,"FAA CWO",,,,,,,,,,,,,,,,,,,,,,,,,,,"30.15","64","64","0.00","BR:1 |s |",,,"100","30.15","OVC:08 2","30.12","0.25","64","100",,"6",,,,,,,,,,,,,,,,,,,,,,,,,,,,,,,,,,,,,"MET12406/18/20 20:51:01 METAR KJFK 190151Z 10005KT 1/4SM R04R/2600V3500FT BR OVC002 18/18 A3015 RMK AO2 SFC VIS 2 SLP210 T01780178","FM-15","7",,,,,,,,,,,,,,,,,,,,,,,,,,,,"2009-05-01"
"74486094789","2020-06-18T21:51:00","FM-15","7",,"ESE","1.5","mi","TEMP, PRECIP, SNOW",,,"PSY, SRG, SNOWBOARD",,,"FAA CWO",,,,,,,,,,,,,,,,,,,,,,,,,,,"30.16","64","65","0.00","BR:1 |s |","-0.03","1","97","30.16","OVC:08 3","30.14","0.25","64","130",,"6",,,,,,,,,,,,,,,,,,,,,,,,,,,,,,,,,,,,,"MET13106/18/20 21:51:01 METAR KJFK 190251Z 13005KT 1/4SM R04R/4000VP6000FT BR OVC003 18/18 A3016 RMK AO2 SFC VIS 4 SLP212 T01830178 51010","FM-15","7",,,,,,,,,,,,,,,,,,,,,,,,,,,,"2009-05-01"
"74486094789","2020-06-18T22:00:00","FM-12","4",,"ESE","1.5","mi","TEMP, PRECIP, SNOW",,,"PSY, SRG, SNOWBOARD",,,"FAA CWO",,,,,,,,,,,,,,,,,,,,,,,,,,,,"64","65",,,"-0.03","1","97","30.16","2","30.13","0.25","64","130",,"6",,,,,,,,,,,,,,,,,,,,,,,,,,,,,,,,,,,,,"SYN07074486 31104 81305 10183 20178 30202 40212 51010 710// 90251 555 91903=","FM-12","4",,,,,,,,,,,,,,,,,,,,,,,,,,,,"2009-05-01"
"74486094789","2020-06-18T22:51:00","FM-15","7",,"ESE","1.5","mi","TEMP, PRECIP, SNOW",,,"PSY, SRG, SNOWBOARD",,,"FAA CWO",,,,,,,,,,,,,,,,,,,,,,,,,,,"30.16","64","65","0.00","BR:1 |s |",,,"97","30.16","OVC:08 3","30.14","0.25","64","130",,"7",,,,,,,,,,,,,,,,,,,,,,,,,,,,,,,,,,,,,"MET12006/18/20 22:51:02 METAR KJFK 190351Z 13006KT 1/4SM R04R/P6000FT BR OVC003 18/18 A3016 RMK AO2 SFC VIS 2 SLP212 T01830178","FM-15","7",,,,,,,,,,,,,,,,,,,,,,,,,,,,"2009-05-01"
"74486094789","2020-06-18T23:51:00","FM-15","7",,"ESE","1.5","mi","TEMP, PRECIP, SNOW",,,"PSY, SRG, SNOWBOARD",,,"FAA CWO",,,,,,,,,,,,,,,,,,,,,,,,,,,"30.15","65","65","0.00","BR:1 |s |",,,"100","30.15","OVC:08 2","30.12","0.25","65","100",,"5",,,,,,,,,,,,,,,,,,,,,,,,,,,,,,,,,,,,,"MET13906/18/20 23:51:02 METAR KJFK 190451Z 10004KT 1/4SM R04R/6000VP6000FT BR OVC002 18/18 A3015 RMK AO2 SFC VIS 1 1/2 SLP210 T01830183 402390167","FM-15","7",,,,,,,,,,,,,,,,,,,,,,,,,,,,"2009-05-01"
"74486094789","2020-06-18T23:59:00","SOD  ","6",,"ESE","1.5","mi","TEMP, PRECIP, SNOW",,,"PSY, SRG, SNOWBOARD",,,"FAA CWO",,,,"64","69","90","30.18","30.15","66","7.0","4","-2.4","0","75","62","110","18","T","0","0.0","140","14","BR",,,,,,,,,,,,,,,,,,,,,,,,,,,,,,,,,,,,,,,,,,,,,,,,,,,,,,,,"SOD75724 HR PRECIPITATION (IN):    T SNOW DEPTH (IN):0     24 HR SNOWFALL (IN):0.0  WEATHER(CODE):12  24 HR MAX TEMP (F): 7524 HR MIN TEMP (F): 62AVERAGE STATION PRESSURE:30.150 MINIMUM SEA LEVEL PRESSURE:30.13 TIME OF OCCURRENCE:1955 PEAK WIND SPEED (MPH): 18 PEAK WIND DIR (DEG):110 PEAK WIND TIME (LST):      FASTEST 2MIN SPEED (MPH): 14FASTEST 2MIN DIR (DEG):140 FASTEST 2MIN TIME (LST):     AVERAGE WIND SPEED (MPH): 7.0 24 HR AVG TEMP (F): 69DEPART FROM NORMAL: -2  HEATING DEGREE DAYS:  0 COOLING DEGREE DAYS:  4 LATEST DAY MAX TEMP (0700-1900 LST):75  LATEST NIGHT MIN TEMP(1900-0800 LST):62 HOURLY INCREMENTAL PRECIPITATION VALUES (IN):    0.00 0.00 0.00 0.00 0.00 0.00 0.00 0.00 0.00 0.00 T    T    0.00 0.00 0.00 0.00 0.00 0.00 0.00 0.00 0.00 0.00 0.00","SOD  ","6",,,,,,,,,,,,,,,,,,,,,,,,,"0424","1929",,"2009-05-01"
"74486094789","2020-06-19T00:51:00","FM-15","7",,"ESE","1.5","mi","TEMP, PRECIP, SNOW",,,"PSY, SRG, SNOWBOARD",,,"FAA CWO",,,,,,,,,,,,,,,,,,,,,,,,,,,"30.14","65","65","0.00","BR:1 |s |","+0.01","8","100","30.14","OVC:08 2","30.11","0.25","65","140",,"3",,,,,,,,,,,,,,,,,,,,,,,,,,,,,,,,,,,,,"MET15206/19/20 00:51:02 METAR KJFK 190551Z 14003KT 1/4SM R04R/5000VP6000FT BR OVC002 18/18 A3014 RMK AO2 SFC VIS 1 1/2 SLP206 T01830183 10200 20178 58005 (JC)","FM-15","7",,,,,,,,,,,,,,,,,,,,,,,,,,,,"2009-05-01"
"74486094789","2020-06-19T01:00:00","FM-12","4",,"ESE","1.5","mi","TEMP, PRECIP, SNOW",,,"PSY, SRG, SNOWBOARD",,,"FAA CWO",,,,,,,,,,,,,,,,,,,,,,,,,,,,"65","65",,,"+0.01","8","100","30.14","2","30.11","0.25","65","140",,"3",,,,,,,,,,,,,,,,,,,,,,,,,,,,,,,,,,,,,"SYN08674486 31104 81403 10183 20183 30195 40206 58005 710// 90551 333 10200 20167 555 91906=","FM-12","4",,,,,,,,,,,,,,,,,,,,,,,,,,,,"2009-05-01"
"74486094789","2020-06-19T01:51:00","FM-15","7",,"ESE","1.5","mi","TEMP, PRECIP, SNOW",,,"PSY, SRG, SNOWBOARD",,,"FAA CWO",,,,,,,,,,,,,,,,,,,,,,,,,,,"30.14","65","65","0.00","BR:1 |s |",,,"100","30.14","OVC:08 3","30.11","0.25","65","000",,"0",,,,,,,,,,,,,,,,,,,,,,,,,,,,,,,,,,,,,"MET13206/19/20 01:51:02 METAR KJFK 190651Z 00000KT 1/4SM R04R/4500VP6000FT BR OVC003 18/18 A3014 RMK AO2 SFC VIS 3/4 SLP205 T01830183 (JC)","FM-15","7",,,,,,,,,,,,,,,,,,,,,,,,,,,,"2009-05-01"
"74486094789","2020-06-19T02:51:00","FM-15","7",,"ESE","1.5","mi","TEMP, PRECIP, SNOW",,,"PSY, SRG, SNOWBOARD",,,"FAA CWO",,,,,,,,,,,,,,,,,,,,,,,,,,,"30.13","64","64","0.00","BR:1 |s |",,,"100","30.13","OVC:08 2","30.11","0.25","64","000",,"0",,,,,,,,,,,,,,,,,,,,,,,,,,,,,,,,,,,,,"MET13206/19/20 02:51:02 METAR KJFK 190751Z 00000KT 1/4SM R04R/5000VP6000FT BR OVC002 18/18 A3013 RMK AO2 SFC VIS 3/4 SLP202 T01780178 (JC)","FM-15","7",,,,,,,,,,,,,,,,,,,,,,,,,,,,"2009-05-01"
"74486094789","2020-06-19T03:51:00","FM-15","7",,"ESE","1.5","mi","TEMP, PRECIP, SNOW",,,"PSY, SRG, SNOWBOARD",,,"FAA CWO",,,,,,,,,,,,,,,,,,,,,,,,,,,"30.13","65","65","0.00","BR:1 |s |","+0.01","5","100","30.13","OVC:08 3","30.11","0.25","65","260",,"3",,,,,,,,,,,,,,,,,,,,,,,,,,,,,,,,,,,,,"MET13106/19/20 03:51:02 METAR KJFK 190851Z 26003KT 1/4SM R04R/P6000FT BR OVC003 18/18 A3013 RMK AO2 SFC VIS 3 SLP203 T01830183 55003 (JC)","FM-15","7",,,,,,,,,,,,,,,,,,,,,,,,,,,,"2009-05-01"
"74486094789","2020-06-19T04:00:00","FM-12","4",,"ESE","1.5","mi","TEMP, PRECIP, SNOW",,,"PSY, SRG, SNOWBOARD",,,"FAA CWO",,,,,,,,,,,,,,,,,,,,,,,,,,,,"65","65",,,"+0.01","5","100","30.13","2","30.10","0.25","65","260",,"3",,,,,,,,,,,,,,,,,,,,,,,,,,,,,,,,,,,,,"SYN07074486 31104 82603 10183 20183 30192 40203 55003 710// 90851 555 91909=","FM-12","4",,,,,,,,,,,,,,,,,,,,,,,,,,,,"2009-05-01"
"74486094789","2020-06-19T04:51:00","FM-15","7",,"ESE","1.5","mi","TEMP, PRECIP, SNOW",,,"PSY, SRG, SNOWBOARD",,,"FAA CWO",,,,,,,,,,,,,,,,,,,,,,,,,,,"30.15","65","65","0.00","BR:1 |s |",,,"100","30.14","OVC:08 3","30.12","0.25","65","000",,"0",,,,,,,,,,,,,,,,,,,,,,,,,,,,,,,,,,,,,"MET13406/19/20 04:51:02 METAR KJFK 190951Z 00000KT 1/4SM R04R/5500VP6000FT BR OVC003 18/18 A3015 RMK AO2 SFC VIS 2 1/2 SLP208 T01830183 (JC)","FM-15","7",,,,,,,,,,,,,,,,,,,,,,,,,,,,"2009-05-01"
"74486094789","2020-06-19T05:49:00","FM-16","6",,"ESE","1.5","mi","TEMP, PRECIP, SNOW",,,"PSY, SRG, SNOWBOARD",,,"FAA CWO",,,,,,,,,,,,,,,,,,,,,,,,,,,"30.16","64","64",,"BR:1 ||",,,"100",,"BKN:07 4 BKN:07 32","30.14","6.00","64","200",,"3",,,,,,,,,,,,,,,,,,,,,,,,,,,,,,,,,,,,,"MET12106/19/20 05:49:02 SPECI KJFK 191049Z 20003KT 6SM BR BKN004 BKN032 18/18 A3016 RMK AO2 VIS E-S 2 1/2 CIG 003V005 FIBI (BH)","FM-16","6",,,,,,,,,,,,,,,,,,,,,,,,,,,,"2009-05-01"
"74486094789","2020-06-19T05:51:00","FM-15","7",,"ESE","1.5","mi","TEMP, PRECIP, SNOW",,,"PSY, SRG, SNOWBOARD",,,"FAA CWO",,,,,,,,,,,,,,,,,,,,,,,,,,,"30.16","65","65","0.00","BR:1 ||",,,"100","30.16","BKN:07 4 BKN:07 32","30.14","6.00","65","190",,"3",,,,,,,,,,,,,,,,,,,,,,,,,,,,,,,,,,,,,"MET13306/19/20 05:51:02 METAR KJFK 191051Z 19003KT 6SM BR BKN004 BKN032 18/18 A3016 RMK AO2 SLP213 VIS E-S 2 1/2 CIG 003V005 T01830183 (BH)","FM-15","7",,,,,,,,,,,,,,,,,,,,,,,,,,,,"2009-05-01"
"74486094789","2020-06-19T06:19:00","FM-16","7",,"ESE","1.5","mi","TEMP, PRECIP, SNOW",,,"PSY, SRG, SNOWBOARD",,,"FAA CWO",,,,,,,,,,,,,,,,,,,,,,,,,,,"30.17","65","65",,,,,"100",,"BKN:07 6 BKN:07 32 BKN:07 65","30.14","7.00","65","200",,"3",,,,,,,,,,,,,,,,,,,,,,,,,,,,,,,,,,,,,"MET10406/19/20 06:19:02 SPECI KJFK 191119Z 20003KT 7SM BKN006 BKN032 BKN065 18/18 A3017 RMK AO2 T01830183 (BH)","FM-16","7",,,,,,,,,,,,,,,,,,,,,,,,,,,,"2009-05-01"
"74486094789","2020-06-19T06:49:00","FM-16","6",,"ESE","1.5","mi","TEMP, PRECIP, SNOW",,,"PSY, SRG, SNOWBOARD",,,"FAA CWO",,,,,,,,,,,,,,,,,,,,,,,,,,,"30.17","64","66",,,,,"94",,"SCT:04 8 SCT:04 65 SCT:04 250","30.14","10.00","65","240",,"3",,,,,,,,,,,,,,,,,,,,,,,,,,,,,,,,,,,,,"MET10006/19/20 06:49:02 SPECI KJFK 191149Z 24003KT 10SM SCT008 SCT065 SCT250 19/18 A3017 RMK AO2 FIBI (BH)","FM-16","6",,,,,,,,,,,,,,,,,,,,,,,,,,,,"2009-05-01"
"74486094789","2020-06-19T06:51:00","FM-15","7",,"ESE","1.5","mi","TEMP, PRECIP, SNOW",,,"PSY, SRG, SNOWBOARD",,,"FAA CWO",,,,,,,,,,,,,,,,,,,,,,,,,,,"30.17","64","67","0.00",,"-0.04","1","91","30.16","SCT:04 8 SCT:04 65 SCT:04 250","30.14","10.00","65","250",,"3",,,,,,,,,,,,,,,,,,,,,,,,,,,,,,,,,,,,,"MET13006/19/20 06:51:02 METAR KJFK 191151Z 25003KT 10SM SCT008 SCT065 SCT250 19/18 A3017 RMK AO2 SLP215 T01940178 10200 20178 51012 (BH)","FM-15","7",,,,,,,,,,,,,,,,,,,,,,,,,,,,"2009-05-01"
"74486094789","2020-06-19T07:00:00","FM-12","4",,"ESE","1.5","mi","TEMP, PRECIP, SNOW",,,"PSY, SRG, SNOWBOARD",,,"FAA CWO",,,,,,,,,,,,,,,,,,,,,,,,,,,,"64","67",,,"-0.04","1","91","30.16","8","30.14","9.94","65","250",,"3",,,,,,,,,,,,,,,,,,,,,,,,,,,,,,,,,,,,,"SYN08074486 32366 42503 10194 20178 30205 40215 51012 91151 333 10239 20178 555 91912=","FM-12","4",,,,,,,,,,,,,,,,,,,,,,,,,,,,"2009-05-01"
"74486094789","2020-06-19T07:51:00","FM-15","7",,"ESE","1.5","mi","TEMP, PRECIP, SNOW",,,"PSY, SRG, SNOWBOARD",,,"FAA CWO",,,,,,,,,,,,,,,,,,,,,,,,,,,"30.17","64","70","0.00",,,,"82","30.16","FEW:02 15 FEW:02 95 FEW:02 250","30.14","10.00","66","230",,"5",,,,,,,,,,,,,,,,,,,,,,,,,,,,,,,,,,,,,"MET11206/19/20 07:51:02 METAR KJFK 191251Z 23004KT 10SM FEW015 FEW095 FEW250 21/18 A3017 RMK AO2 SLP215 T02110178 (BH)","FM-15","7",,,,,,,,,,,,,,,,,,,,,,,,,,,,"2009-05-01"
"74486094789","2020-06-19T08:51:00","FM-15","7",,"ESE","1.5","mi","TEMP, PRECIP, SNOW",,,"PSY, SRG, SNOWBOARD",,,"FAA CWO",,,,,,,,,,,,,,,,,,,,,,,,,,,"30.16","64","73","0.00",,,,"74","30.16","FEW:02 20 SCT:04 150 SCT:04 250","30.14","10.00","67","220",,"7",,,,,,,,,,,,,,,,,,,,,,,,,,,,,,,,,,,,,"MET10706/19/20 08:51:02 METAR KJFK 191351Z 22006KT 10SM FEW020 SCT150 SCT250 23/18 A3016 RMK AO2 SLP214 T02280178","FM-15","7",,,,,,,,,,,,,,,,,,,,,,,,,,,,"2009-05-01"
"74486094789","2020-06-19T09:51:00","FM-15","7",,"ESE","1.5","mi","TEMP, PRECIP, SNOW",,,"PSY, SRG, SNOWBOARD",,,"FAA CWO",,,,,,,,,,,,,,,,,,,,,,,,,,,"30.15","64","74","0.00",,"+0.01","8","71","30.15","FEW:02 25 FEW:02 150 FEW:02 250","30.12","10.00","68","190",,"9",,,,,,,,,,,,,,,,,,,,,,,,,,,,,,,,,,,,,"MET11306/19/20 09:51:02 METAR KJFK 191451Z 19008KT 10SM FEW025 FEW150 FEW250 23/18 A3015 RMK AO2 SLP210 T02330178 58005","FM-15","7",,,,,,,,,,,,,,,,,,,,,,,,,,,,"2009-05-01"
"74486094789","2020-06-19T10:00:00","FM-12","4",,"ESE","1.5","mi","TEMP, PRECIP, SNOW",,,"PSY, SRG, SNOWBOARD",,,"FAA CWO",,,,,,,,,,,,,,,,,,,,,,,,,,,,"64","74",,,"+0.01","8","71","30.15","26","30.12","9.94","68","190",,"9",,,,,,,,,,,,,,,,,,,,,,,,,,,,,,,,,,,,,"SYN06474486 32566 21908 10233 20178 30199 40210 58005 91451 555 91915=","FM-12","4",,,,,,,,,,,,,,,,,,,,,,,,,,,,"2009-05-01"
"74486094789","2020-06-19T10:51:00","FM-15","7",,"ESE","1.5","mi","TEMP, PRECIP, SNOW",,,"PSY, SRG, SNOWBOARD",,,"FAA CWO",,,,,,,,,,,,,,,,,,,,,,,,,,,"30.14","64","76","0.00",,,,"67","30.14","FEW:02 30 FEW:02 250","30.11","10.00","68","180",,"10",,,,,,,,,,,,,,,,,,,,,,,,,,,,,,,,,,,,,"MET10006/19/20 10:51:02 METAR KJFK 191551Z 18009KT 10SM FEW030 FEW250 24/18 A3014 RMK AO2 SLP206 T02440178","FM-15","7",,,,,,,,,,,,,,,,,,,,,,,,,,,,"2009-05-01"
"74486094789","2020-06-19T11:51:00","FM-15","7",,"ESE","1.5","mi","TEMP, PRECIP, SNOW",,,"PSY, SRG, SNOWBOARD",,,"FAA CWO",,,,,,,,,,,,,,,,,,,,,,,,,,,"30.14","64","76","0.00",,,,"67","30.14","FEW:02 35 SCT:04 250","30.11","10.00","68","180",,"13",,,,,,,,,,,,,,,,,,,,,,,,,,,,,,,,,,,,,"MET10006/19/20 11:51:02 METAR KJFK 191651Z 18011KT 10SM FEW035 SCT250 24/18 A3014 RMK AO2 SLP205 T02440178","FM-15","7",,,,,,,,,,,,,,,,,,,,,,,,,,,,"2009-05-01"
"74486094789","2020-06-19T12:51:00","FM-15","7",,"ESE","1.5","mi","TEMP, PRECIP, SNOW",,,"PSY, SRG, SNOWBOARD",,,"FAA CWO",,,,,,,,,,,,,,,,,,,,,,,,,,,"30.12","65","77","0.00",,"+0.03","8","66","30.12","FEW:02 40 FEW:02 75 SCT:04 250","30.09","10.00","69","160",,"10",,,,,,,,,,,,,,,,,,,,,,,,,,,,,,,,,,,,,"MET12506/19/20 12:51:02 METAR KJFK 191751Z 16009KT 10SM FEW040 FEW075 SCT250 25/18 A3012 RMK AO2 SLP200 T02500183 10250 20194 58009","FM-15","7",,,,,,,,,,,,,,,,,,,,,,,,,,,,"2009-05-01"
"74486094789","2020-06-19T13:00:00","FM-12","4",,"ESE","1.5","mi","TEMP, PRECIP, SNOW",,,"PSY, SRG, SNOWBOARD",,,"FAA CWO",,,,,,,,,,,,,,,,,,,,,,,,,,,,"65","77",,,"+0.03","8","66","30.12","41","30.09","9.94","69","160",,"10",,,,,,,,,,,,,,,,,,,,,,,,,,,,,,,,,,,,,"SYN08074486 32666 41609 10250 20183 30188 40200 58009 91751 333 10250 20194 555 91918=","FM-12","4",,,,,,,,,,,,,,,,,,,,,,,,,,,,"2009-05-01"
"74486094789","2020-06-19T13:51:00","FM-15","7",,"ESE","1.5","mi","TEMP, PRECIP, SNOW",,,"PSY, SRG, SNOWBOARD",,,"FAA CWO",,,,,,,,,,,,,,,,,,,,,,,,,,,"30.11","64","77","0.00",,,,"64","30.11","FEW:02 40 FEW:02 100 SCT:04 250","30.09","10.00","69","190",,"11",,,,,,,,,,,,,,,,,,,,,,,,,,,,,,,,,,,,,"MET10706/19/20 13:51:02 METAR KJFK 191851Z 19010KT 10SM FEW040 FEW100 SCT250 25/18 A3011 RMK AO2 SLP196 T02500178","FM-15","7",,,,,,,,,,,,,,,,,,,,,,,,,,,,"2009-05-01"
"74486094789","2020-06-19T14:51:00","FM-15","7",,"ESE","1.5","mi","TEMP, PRECIP, SNOW",,,"PSY, SRG, SNOWBOARD",,,"FAA CWO",,,,,,,,,,,,,,,,,,,,,,,,,,,"30.10","64","76","0.00",,,,"67","30.09","FEW:02 40 FEW:02 100 SCT:04 250","30.08","10.00","68","180",,"15",,,,,,,,,,,,,,,,,,,,,,,,,,,,,,,,,,,,,"MET11906/19/20 14:51:02 METAR KJFK 191951Z 18013KT 10SM FEW040 FEW100 SCT250 24/18 A3010 RMK AO2 SLP191 TCU DSNT SW T02440178","FM-15","7",,,,,,,,,,,,,,,,,,,,,,,,,,,,"2009-05-01"
"74486094789","2020-06-19T15:51:00","FM-15","7",,"ESE","1.5","mi","TEMP, PRECIP, SNOW",,,"PSY, SRG, SNOWBOARD",,,"FAA CWO",,,,,,,,,,,,,,,,,,,,,,,,,,,"30.09","63","73","0.00",,"+0.03","6","71","30.09","FEW:02 40 FEW:02 100 SCT:04 250","30.06","10.00","67","160",,"10",,,,,,,,,,,,,,,,,,,,,,,,,,,,,,,,,,,,,"MET11306/19/20 15:51:02 METAR KJFK 192051Z 16009KT 10SM FEW040 FEW100 SCT250 23/17 A3009 RMK AO2 SLP189 T02280172 56011","FM-15","7",,,,,,,,,,,,,,,,,,,,,,,,,,,,"2009-05-01"
"74486094789","2020-06-19T16:00:00","FM-12","4",,"ESE","1.5","mi","TEMP, PRECIP, SNOW",,,"PSY, SRG, SNOWBOARD",,,"FAA CWO",,,,,,,,,,,,,,,,,,,,,,,,,,,,"63","73",,,"+0.03","6","71","30.09","41","30.06","9.94","67","160",,"10",,,,,,,,,,,,,,,,,,,,,,,,,,,,,,,,,,,,,"SYN06474486 32666 41609 10228 20172 30178 40189 56011 92051 555 91921=","FM-12","4",,,,,,,,,,,,,,,,,,,,,,,,,,,,"2009-05-01"
"74486094789","2020-06-19T16:51:00","FM-15","7",,"ESE","1.5","mi","TEMP, PRECIP, SNOW",,,"PSY, SRG, SNOWBOARD",,,"FAA CWO",,,,,,,,,,,,,,,,,,,,,,,,,,,"30.09","64","74","0.00",,,,"71","30.09","FEW:02 11 FEW:02 40 FEW:02 100","30.06","10.00","68","170",,"13",,,,,,,,,,,,,,,,,,,,,,,,,,,,,,,,,,,,,"MET11906/19/20 16:51:02 METAR KJFK 192151Z 17011KT 10SM VCFG FEW011 FEW040 FEW100 23/18 A3009 RMK AO2 SLP188 VCFG S T02330178","FM-15","7",,,,,,,,,,,,,,,,,,,,,,,,,,,,"2009-05-01"
"74486094789","2020-06-19T17:47:00","FM-16","7",,"ESE","1.5","mi","TEMP, PRECIP, SNOW",,,"PSY, SRG, SNOWBOARD",,,"FAA CWO",,,,,,,,,,,,,,,,,,,,,,,,,,,"30.09","64","70",,,,,"83",,"FEW:02 4 FEW:02 40 FEW:02 100","30.06","10.00","66","170",,"15",,,,,,,,,,,,,,,,,,,,,,,,,,,,,,,,,,,,,"MET10206/19/20 17:47:02 SPECI KJFK 192247Z 17013KT 10SM FEW004 FEW040 FEW100 21/18 A3009 RMK AO2 TCU DSNT NW","FM-16","7",,,,,,,,,,,,,,,,,,,,,,,,,,,,"2009-05-01"
"74486094789","2020-06-19T17:51:00","FM-15","7",,"ESE","1.5","mi","TEMP, PRECIP, SNOW",,,"PSY, SRG, SNOWBOARD",,,"FAA CWO",,,,,,,,,,,,,,,,,,,,,,,,,,,"30.09","65","70","0.00",,,,"84","30.09","FEW:02 4 FEW:02 40 FEW:02 100","30.06","10.00","67","170",,"14",,,,,,,,,,,,,,,,,,,,,,,,,,,,,,,,,,,,,"MET11906/19/20 17:51:02 METAR KJFK 192251Z 17012KT 10SM FEW004 FEW040 FEW100 21/18 A3009 RMK AO2 SLP189 TCU DSNT NW T02110183","FM-15","7",,,,,,,,,,,,,,,,,,,,,,,,,,,,"2009-05-01"
"74486094789","2020-06-19T18:35:00","FM-16","7",,"ESE","1.5","mi","TEMP, PRECIP, SNOW",,,"PSY, SRG, SNOWBOARD",,,"FAA CWO",,,,,,,,,,,,,,,,,,,,,,,,,,,"30.10","66","67",,,,,"97",,"BKN:07 6 BKN:07 40 BKN:07 100","30.08","2.00","66","170",,"7",,,,,,,,,,,,,,,,,,,,,,,,,,,,,,,,,,,,,"MET12706/19/20 18:35:02 SPECI KJFK 192335Z 17006KT 2SM R04R/5500VP6000FT BKN006 BKN040 BKN100 19/19 A3010 RMK AO2 SFC VIS 8 T01940189","FM-16","7",,,,,,,,,,,,,,,,,,,,,,,,,,,,"2009-05-01"
"74486094789","2020-06-19T18:51:00","FM-15","7",,"ESE","1.5","mi","TEMP, PRECIP, SNOW",,,"PSY, SRG, SNOWBOARD",,,"FAA CWO",,,,,,,,,,,,,,,,,,,,,,,,,,,"30.10","65","67","0.00",,"-0.01","3","93","30.10","BKN:07 6 BKN:07 40 BKN:07 100","30.08","2.00","66","000",,"0",,,,,,,,,,,,,,,,,,,,,,,,,,,,,,,,,,,,,"MET14706/19/20 18:51:02 METAR KJFK 192351Z 00000KT 2SM BKN006 BKN040 BKN100 19/18 A3010 RMK AO2 SFC VIS 9 SLP192 BKN006 V SCT T01940183 10256 20194 53003","FM-15","7",,,,,,,,,,,,,,,,,,,,,,,,,,,,"2009-05-01"
"74486094789","2020-06-19T19:00:00","FM-12","4",,"ESE","1.5","mi","TEMP, PRECIP, SNOW",,,"PSY, SRG, SNOWBOARD",,,"FAA CWO",,,,,,,,,,,,,,,,,,,,,,,,,,,,"65","67",,,"-0.01","3","93","30.10","5","30.07","1.99","66","000",,"0",,,,,,,,,,,,,,,,,,,,,,,,,,,,,,,,,,,,,"SYN08074486 32232 60000 10194 20183 30182 40192 53003 92351 333 10256 20178 555 92000=","FM-12","4",,,,,,,,,,,,,,,,,,,,,,,,,,,,"2009-05-01"
"74486094789","2020-06-19T19:08:00","FM-16","7",,"ESE","1.5","mi","TEMP, PRECIP, SNOW",,,"PSY, SRG, SNOWBOARD",,,"FAA CWO",,,,,,,,,,,,,,,,,,,,,,,,,,,"30.10","65","68",,,,,"90",,"FEW:02 5 SCT:04 40 SCT:04 100","30.08","10.00","66","190",,"6",,,,,,,,,,,,,,,,,,,,,,,,,,,,,,,,,,,,,"MET10006/19/20 19:08:01 SPECI KJFK 200008Z 19005KT 10SM FEW005 SCT040 SCT100 20/18 A3010 RMK AO2 T02000183","FM-16","7",,,,,,,,,,,,,,,,,,,,,,,,,,,,"2009-05-01"
"74486094789","2020-06-19T19:51:00","FM-15","7",,"ESE","1.5","mi","TEMP, PRECIP, SNOW",,,"PSY, SRG, SNOWBOARD",,,"FAA CWO",,,,,,,,,,,,,,,,,,,,,,,,,,,"30.10","65","67","0.00",,,,"93","30.10","FEW:02 5 SCT:04 50 SCT:04 100","30.08","10.00","66","190",,"9",,,,,,,,,,,,,,,,,,,,,,,,,,,,,,,,,,,,,"MET10706/19/20 19:51:01 METAR KJFK 200051Z 19008KT 10SM FEW005 SCT050 SCT100 19/18 A3010 RMK AO2 SLP192 T01940183","FM-15","7",,,,,,,,,,,,,,,,,,,,,,,,,,,,"2009-05-01"
"74486094789","2020-06-19T20:51:00","FM-15","7",,"ESE","1.5","mi","TEMP, PRECIP, SNOW",,,"PSY, SRG, SNOWBOARD",,,"FAA CWO",,,,,,,,,,,,,,,,,,,,,,,,,,,"30.11","66","68","0.00",,,,"93","30.11","FEW:02 5 SCT:04 110 BKN:07 250","30.09","10.00","67","190",,"7",,,,,,,,,,,,,,,,,,,,,,,,,,,,,,,,,,,,,"MET10706/19/20 20:51:01 METAR KJFK 200151Z 19006KT 10SM FEW005 SCT110 BKN250 20/19 A3011 RMK AO2 SLP196 T02000189","FM-15","7",,,,,,,,,,,,,,,,,,,,,,,,,,,,"2009-05-01"
"74486094789","2020-06-19T21:51:00","FM-15","7",,"ESE","1.5","mi","TEMP, PRECIP, SNOW",,,"PSY, SRG, SNOWBOARD",,,"FAA CWO",,,,,,,,,,,,,,,,,,,,,,,,,,,"30.10","66","67","0.00",,"-0.01","0","97","30.10","FEW:02 5 SCT:04 100 SCT:04 250","30.08","10.00","66","180",,"3",,,,,,,,,,,,,,,,,,,,,,,,,,,,,,,,,,,,,"MET11306/19/20 21:51:01 METAR KJFK 200251Z 18003KT 10SM FEW005 SCT100 SCT250 19/19 A3010 RMK AO2 SLP194 T01940189 50002","FM-15","7",,,,,,,,,,,,,,,,,,,,,,,,,,,,"2009-05-01"
"74486094789","2020-06-19T22:00:00","FM-12","4",,"ESE","1.5","mi","TEMP, PRECIP, SNOW",,,"PSY, SRG, SNOWBOARD",,,"FAA CWO",,,,,,,,,,,,,,,,,,,,,,,,,,,,"66","67",,,"0.01","9","97","30.10","5","30.07","9.94","66","180",,"3",,,,,,,,,,,,,,,,,,,,,,,,,,,,,,,,,,,,,"SYN06474486 32266 41803 10194 20189 30182 40194 50002 90251 555 92003=","FM-12","4",,,,,,,,,,,,,,,,,,,,,,,,,,,,"2009-05-01"
"74486094789","2020-06-19T22:51:00","FM-15","7",,"ESE","1.5","mi","TEMP, PRECIP, SNOW",,,"PSY, SRG, SNOWBOARD",,,"FAA CWO",,,,,,,,,,,,,,,,,,,,,,,,,,,"30.10","66","67","0.00",,,,"97","30.10","SCT:04 100 BKN:07 250","30.08","10.00","66","170",,"7",,,,,,,,,,,,,,,,,,,,,,,,,,,,,,,,,,,,,"MET10006/19/20 22:51:01 METAR KJFK 200351Z 17006KT 10SM SCT100 BKN250 19/19 A3010 RMK AO2 SLP192 T01940189","FM-15","7",,,,,,,,,,,,,,,,,,,,,,,,,,,,"2009-05-01"
"74486094789","2020-06-19T23:51:00","FM-15","7",,"ESE","1.5","mi","TEMP, PRECIP, SNOW",,,"PSY, SRG, SNOWBOARD",,,"FAA CWO",,,,,,,,,,,,,,,,,,,,,,,,,,,"30.09","66","67","0.00",,,,"97","30.09","FEW:02 90 BKN:07 250","30.06","10.00","66","170",,"6",,,,,,,,,,,,,,,,,,,,,,,,,,,,,,,,,,,,,"MET11006/19/20 23:51:01 METAR KJFK 200451Z 17005KT 10SM FEW090 BKN250 19/19 A3009 RMK AO2 SLP189 T01940189 402560178","FM-15","7",,,,,,,,,,,,,,,,,,,,,,,,,,,,"2009-05-01"
"74486094789","2020-06-19T23:59:00","SOD  ","6",,"ESE","1.5","mi","TEMP, PRECIP, SNOW",,,"PSY, SRG, SNOWBOARD",,,"FAA CWO",,,,"65","71","85","30.12","30.10","67","6.8","6","-0.7","0","78","64","170","21","0.00","0","0.0","180","18","BR",,,,,,,,,,,,,,,,,,,,,,,,,,,,,,,,,,,,,,,,,,,,,,,,,,,,,,,,"SOD76224 HR PRECIPITATION (IN): 0.00 SNOW DEPTH (IN):0     24 HR SNOWFALL (IN):0.0  WEATHER(CODE):128  24 HR MAX TEMP (F): 7824 HR MIN TEMP (F): 64AVERAGE STATION PRESSURE(D):30.101 MINIMUM SEA LEVEL PRESSURE:30.08 TIME OF OCCURRENCE:1745 PEAK WIND SPEED (MPH): 21 PEAK WIND DIR (DEG):170 PEAK WIND TIME (LST):      FASTEST 2MIN SPEED (MPH): 18FASTEST 2MIN DIR (DEG):180 FASTEST 2MIN TIME (LST):     AVERAGE WIND SPEED (MPH): 6.8 24 HR AVG TEMP (F): 71DEPART FROM NORMAL: -1  HEATING DEGREE DAYS:  0 COOLING DEGREE DAYS:  6 LATEST DAY MAX TEMP (0700-1900 LST): 78 LATEST NIGHT MIN TEMP(1900-0800 LST):64 HOURLY INCREMENTAL PRECIPITATION VALUES (IN):0.00 0.00 0.00 0.00 0.00 0.00 0.00 0.00 0.00 0.00 0.00 0.00 0.00 0.00 0.00 0.00 0.00 0.00 0.00 0.00 0.00 0.00 0.00 0.00","SOD  ","6",,,,,,,,,,,,,,,,,,,,,,,,,"0424","1929",,"2009-05-01"
"74486094789","2020-06-20T00:51:00","FM-15","7",,"ESE","1.5","mi","TEMP, PRECIP, SNOW",,,"PSY, SRG, SNOWBOARD",,,"FAA CWO",,,,,,,,,,,,,,,,,,,,,,,,,,,"30.07","65","67","0.00",,"+0.03","8","93","30.07","FEW:02 90 SCT:04 250","30.04","10.00","66","190",,"3",,,,,,,,,,,,,,,,,,,,,,,,,,,,,,,,,,,,,"MET12306/20/20 00:51:02 METAR KJFK 200551Z 19003KT 10SM FEW090 SCT250 19/18 A3007 RMK AO2 SLP183 T01940183 10200 20189 58010 (DM)","FM-15","7",,,,,,,,,,,,,,,,,,,,,,,,,,,,"2009-05-01"
"74486094789","2020-06-20T01:00:00","FM-12","4",,"ESE","1.5","mi","TEMP, PRECIP, SNOW",,,"PSY, SRG, SNOWBOARD",,,"FAA CWO",,,,,,,,,,,,,,,,,,,,,,,,,,,,"65","67",,,"+0.03","8","93","30.07",,"30.04","9.94","66","190",,"3",,,,,,,,,,,,,,,,,,,,,,,,,,,,,,,,,,,,,"SYN08074486 32966 41903 10194 20183 30172 40183 58010 90551 333 10200 20178 555 92006=","FM-12","4",,,,,,,,,,,,,,,,,,,,,,,,,,,,"2009-05-01"
"74486094789","2020-06-20T01:51:00","FM-15","7",,"ESE","1.5","mi","TEMP, PRECIP, SNOW",,,"PSY, SRG, SNOWBOARD",,,"FAA CWO",,,,,,,,,,,,,,,,,,,,,,,,,,,"30.07","65","66","0.00",,,,"96","30.07","FEW:02 90 SCT:04 250","30.04","10.00","65","180",,"5",,,,,,,,,,,,,,,,,,,,,,,,,,,,,,,,,,,,,"MET10506/20/20 01:51:02 METAR KJFK 200651Z 18004KT 10SM FEW090 SCT250 19/18 A3007 RMK AO2 SLP183 T01890183 (DM)","FM-15","7",,,,,,,,,,,,,,,,,,,,,,,,,,,,"2009-05-01"
"74486094789","2020-06-20T02:51:00","FM-15","7",,"ESE","1.5","mi","TEMP, PRECIP, SNOW",,,"PSY, SRG, SNOWBOARD",,,"FAA CWO",,,,,,,,,,,,,,,,,,,,,,,,,,,"30.07","64","66","0.00",,,,"93","30.06","FEW:02 90 SCT:04 250","30.04","10.00","65","000",,"0",,,,,,,,,,,,,,,,,,,,,,,,,,,,,,,,,,,,,"MET10506/20/20 02:51:02 METAR KJFK 200751Z 00000KT 10SM FEW090 SCT250 19/18 A3007 RMK AO2 SLP181 T01890178 (DM)","FM-15","7",,,,,,,,,,,,,,,,,,,,,,,,,,,,"2009-05-01"
"74486094789","2020-06-20T03:51:00","FM-15","7",,"ESE","1.5","mi","TEMP, PRECIP, SNOW",,,"PSY, SRG, SNOWBOARD",,,"FAA CWO",,,,,,,,,,,,,,,,,,,,,,,,,,,"30.06","63","64","0.00",,"+0.01","7","96","30.06","FEW:02 90 FEW:02 200 SCT:04 250","30.03","10.00","63","180",,"6",,,,,,,,,,,,,,,,,,,,,,,,,,,,,,,,,,,,,"MET11806/20/20 03:51:02 METAR KJFK 200851Z 18005KT 10SM FEW090 FEW200 SCT250 18/17 A3006 RMK AO2 SLP180 T01780172 57003 (DM)","FM-15","7",,,,,,,,,,,,,,,,,,,,,,,,,,,,"2009-05-01"
"74486094789","2020-06-20T04:00:00","FM-12","4",,"ESE","1.5","mi","TEMP, PRECIP, SNOW",,,"PSY, SRG, SNOWBOARD",,,"FAA CWO",,,,,,,,,,,,,,,,,,,,,,,,,,,,"63","64",,,"+0.01","7","96","30.06",,"30.03","9.94","63","180",,"6",,,,,,,,,,,,,,,,,,,,,,,,,,,,,,,,,,,,,"SYN06474486 32966 41805 10178 20172 30168 40180 57003 90851 555 92009=","FM-12","4",,,,,,,,,,,,,,,,,,,,,,,,,,,,"2009-05-01"
"74486094789","2020-06-20T04:51:00","FM-15","7",,"ESE","1.5","mi","TEMP, PRECIP, SNOW",,,"PSY, SRG, SNOWBOARD",,,"FAA CWO",,,,,,,,,,,,,,,,,,,,,,,,,,,"30.07","64","66","0.00",,,,"93","30.07","FEW:02 130 FEW:02 200 BKN:07 250","30.04","10.00","65","000",,"0",,,,,,,,,,,,,,,,,,,,,,,,,,,,,,,,,,,,,"MET11206/20/20 04:51:02 METAR KJFK 200951Z 00000KT 10SM FEW130 FEW200 BKN250 19/18 A3007 RMK AO2 SLP183 T01890178 (DM)","FM-15","7",,,,,,,,,,,,,,,,,,,,,,,,,,,,"2009-05-01"
"74486094789","2020-06-20T05:51:00","FM-15","7",,"ESE","1.5","mi","TEMP, PRECIP, SNOW",,,"PSY, SRG, SNOWBOARD",,,"FAA CWO",,,,,,,,,,,,,,,,,,,,,,,,,,,"30.08","65","68","0.00",,,,"90","30.07","FEW:02 130 FEW:02 200 BKN:07 250","30.06","10.00","66","150",,"3",,,,,,,,,,,,,,,,,,,,,,,,,,,,,,,,,,,,,"MET11206/20/20 05:51:02 METAR KJFK 201051Z 15003KT 10SM FEW130 FEW200 BKN250 20/18 A3008 RMK AO2 SLP184 T02000183 (RG)","FM-15","7",,,,,,,,,,,,,,,,,,,,,,,,,,,,"2009-05-01"
"74486094789","2020-06-20T06:51:00","FM-15","7",,"ESE","1.5","mi","TEMP, PRECIP, SNOW",,,"PSY, SRG, SNOWBOARD",,,"FAA CWO",,,,,,,,,,,,,,,,,,,,,,,,,,,"30.08","65","70","0.00",,"-0.02","3","84","30.08","FEW:02 110 FEW:02 200 BKN:07 250","30.06","10.00","67","200",,"7",,,,,,,,,,,,,,,,,,,,,,,,,,,,,,,,,,,,,"MET13006/20/20 06:51:02 METAR KJFK 201151Z 20006KT 10SM FEW110 FEW200 BKN250 21/18 A3008 RMK AO2 SLP187 T02110183 10211 20178 53007 (RG)","FM-15","7",,,,,,,,,,,,,,,,,,,,,,,,,,,,"2009-05-01"
"74486094789","2020-06-20T07:00:00","FM-12","4",,"ESE","1.5","mi","TEMP, PRECIP, SNOW",,,"PSY, SRG, SNOWBOARD",,,"FAA CWO",,,,,,,,,,,,,,,,,,,,,,,,,,,,"65","70",,,"-0.02","3","84","30.08",,"30.05","9.94","67","200",,"7",,,,,,,,,,,,,,,,,,,,,,,,,,,,,,,,,,,,,"SYN08074486 32966 62006 10211 20183 30175 40187 53007 91151 333 10256 20178 555 92012=","FM-12","4",,,,,,,,,,,,,,,,,,,,,,,,,,,,"2009-05-01"
"74486094789","2020-06-20T07:51:00","FM-15","7",,"ESE","1.5","mi","TEMP, PRECIP, SNOW",,,"PSY, SRG, SNOWBOARD",,,"FAA CWO",,,,,,,,,,,,,,,,,,,,,,,,,,,"30.09","65","71","0.00",,,,"81","30.09","FEW:02 110 FEW:02 200 BKN:07 250","30.06","10.00","67","200",,"7",,,,,,,,,,,,,,,,,,,,,,,,,,,,,,,,,,,,,"MET11206/20/20 07:51:02 METAR KJFK 201251Z 20006KT 10SM FEW110 FEW200 BKN250 22/18 A3009 RMK AO2 SLP190 T02170183 (RG)","FM-15","7",,,,,,,,,,,,,,,,,,,,,,,,,,,,"2009-05-01"
"74486094789","2020-06-20T08:51:00","FM-15","7",,"ESE","1.5","mi","TEMP, PRECIP, SNOW",,,"PSY, SRG, SNOWBOARD",,,"FAA CWO",,,,,,,,,,,,,,,,,,,,,,,,,,,"30.10","65","74","0.00",,,,"74","30.09","FEW:02 200 BKN:07 250","30.08","10.00","68","180",,"6",,,,,,,,,,,,,,,,,,,,,,,,,,,,,,,,,,,,,"MET10506/20/20 08:51:02 METAR KJFK 201351Z 18005KT 10SM FEW200 BKN250 23/18 A3010 RMK AO2 SLP191 T02330183 (RG)","FM-15","7",,,,,,,,,,,,,,,,,,,,,,,,,,,,"2009-05-01"
"74486094789","2020-06-20T09:51:00","FM-15","7",,"ESE","1.5","mi","TEMP, PRECIP, SNOW",,,"PSY, SRG, SNOWBOARD",,,"FAA CWO",,,,,,,,,,,,,,,,,,,,,,,,,,,"30.10","65","76","0.00",,"-0.01","1","69","30.10","FEW:02 35 BKN:07 250","30.08","10.00","69","200",,"8",,,,,,,,,,,,,,,,,,,,,,,,,,,,,,,,,,,,,"MET11106/20/20 09:51:02 METAR KJFK 201451Z 20007KT 10SM FEW035 BKN250 24/18 A3010 RMK AO2 SLP192 T02440183 51005 (RG)","FM-15","7",,,,,,,,,,,,,,,,,,,,,,,,,,,,"2009-05-01"
"74486094789","2020-06-20T10:00:00","FM-12","4",,"ESE","1.5","mi","TEMP, PRECIP, SNOW",,,"PSY, SRG, SNOWBOARD",,,"FAA CWO",,,,,,,,,,,,,,,,,,,,,,,,,,,,"65","76",,,"-0.01","1","69","30.10","41","30.07","9.94","69","200",,"8",,,,,,,,,,,,,,,,,,,,,,,,,,,,,,,,,,,,,"SYN06474486 32666 62007 10244 20183 30182 40192 51005 91451 555 92015=","FM-12","4",,,,,,,,,,,,,,,,,,,,,,,,,,,,"2009-05-01"
"74486094789","2020-06-20T10:51:00","FM-15","7",,"ESE","1.5","mi","TEMP, PRECIP, SNOW",,,"PSY, SRG, SNOWBOARD",,,"FAA CWO",,,,,,,,,,,,,,,,,,,,,,,,,,,"30.09","65","79","0.00",,,,"62","30.09","SCT:04 35 BKN:07 250","30.06","10.00","70","170",,"6",,,,,,,,,,,,,,,,,,,,,,,,,,,,,,,,,,,,,"MET10506/20/20 10:51:02 METAR KJFK 201551Z 17005KT 10SM SCT035 BKN250 26/18 A3009 RMK AO2 SLP189 T02610183 (RG)","FM-15","7",,,,,,,,,,,,,,,,,,,,,,,,,,,,"2009-05-01"
"74486094789","2020-06-20T11:51:00","FM-15","7",,"ESE","1.5","mi","TEMP, PRECIP, SNOW",,,"PSY, SRG, SNOWBOARD",,,"FAA CWO",,,,,,,,,,,,,,,,,,,,,,,,,,,"30.07","66","80","0.00",,,,"62","30.07","FEW:02 35 BKN:07 250","30.04","10.00","71","170",,"9",,,,,,,,,,,,,,,,,,,,,,,,,,,,,,,,,,,,,"MET10506/20/20 11:51:02 METAR KJFK 201651Z 17008KT 10SM FEW035 BKN250 27/19 A3007 RMK AO2 SLP183 T02670189 (RG)","FM-15","7",,,,,,,,,,,,,,,,,,,,,,,,,,,,"2009-05-01"
"74486094789","2020-06-20T12:51:00","FM-15","7",,"ESE","1.5","mi","TEMP, PRECIP, SNOW",,,"PSY, SRG, SNOWBOARD",,,"FAA CWO",,,,,,,,,,,,,,,,,,,,,,,,,,,"30.06","65","79","0.00",,"+0.04","8","62","30.05","FEW:02 40 BKN:07 250","30.03","10.00","70","160",,"11",,,,,,,,,,,,,,,,,,,,,,,,,,,,,,,,,,,,,"MET12306/20/20 12:51:02 METAR KJFK 201751Z 16010KT 10SM FEW040 BKN250 26/18 A3006 RMK AO2 SLP177 T02610183 10272 20211 58015 (RG)","FM-15","7",,,,,,,,,,,,,,,,,,,,,,,,,,,,"2009-05-01"
"74486094789","2020-06-20T13:00:00","FM-12","4",,"ESE","1.5","mi","TEMP, PRECIP, SNOW",,,"PSY, SRG, SNOWBOARD",,,"FAA CWO",,,,,,,,,,,,,,,,,,,,,,,,,,,,"65","79",,,"+0.04","8","62","30.05","41","30.03","9.94","70","160",,"11",,,,,,,,,,,,,,,,,,,,,,,,,,,,,,,,,,,,,"SYN08074486 32666 61610 10261 20183 30168 40177 58015 91751 333 10272 20194 555 92018=","FM-12","4",,,,,,,,,,,,,,,,,,,,,,,,,,,,"2009-05-01"
"74486094789","2020-06-20T13:51:00","FM-15","7",,"ESE","1.5","mi","TEMP, PRECIP, SNOW",,,"PSY, SRG, SNOWBOARD",,,"FAA CWO",,,,,,,,,,,,,,,,,,,,,,,,,,,"30.05","65","79","0.00",,,,"62","30.05","FEW:02 40 BKN:07 250","30.03","10.00","70","170",,"15",,,,,,,,,,,,,,,,,,,,,,,,,,,,,,,,,,,,,"MET10506/20/20 13:51:02 METAR KJFK 201851Z 17013KT 10SM FEW040 BKN250 26/18 A3005 RMK AO2 SLP175 T02610183 (RG)","FM-15","7",,,,,,,,,,,,,,,,,,,,,,,,,,,,"2009-05-01"
"74486094789","2020-06-20T14:51:00","FM-15","7",,"ESE","1.5","mi","TEMP, PRECIP, SNOW",,,"PSY, SRG, SNOWBOARD",,,"FAA CWO",,,,,,,,,,,,,,,,,,,,,,,,,,,"30.05","66","80","0.00",,,,"62","30.04","FEW:02 40 BKN:07 250","30.03","10.00","71","170",,"15",,,,,,,,,,,,,,,,,,,,,,,,,,,,,,,,,,,,,"MET11606/20/20 14:51:02 METAR KJFK 201951Z 17013KT 10SM FEW040 BKN250 27/19 A3005 RMK AO2 LTG DSNT W SLP174 T02670189 (RG)","FM-15","7",,,,,,,,,,,,,,,,,,,,,,,,,,,,"2009-05-01"
"74486094789","2020-06-20T15:51:00","FM-15","7",,"ESE","1.5","mi","TEMP, PRECIP, SNOW",,,"PSY, SRG, SNOWBOARD",,,"FAA CWO",,,,,,,,,,,,,,,,,,,,,,,,,,,"30.04","67","77","0.00",,"+0.02","8","71","30.04","FEW:02 45 FEW:02 100 BKN:07 250","30.01","10.00","70","170",,"15",,,,,,,,,,,,,,,,,,,,,,,,,,,,,,,,,,,,,"MET11806/20/20 15:51:02 METAR KJFK 202051Z 17013KT 10SM FEW045 FEW100 BKN250 25/19 A3004 RMK AO2 SLP172 T02500194 58006 (RG)","FM-15","7",,,,,,,,,,,,,,,,,,,,,,,,,,,,"2009-05-01"
"74486094789","2020-06-20T16:00:00","FM-12","4",,"ESE","1.5","mi","TEMP, PRECIP, SNOW",,,"PSY, SRG, SNOWBOARD",,,"FAA CWO",,,,,,,,,,,,,,,,,,,,,,,,,,,,"67","77",,,"+0.02","8","71","30.04","41","30.01","9.94","70","170",,"15",,,,,,,,,,,,,,,,,,,,,,,,,,,,,,,,,,,,,"SYN06474486 32666 61713 10250 20194 30161 40172 58006 92051 555 92021=","FM-12","4",,,,,,,,,,,,,,,,,,,,,,,,,,,,"2009-05-01"
"74486094789","2020-06-20T16:51:00","FM-15","7",,"ESE","1.5","mi","TEMP, PRECIP, SNOW",,,"PSY, SRG, SNOWBOARD",,,"FAA CWO",,,,,,,,,,,,,,,,,,,,,,,,,,,"30.03","67","72","0.00",,,,"84","30.03","FEW:02 45 FEW:02 110 BKN:07 250","30.01","10.00","69","180",,"16",,,,,,,,,,,,,,,,,,,,,,,,,,,,,,,,,,,,,"MET12306/20/20 16:51:02 METAR KJFK 202151Z 18014KT 10SM FEW045 FEW110 BKN250 22/19 A3003 RMK AO2 LTG DSNT W SLP169 T02220194 (RG)","FM-15","7",,,,,,,,,,,,,,,,,,,,,,,,,,,,"2009-05-01"
"74486094789","2020-06-20T17:51:00","FM-15","7",,"ESE","1.5","mi","TEMP, PRECIP, SNOW",,,"PSY, SRG, SNOWBOARD",,,"FAA CWO",,,,,,,,,,,,,,,,,,,,,,,,,,,"30.04","67","72","0.00",,,,"84","30.03","FEW:02 50 SCT:04 100 BKN:07 250","30.01","10.00","69","180",,"16",,,,,,,,,,,,,,,,,,,,,,,,,,,,,,,,,,,,,"MET12406/20/20 17:51:02 METAR KJFK 202251Z 18014KT 10SM FEW050 SCT100 BKN250 22/19 A3004 RMK AO2 SLP170 CB DSNT W-N T02220194 (DM)","FM-15","7",,,,,,,,,,,,,,,,,,,,,,,,,,,,"2009-05-01"
"74486094789","2020-06-20T18:51:00","FM-15","7",,"ESE","1.5","mi","TEMP, PRECIP, SNOW",,,"PSY, SRG, SNOWBOARD",,,"FAA CWO",,,,,,,,,,,,,,,,,,,,,,,,,,,"30.03","68","71","0.00",,"+0.01","6","90","30.03","FEW:02 50 FEW:02 100 BKN:07 250","30.01","10.00","69","190",,"13",,,,,,,,,,,,,,,,,,,,,,,,,,,,,,,,,,,,,"MET14206/20/20 18:51:02 METAR KJFK 202351Z 19011KT 10SM FEW050 FEW100 BKN250 22/20 A3003 RMK AO2 SLP169 CB DSNT W-N T02170200 10278 20217 56002 (DM)","FM-15","7",,,,,,,,,,,,,,,,,,,,,,,,,,,,"2009-05-01"
"74486094789","2020-06-20T19:00:00","FM-12","4",,"ESE","1.5","mi","TEMP, PRECIP, SNOW",,,"PSY, SRG, SNOWBOARD",,,"FAA CWO",,,,,,,,,,,,,,,,,,,,,,,,,,,,"68","71",,,"+0.01","6","90","30.03","57","30.00","9.94","69","190",,"13",,,,,,,,,,,,,,,,,,,,,,,,,,,,,,,,,,,,,"SYN08074486 32766 61911 10217 20200 30158 40169 56002 92351 333 10278 20178 555 92100=","FM-12","4",,,,,,,,,,,,,,,,,,,,,,,,,,,,"2009-05-01"
"74486094789","2020-06-20T19:51:00","FM-15","7",,"ESE","1.5","mi","TEMP, PRECIP, SNOW",,,"PSY, SRG, SNOWBOARD",,,"FAA CWO",,,,,,,,,,,,,,,,,,,,,,,,,,,"30.03","68","70","0.00",,,,"93","30.03","FEW:02 50 FEW:02 100 BKN:07 250","30.01","10.00","69","190",,"14",,,,,,,,,,,,,,,,,,,,,,,,,,,,,,,,,,,,,"MET12506/20/20 19:51:01 METAR KJFK 210051Z 19012KT 10SM FEW050 FEW100 BKN250 21/20 A3003 RMK AO2 SLP168 CB DSNT NW-DSNT N T02110200","FM-15","7",,,,,,,,,,,,,,,,,,,,,,,,,,,,"2009-05-01"
"74486094789","2020-06-20T20:51:00","FM-15","7",,"ESE","1.5","mi","TEMP, PRECIP, SNOW",,,"PSY, SRG, SNOWBOARD",,,"FAA CWO",,,,,,,,,,,,,,,,,,,,,,,,,,,"30.04","68","70","0.00",,,,"93","30.04","FEW:02 60 FEW:02 150 BKN:07 250","30.01","10.00","69","200",,"9",,,,,,,,,,,,,,,,,,,,,,,,,,,,,,,,,,,,,"MET10706/20/20 20:51:01 METAR KJFK 210151Z 20008KT 10SM FEW060 FEW150 BKN250 21/20 A3004 RMK AO2 SLP172 T02110200","FM-15","7",,,,,,,,,,,,,,,,,,,,,,,,,,,,"2009-05-01"
"74486094789","2020-06-20T21:51:00","FM-15","7",,"ESE","1.5","mi","TEMP, PRECIP, SNOW",,,"PSY, SRG, SNOWBOARD",,,"FAA CWO",,,,,,,,,,,,,,,,,,,,,,,,,,,"30.04","68","70","0.00",,"-0.01","3","93","30.04","BKN:07 250","30.01","10.00","69","200",,"6",,,,,,,,,,,,,,,,,,,,,,,,,,,,,,,,,,,,,"MET09906/20/20 21:51:01 METAR KJFK 210251Z 20005KT 10SM BKN250 21/20 A3004 RMK AO2 SLP173 T02110200 53003","FM-15","7",,,,,,,,,,,,,,,,,,,,,,,,,,,,"2009-05-01"
"74486094789","2020-06-20T22:00:00","FM-12","4",,"ESE","1.5","mi","TEMP, PRECIP, SNOW",,,"PSY, SRG, SNOWBOARD",,,"FAA CWO",,,,,,,,,,,,,,,,,,,,,,,,,,,,"68","70",,,"-0.01","3","93","30.04",,"30.01","9.94","69","200",,"6",,,,,,,,,,,,,,,,,,,,,,,,,,,,,,,,,,,,,"SYN06474486 32966 62005 10211 20200 30161 40173 53003 90251 555 92103=","FM-12","4",,,,,,,,,,,,,,,,,,,,,,,,,,,,"2009-05-01"
"74486094789","2020-06-20T22:51:00","FM-15","7",,"ESE","1.5","mi","TEMP, PRECIP, SNOW",,,"PSY, SRG, SNOWBOARD",,,"FAA CWO",,,,,,,,,,,,,,,,,,,,,,,,,,,"30.03","67","69","0.00",,,,"93","30.03","SCT:04 250","30.01","10.00","68","180",,"5",,,,,,,,,,,,,,,,,,,,,,,,,,,,,,,,,,,,,"MET09306/20/20 22:51:01 METAR KJFK 210351Z 18004KT 10SM SCT250 21/19 A3003 RMK AO2 SLP168 T02060194","FM-15","7",,,,,,,,,,,,,,,,,,,,,,,,,,,,"2009-05-01"
"74486094789","2020-06-20T23:51:00","FM-15","7",,"ESE","1.5","mi","TEMP, PRECIP, SNOW",,,"PSY, SRG, SNOWBOARD",,,"FAA CWO",,,,,,,,,,,,,,,,,,,,,,,,,,,"30.02","67","69","0.00",,,,"93","30.02","SCT:04 250","30.00","10.00","68","200",,"3",,,,,,,,,,,,,,,,,,,,,,,,,,,,,,,,,,,,,"MET10306/20/20 23:51:01 METAR KJFK 210451Z 20003KT 10SM SCT250 21/19 A3002 RMK AO2 SLP167 T02060194 402780178","FM-15","7",,,,,,,,,,,,,,,,,,,,,,,,,,,,"2009-05-01"
"74486094789","2020-06-20T23:59:00","SOD  ","6",,"ESE","1.5","mi","TEMP, PRECIP, SNOW",,,"PSY, SRG, SNOWBOARD",,,"FAA CWO",,,,"66","73","82","30.06","30.03","68","8.2","8","1.1","0","82","64","180","23","0.00","0","0.0","180","18",,,,,,,,,,,,,,,,,,,,,,,,,,,,,,,,,,,,,,,,,,,,,,,,,,,,,,,,,"SOD73924 HR PRECIPITATION (IN): 0.00 SNOW DEPTH (IN):0     24 HR SNOWFALL (IN):0.0  24 HR MAX TEMP (F): 8224 HR MIN TEMP (F): 64AVERAGE STATION PRESSURE:30.035 MINIMUM SEA LEVEL PRESSURE:30.02 TIME OF OCCURRENCE:2359 PEAK WIND SPEED (MPH): 23 PEAK WIND DIR (DEG):180 PEAK WIND TIME (LST):      FASTEST 2MIN SPEED (MPH): 18FASTEST 2MIN DIR (DEG):180 FASTEST 2MIN TIME (LST):     AVERAGE WIND SPEED (MPH): 8.2 24 HR AVG TEMP (F): 73DEPART FROM NORMAL:  1  HEATING DEGREE DAYS:  0 COOLING DEGREE DAYS:  8 LATEST DAY MAX TEMP (0700-1900 LST):82  LATEST NIGHT MIN TEMP(1900-0800 LST):64 HOURLY INCREMENTAL PRECIPITATION VALUES (IN):.00 0.00 0.00 0.00 0.00 0.00 0.00 0.00 0.00 0.00 0.00 0.00 0.00 0.00 0.00 0.00 0.00 0.00 0.00 0.00 0.00 0.00 0.00 0.00","SOD  ","6",,,,,,,,,,,,,,,,,,,,,,,,,"0424","1929",,"2009-05-01"
"74486094789","2020-06-21T00:51:00","FM-15","7",,"ESE","1.5","mi","TEMP, PRECIP, SNOW",,,"PSY, SRG, SNOWBOARD",,,"FAA CWO",,,,,,,,,,,,,,,,,,,,,,,,,,,"30.02","66","68","0.00",,"+0.03","6","93","30.01","SCT:04 250","30.00","10.00","67","000",,"0",,,,,,,,,,,,,,,,,,,,,,,,,,,,,,,,,,,,,"MET11606/21/20 00:51:02 METAR KJFK 210551Z 00000KT 10SM SCT250 20/19 A3002 RMK AO2 SLP164 T02000189 10217 20200 56009 (DM)","FM-15","7",,,,,,,,,,,,,,,,,,,,,,,,,,,,"2009-05-01"
"74486094789","2020-06-21T01:00:00","FM-12","4",,"ESE","1.5","mi","TEMP, PRECIP, SNOW",,,"PSY, SRG, SNOWBOARD",,,"FAA CWO",,,,,,,,,,,,,,,,,,,,,,,,,,,,"66","68",,,"+0.03","6","93","30.01",,"29.99","9.94","67","000",,"0",,,,,,,,,,,,,,,,,,,,,,,,,,,,,,,,,,,,,"SYN08074486 32966 40000 10200 20189 30155 40164 56009 90551 333 10217 20178 555 92106=","FM-12","4",,,,,,,,,,,,,,,,,,,,,,,,,,,,"2009-05-01"
"74486094789","2020-06-21T01:51:00","FM-15","7",,"ESE","1.5","mi","TEMP, PRECIP, SNOW",,,"PSY, SRG, SNOWBOARD",,,"FAA CWO",,,,,,,,,,,,,,,,,,,,,,,,,,,"30.02","66","69","0.00",,,,"90","30.01","SCT:04 250","30.00","10.00","67","190",,"5",,,,,,,,,,,,,,,,,,,,,,,,,,,,,,,,,,,,,"MET09806/21/20 01:51:02 METAR KJFK 210651Z 19004KT 10SM SCT250 21/19 A3002 RMK AO2 SLP164 T02060189 (DM)","FM-15","7",,,,,,,,,,,,,,,,,,,,,,,,,,,,"2009-05-01"
"74486094789","2020-06-21T02:51:00","FM-15","7",,"ESE","1.5","mi","TEMP, PRECIP, SNOW",,,"PSY, SRG, SNOWBOARD",,,"FAA CWO",,,,,,,,,,,,,,,,,,,,,,,,,,,"30.01","66","67","0.00",,,,"97","30.01","SCT:04 250","29.98","10.00","66","180",,"5",,,,,,,,,,,,,,,,,,,,,,,,,,,,,,,,,,,,,"MET09806/21/20 02:51:02 METAR KJFK 210751Z 18004KT 10SM SCT250 19/19 A3001 RMK AO2 SLP163 T01940189 (DM)","FM-15","7",,,,,,,,,,,,,,,,,,,,,,,,,,,,"2009-05-01"
"74486094789","2020-06-21T03:51:00","FM-15","7",,"ESE","1.5","mi","TEMP, PRECIP, SNOW",,,"PSY, SRG, SNOWBOARD",,,"FAA CWO",,,,,,,,,,,,,,,,,,,,,,,,,,,"30.01","66","67","0.00",,"+0.00","7","97","30.01","SCT:04 250","29.98","10.00","66","180",,"6",,,,,,,,,,,,,,,,,,,,,,,,,,,,,,,,,,,,,"MET10406/21/20 03:51:02 METAR KJFK 210851Z 18005KT 10SM SCT250 19/19 A3001 RMK AO2 SLP163 T01940189 57001 (DM)","FM-15","7",,,,,,,,,,,,,,,,,,,,,,,,,,,,"2009-05-01"
"74486094789","2020-06-21T04:00:00","FM-12","4",,"ESE","1.5","mi","TEMP, PRECIP, SNOW",,,"PSY, SRG, SNOWBOARD",,,"FAA CWO",,,,,,,,,,,,,,,,,,,,,,,,,,,,"66","67",,,"+0.00","7","97","30.01",,"29.98","9.94","66","180",,"6",,,,,,,,,,,,,,,,,,,,,,,,,,,,,,,,,,,,,"SYN06474486 32966 41805 10194 20189 30151 40163 57001 90851 555 92109=","FM-12","4",,,,,,,,,,,,,,,,,,,,,,,,,,,,"2009-05-01"
"74486094789","2020-06-21T04:51:00","FM-15","7",,"ESE","1.5","mi","TEMP, PRECIP, SNOW",,,"PSY, SRG, SNOWBOARD",,,"FAA CWO",,,,,,,,,,,,,,,,,,,,,,,,,,,"30.02","66","67","0.00",,,,"97","30.02","FEW:02 40 SCT:04 150 SCT:04 200","30.00","10.00","66","190",,"6",,,,,,,,,,,,,,,,,,,,,,,,,,,,,,,,,,,,,"MET11206/21/20 04:51:02 METAR KJFK 210951Z 19005KT 10SM FEW040 SCT150 SCT200 19/19 A3002 RMK AO2 SLP167 T01940189 (DM)","FM-15","7",,,,,,,,,,,,,,,,,,,,,,,,,,,,"2009-05-01"
"74486094789","2020-06-21T05:51:00","FM-15","7",,"ESE","1.5","mi","TEMP, PRECIP, SNOW",,,"PSY, SRG, SNOWBOARD",,,"FAA CWO",,,,,,,,,,,,,,,,,,,,,,,,,,,"30.03","69","70","0.00",,,,"97","30.03","FEW:02 10 FEW:02 40 SCT:04 130","30.01","10.00","69","220",,"3",,,,,,,,,,,,,,,,,,,,,,,,,,,,,,,,,,,,,"MET11206/21/20 05:51:02 METAR KJFK 211051Z 22003KT 10SM FEW010 FEW040 SCT130 21/21 A3003 RMK AO2 SLP168 T02110206 (ML)","FM-15","7",,,,,,,,,,,,,,,,,,,,,,,,,,,,"2009-05-01"
"74486094789","2020-06-21T06:51:00","FM-15","7",,"ESE","1.5","mi","TEMP, PRECIP, SNOW",,,"PSY, SRG, SNOWBOARD",,,"FAA CWO",,,,,,,,,,,,,,,,,,,,,,,,,,,"30.04","69","73","0.00",,"-0.02","1","87","30.03","FEW:02 20 SCT:04 130 SCT:04 200","30.01","10.00","70","220",,"6",,,,,,,,,,,,,,,,,,,,,,,,,,,,,,,,,,,,,"MET13006/21/20 06:51:02 METAR KJFK 211151Z 22005KT 10SM FEW020 SCT130 SCT200 23/21 A3004 RMK AO2 SLP171 T02280206 10228 20189 51007 (ML)","FM-15","7",,,,,,,,,,,,,,,,,,,,,,,,,,,,"2009-05-01"
"74486094789","2020-06-21T07:00:00","FM-12","4",,"ESE","1.5","mi","TEMP, PRECIP, SNOW",,,"PSY, SRG, SNOWBOARD",,,"FAA CWO",,,,,,,,,,,,,,,,,,,,,,,,,,,,"69","73",,,"-0.02","1","87","30.03","26","30.01","9.94","70","220",,"6",,,,,,,,,,,,,,,,,,,,,,,,,,,,,,,,,,,,,"SYN08074486 32566 62205 10228 20206 30161 40171 51007 91151 333 10278 20189 555 92112=","FM-12","4",,,,,,,,,,,,,,,,,,,,,,,,,,,,"2009-05-01"
"74486094789","2020-06-21T07:51:00","FM-15","7",,"ESE","1.5","mi","TEMP, PRECIP, SNOW",,,"PSY, SRG, SNOWBOARD",,,"FAA CWO",,,,,,,,,,,,,,,,,,,,,,,,,,,"30.04","68","74","0.00",,,,"82","30.04","FEW:02 20 SCT:04 150 BKN:07 250","30.01","10.00","70","210",,"8",,,,,,,,,,,,,,,,,,,,,,,,,,,,,,,,,,,,,"MET11206/21/20 07:51:02 METAR KJFK 211251Z 21007KT 10SM FEW020 SCT150 BKN250 23/20 A3004 RMK AO2 SLP173 T02330200 (ML)","FM-15","7",,,,,,,,,,,,,,,,,,,,,,,,,,,,"2009-05-01"
"74486094789","2020-06-21T08:51:00","FM-15","7",,"ESE","1.5","mi","TEMP, PRECIP, SNOW",,,"PSY, SRG, SNOWBOARD",,,"FAA CWO",,,,,,,,,,,,,,,,,,,,,,,,,,,"30.04","68","75","0.00",,,,"79","30.04","FEW:02 20 SCT:04 150 BKN:07 250","30.01","10.00","70","210",,"8",,,,,,,,,,,,,,,,,,,,,,,,,,,,,,,,,,,,,"MET11206/21/20 08:51:02 METAR KJFK 211351Z 21007KT 10SM FEW020 SCT150 BKN250 24/20 A3004 RMK AO2 SLP172 T02390200 (ML)","FM-15","7",,,,,,,,,,,,,,,,,,,,,,,,,,,,"2009-05-01"
"74486094789","2020-06-21T09:51:00","FM-15","7",,"ESE","1.5","mi","TEMP, PRECIP, SNOW",,,"PSY, SRG, SNOWBOARD",,,"FAA CWO",,,,,,,,,,,,,,,,,,,,,,,,,,,"30.05","67","78","0.00",,"-0.01","2","69","30.04","FEW:02 30 FEW:02 200 BKN:07 250","30.03","10.00","71","200",,"9",,,,,,,,,,,,,,,,,,,,,,,,,,,,,,,,,,,,,"MET11806/21/20 09:51:02 METAR KJFK 211451Z 20008KT 10SM FEW030 FEW200 BKN250 26/19 A3005 RMK AO2 SLP174 T02560194 52003 (ML)","FM-15","7",,,,,,,,,,,,,,,,,,,,,,,,,,,,"2009-05-01"
"74486094789","2020-06-21T10:00:00","FM-12","4",,"ESE","1.5","mi","TEMP, PRECIP, SNOW",,,"PSY, SRG, SNOWBOARD",,,"FAA CWO",,,,,,,,,,,,,,,,,,,,,,,,,,,,"67","78",,,"-0.01","2","69","30.04","26","30.02","9.94","71","200",,"9",,,,,,,,,,,,,,,,,,,,,,,,,,,,,,,,,,,,,"SYN06474486 32566 62008 10256 20194 30165 40174 52003 91451 555 92115=","FM-12","4",,,,,,,,,,,,,,,,,,,,,,,,,,,,"2009-05-01"
"74486094789","2020-06-21T10:51:00","FM-15","7",,"ESE","1.5","mi","TEMP, PRECIP, SNOW",,,"PSY, SRG, SNOWBOARD",,,"FAA CWO",,,,,,,,,,,,,,,,,,,,,,,,,,,"30.04","67","79","0.00",,,,"67","30.04","FEW:02 30 FEW:02 200 BKN:07 250","30.01","10.00","71","190",,"9",,,,,,,,,,,,,,,,,,,,,,,,,,,,,,,,,,,,,"MET11206/21/20 10:51:02 METAR KJFK 211551Z 19008KT 10SM FEW030 FEW200 BKN250 26/19 A3004 RMK AO2 SLP172 T02610194 (ML)","FM-15","7",,,,,,,,,,,,,,,,,,,,,,,,,,,,"2009-05-01"
"74486094789","2020-06-21T11:51:00","FM-15","7",,"ESE","1.5","mi","TEMP, PRECIP, SNOW",,,"PSY, SRG, SNOWBOARD",,,"FAA CWO",,,,,,,,,,,,,,,,,,,,,,,,,,,"30.04","67","79","0.00",,,,"67","30.03","FEW:02 35 FEW:02 200 BKN:07 250","30.01","10.00","71","210",,"9",,,,,,,,,,,,,,,,,,,,,,,,,,,,,,,,,,,,,"MET11206/21/20 11:51:02 METAR KJFK 211651Z 21008KT 10SM FEW035 FEW200 BKN250 26/19 A3004 RMK AO2 SLP171 T02610194 (ML)","FM-15","7",,,,,,,,,,,,,,,,,,,,,,,,,,,,"2009-05-01"
"74486094789","2020-06-21T12:51:00","FM-15","7",,"ESE","1.5","mi","TEMP, PRECIP, SNOW",,,"PSY, SRG, SNOWBOARD",,,"FAA CWO",,,,,,,,,,,,,,,,,,,,,,,,,,,"30.03","66","81","0.00",,"+0.02","8","61","30.03","SCT:04 40 SCT:04 200 BKN:07 250","30.01","10.00","71","180",,"9",,,,,,,,,,,,,,,,,,,,,,,,,,,,,,,,,,,,,"MET13006/21/20 12:51:02 METAR KJFK 211751Z 18008KT 10SM SCT040 SCT200 BKN250 27/19 A3003 RMK AO2 SLP168 T02720189 10272 20228 58006 (ML)","FM-15","7",,,,,,,,,,,,,,,,,,,,,,,,,,,,"2009-05-01"
"74486094789","2020-06-21T13:00:00","FM-12","4",,"ESE","1.5","mi","TEMP, PRECIP, SNOW",,,"PSY, SRG, SNOWBOARD",,,"FAA CWO",,,,,,,,,,,,,,,,,,,,,,,,,,,,"66","81",,,"+0.02","8","61","30.03","41","30.00","9.94","71","180",,"9",,,,,,,,,,,,,,,,,,,,,,,,,,,,,,,,,,,,,"SYN08074486 32666 61808 10272 20189 30158 40168 58006 91751 333 10272 20217 555 92118=","FM-12","4",,,,,,,,,,,,,,,,,,,,,,,,,,,,"2009-05-01"
"74486094789","2020-06-21T13:51:00","FM-15","7",,"ESE","1.5","mi","TEMP, PRECIP, SNOW",,,"PSY, SRG, SNOWBOARD",,,"FAA CWO",,,,,,,,,,,,,,,,,,,,,,,,,,,"30.02","67","80","0.00",,,,"64","30.01","SCT:04 40 SCT:04 200 BKN:07 250","30.00","10.00","71","160",,"13",,,,,,,,,,,,,,,,,,,,,,,,,,,,,,,,,,,,,"MET11206/21/20 13:51:02 METAR KJFK 211851Z 16011KT 10SM SCT040 SCT200 BKN250 27/19 A3002 RMK AO2 SLP164 T02670194 (ML)","FM-15","7",,,,,,,,,,,,,,,,,,,,,,,,,,,,"2009-05-01"
"74486094789","2020-06-21T14:51:00","FM-15","7",,"ESE","1.5","mi","TEMP, PRECIP, SNOW",,,"PSY, SRG, SNOWBOARD",,,"FAA CWO",,,,,,,,,,,,,,,,,,,,,,,,,,,"30.00","67","80","0.00",,,,"64","30.00","FEW:02 45 FEW:02 200 BKN:07 250","29.98","10.00","71","190",,"11",,,,,,,,,,,,,,,,,,,,,,,,,,,,,,,,,,,,,"MET11206/21/20 14:51:02 METAR KJFK 211951Z 19010KT 10SM FEW045 FEW200 BKN250 27/19 A3000 RMK AO2 SLP158 T02670194 (RG)","FM-15","7",,,,,,,,,,,,,,,,,,,,,,,,,,,,"2009-05-01"
"74486094789","2020-06-21T15:51:00","FM-15","7",,"ESE","1.5","mi","TEMP, PRECIP, SNOW",,,"PSY, SRG, SNOWBOARD",,,"FAA CWO",,,,,,,,,,,,,,,,,,,,,,,,,,,"29.98","66","79","0.00",,"+0.04","8","65","29.98","FEW:02 45 FEW:02 200 BKN:07 250","29.96","10.00","71","160",,"13",,,,,,,,,,,,,,,,,,,,,,,,,,,,,,,,,,,,,"MET11806/21/20 15:51:02 METAR KJFK 212051Z 16011KT 10SM FEW045 FEW200 BKN250 26/19 A2998 RMK AO2 SLP153 T02610189 58015 (RG)","FM-15","7",,,,,,,,,,,,,,,,,,,,,,,,,,,,"2009-05-01"
"74486094789","2020-06-21T16:00:00","FM-12","4",,"ESE","1.5","mi","TEMP, PRECIP, SNOW",,,"PSY, SRG, SNOWBOARD",,,"FAA CWO",,,,,,,,,,,,,,,,,,,,,,,,,,,,"66","79",,,"+0.04","8","65","29.98","41","29.95","9.94","71","160",,"13",,,,,,,,,,,,,,,,,,,,,,,,,,,,,,,,,,,,,"SYN06474486 32666 61611 10261 20189 30141 40153 58015 92051 555 92121=","FM-12","4",,,,,,,,,,,,,,,,,,,,,,,,,,,,"2009-05-01"
"74486094789","2020-06-21T16:51:00","FM-15","7",,"ESE","1.5","mi","TEMP, PRECIP, SNOW",,,"PSY, SRG, SNOWBOARD",,,"FAA CWO",,,,,,,,,,,,,,,,,,,,,,,,,,,"29.97","66","78","0.00",,,,"67","29.97","FEW:02 45 FEW:02 200 BKN:07 250","29.95","10.00","70","190",,"13",,,,,,,,,,,,,,,,,,,,,,,,,,,,,,,,,,,,,"MET12406/21/20 16:51:02 METAR KJFK 212151Z 19011KT 10SM FEW045 FEW200 BKN250 26/19 A2997 RMK AO2 LTG DSNT NW SLP148 T02560189 (RG)","FM-15","7",,,,,,,,,,,,,,,,,,,,,,,,,,,,"2009-05-01"
"74486094789","2020-06-21T17:51:00","FM-15","7",,"ESE","1.5","mi","TEMP, PRECIP, SNOW",,,"PSY, SRG, SNOWBOARD",,,"FAA CWO",,,,,,,,,,,,,,,,,,,,,,,,,,,"29.97","66","76","0.00",,,,"72","29.97","FEW:02 50 FEW:02 200 BKN:07 250","29.95","10.00","70","190",,"14",,,,,,,,,,,,,,,,,,,,,,,,,,,,,,,,,,,,,"MET11206/21/20 17:51:02 METAR KJFK 212251Z 19012KT 10SM FEW050 FEW200 BKN250 24/19 A2997 RMK AO2 SLP148 T02440189 (RG)","FM-15","7",,,,,,,,,,,,,,,,,,,,,,,,,,,,"2009-05-01"
"74486094789","2020-06-21T18:51:00","FM-15","7",,"ESE","1.5","mi","TEMP, PRECIP, SNOW",,,"PSY, SRG, SNOWBOARD",,,"FAA CWO",,,,,,,,,,,,,,,,,,,,,,,,,,,"29.97","66","74","0.00",,"+0.02","6","76","29.96","FEW:02 50 FEW:02 200 BKN:07 250","29.95","10.00","69","190",,"11",,,,,,,,,,,,,,,,,,,,,,,,,,,,,,,,,,,,,"MET13006/21/20 18:51:02 METAR KJFK 212351Z 19010KT 10SM FEW050 FEW200 BKN250 23/19 A2997 RMK AO2 SLP147 T02330189 10278 20233 56006 (RG)","FM-15","7",,,,,,,,,,,,,,,,,,,,,,,,,,,,"2009-05-01"
"74486094789","2020-06-21T19:00:00","FM-12","4",,"ESE","1.5","mi","TEMP, PRECIP, SNOW",,,"PSY, SRG, SNOWBOARD",,,"FAA CWO",,,,,,,,,,,,,,,,,,,,,,,,,,,,"66","74",,,"+0.02","6","76","29.96","57","29.94","9.94","69","190",,"11",,,,,,,,,,,,,,,,,,,,,,,,,,,,,,,,,,,,,"SYN08074486 32766 61910 10233 20189 30138 40147 56006 92351 333 10278 20189 555 92200=","FM-12","4",,,,,,,,,,,,,,,,,,,,,,,,,,,,"2009-05-01"
"74486094789","2020-06-21T19:51:00","FM-15","7",,"ESE","1.5","mi","TEMP, PRECIP, SNOW",,,"PSY, SRG, SNOWBOARD",,,"FAA CWO",,,,,,,,,,,,,,,,,,,,,,,,,,,"29.97","67","72","0.00",,,,"84","29.96","FEW:02 200 BKN:07 250","29.95","10.00","69","180",,"13",,,,,,,,,,,,,,,,,,,,,,,,,,,,,,,,,,,,,"MET10006/21/20 19:51:01 METAR KJFK 220051Z 18011KT 10SM FEW200 BKN250 22/19 A2997 RMK AO2 SLP147 T02220194","FM-15","7",,,,,,,,,,,,,,,,,,,,,,,,,,,,"2009-05-01"
"74486094789","2020-06-21T20:51:00","FM-15","7",,"ESE","1.5","mi","TEMP, PRECIP, SNOW",,,"PSY, SRG, SNOWBOARD",,,"FAA CWO",,,,,,,,,,,,,,,,,,,,,,,,,,,"29.98","68","71","0.00",,,,"90","29.98","FEW:02 200 BKN:07 250","29.96","10.00","69","190",,"11",,,,,,,,,,,,,,,,,,,,,,,,,,,,,,,,,,,,,"MET10006/21/20 20:51:01 METAR KJFK 220151Z 19010KT 10SM FEW200 BKN250 22/20 A2998 RMK AO2 SLP151 T02170200","FM-15","7",,,,,,,,,,,,,,,,,,,,,,,,,,,,"2009-05-01"
"74486094789","2020-06-21T21:51:00","FM-15","7",,"ESE","1.5","mi","TEMP, PRECIP, SNOW",,,"PSY, SRG, SNOWBOARD",,,"FAA CWO",,,,,,,,,,,,,,,,,,,,,,,,,,,"29.98","69","71","0.00",,"-0.01","3","94","29.98","FEW:02 10 BKN:07 250","29.96","10.00","70","180",,"13",,,,,,,,,,,,,,,,,,,,,,,,,,,,,,,,,,,,,"MET10606/21/20 21:51:01 METAR KJFK 220251Z 18011KT 10SM FEW010 BKN250 22/21 A2998 RMK AO2 SLP152 T02170206 53005","FM-15","7",,,,,,,,,,,,,,,,,,,,,,,,,,,,"2009-05-01"
"74486094789","2020-06-21T22:00:00","FM-12","4",,"ESE","1.5","mi","TEMP, PRECIP, SNOW",,,"PSY, SRG, SNOWBOARD",,,"FAA CWO",,,,,,,,,,,,,,,,,,,,,,,,,,,,"69","71",,,"-0.01","3","94","29.98","15","29.95","9.94","70","180",,"13",,,,,,,,,,,,,,,,,,,,,,,,,,,,,,,,,,,,,"SYN06474486 32466 61811 10217 20206 30141 40152 53005 90251 555 92203=","FM-12","4",,,,,,,,,,,,,,,,,,,,,,,,,,,,"2009-05-01"
"74486094789","2020-06-21T22:26:00","FM-16","7",,"ESE","1.5","mi","TEMP, PRECIP, SNOW",,,"PSY, SRG, SNOWBOARD",,,"FAA CWO",,,,,,,,,,,,,,,,,,,,,,,,,,,"29.98","69","71",,,,,"94",,"FEW:02 9 BKN:07 250","29.96","10.00","70","200",,"11",,,,,,,,,,,,,,,,,,,,,,,,,,,,,,,,,,,,,"MET09306/21/20 22:26:01 SPECI KJFK 220326Z 20010KT 10SM FEW009 BKN250 22/21 A2998 RMK AO2 T02170206","FM-16","7",,,,,,,,,,,,,,,,,,,,,,,,,,,,"2009-05-01"
"74486094789","2020-06-21T22:51:00","FM-15","7",,"ESE","1.5","mi","TEMP, PRECIP, SNOW",,,"PSY, SRG, SNOWBOARD",,,"FAA CWO",,,,,,,,,,,,,,,,,,,,,,,,,,,"29.98","69","71","0.00",,,,"94","29.98","FEW:02 8 BKN:07 250","29.96","10.00","70","200",,"9",,,,,,,,,,,,,,,,,,,,,,,,,,,,,,,,,,,,,"MET10006/21/20 22:51:01 METAR KJFK 220351Z 20008KT 10SM FEW008 BKN250 22/21 A2998 RMK AO2 SLP153 T02170206","FM-15","7",,,,,,,,,,,,,,,,,,,,,,,,,,,,"2009-05-01"
"74486094789","2020-06-21T23:51:00","FM-15","7",,"ESE","1.5","mi","TEMP, PRECIP, SNOW",,,"PSY, SRG, SNOWBOARD",,,"FAA CWO",,,,,,,,,,,,,,,,,,,,,,,,,,,"29.98","68","70","0.00",,,,"93","29.98","SCT:04 250","29.96","10.00","69","200",,"7",,,,,,,,,,,,,,,,,,,,,,,,,,,,,,,,,,,,,"MET10306/21/20 23:51:01 METAR KJFK 220451Z 20006KT 10SM SCT250 21/20 A2998 RMK AO2 SLP151 T02110200 402780189","FM-15","7",,,,,,,,,,,,,,,,,,,,,,,,,,,,"2009-05-01"
"74486094789","2020-06-21T23:59:00","SOD  ","6",,"ESE","1.5","mi","TEMP, PRECIP, SNOW",,,"PSY, SRG, SNOWBOARD",,,"FAA CWO",,,,"67","74","81","30.00","29.98","69","8.8","9","1.8","0","82","66","200","19","0.00","0","0.0","180","15",,,,,,,,,,,,,,,,,,,,,,,,,,,,,,,,,,,,,,,,,,,,,,,,,,,,,,,,,"SOD73924 HR PRECIPITATION (IN): 0.00 SNOW DEPTH (IN):0     24 HR SNOWFALL (IN):0.0  24 HR MAX TEMP (F): 8224 HR MIN TEMP (F): 66AVERAGE STATION PRESSURE:29.985 MINIMUM SEA LEVEL PRESSURE:29.96 TIME OF OCCURRENCE:2003 PEAK WIND SPEED (MPH): 19 PEAK WIND DIR (DEG):200 PEAK WIND TIME (LST):      FASTEST 2MIN SPEED (MPH): 15FASTEST 2MIN DIR (DEG):180 FASTEST 2MIN TIME (LST):     AVERAGE WIND SPEED (MPH): 8.8 24 HR AVG TEMP (F): 74DEPART FROM NORMAL:  2  HEATING DEGREE DAYS:  0 COOLING DEGREE DAYS:  9 LATEST DAY MAX TEMP (0700-1900 LST):82  LATEST NIGHT MIN TEMP(1900-0800 LST):66 HOURLY INCREMENTAL PRECIPITATION VALUES (IN):.00 0.00 0.00 0.00 0.00 0.00 0.00 0.00 0.00 0.00 0.00 0.00 0.00 0.00 0.00 0.00 0.00 0.00 0.00 0.00 0.00 0.00 0.00 0.00","SOD  ","6",,,,,,,,,,,,,,,,,,,,,,,,,"0424","1930",,"2009-05-01"
"74486094789","2020-06-22T00:51:00","FM-15","7",,"ESE","1.5","mi","TEMP, PRECIP, SNOW",,,"PSY, SRG, SNOWBOARD",,,"FAA CWO",,,,,,,,,,,,,,,,,,,,,,,,,,,"29.98","67","70","0.00",,"+0.00","8","90","29.98","SCT:04 250","29.96","10.00","68","220",,"8",,,,,,,,,,,,,,,,,,,,,,,,,,,,,,,,,,,,,"MET11606/22/20 00:51:02 METAR KJFK 220551Z 22007KT 10SM SCT250 21/19 A2998 RMK AO2 SLP151 T02110194 10233 20211 58001 (JC)","FM-15","7",,,,,,,,,,,,,,,,,,,,,,,,,,,,"2009-05-01"
"74486094789","2020-06-22T01:00:00","FM-12","4",,"ESE","1.5","mi","TEMP, PRECIP, SNOW",,,"PSY, SRG, SNOWBOARD",,,"FAA CWO",,,,,,,,,,,,,,,,,,,,,,,,,,,,"67","70",,,"+0.00","8","90","29.98",,"29.95","9.94","68","220",,"8",,,,,,,,,,,,,,,,,,,,,,,,,,,,,,,,,,,,,"SYN08074486 32966 42207 10211 20194 30141 40151 58001 90551 333 10233 20189 555 92206=","FM-12","4",,,,,,,,,,,,,,,,,,,,,,,,,,,,"2009-05-01"
"74486094789","2020-06-22T01:51:00","FM-15","7",,"ESE","1.5","mi","TEMP, PRECIP, SNOW",,,"PSY, SRG, SNOWBOARD",,,"FAA CWO",,,,,,,,,,,,,,,,,,,,,,,,,,,"29.98","67","70","0.00",,,,"90","29.97","SCT:04 250","29.96","10.00","68","240",,"9",,,,,,,,,,,,,,,,,,,,,,,,,,,,,,,,,,,,,"MET09806/22/20 01:51:02 METAR KJFK 220651Z 24008KT 10SM SCT250 21/19 A2998 RMK AO2 SLP150 T02110194 (JC)","FM-15","7",,,,,,,,,,,,,,,,,,,,,,,,,,,,"2009-05-01"
"74486094789","2020-06-22T02:51:00","FM-15","7",,"ESE","1.5","mi","TEMP, PRECIP, SNOW",,,"PSY, SRG, SNOWBOARD",,,"FAA CWO",,,,,,,,,,,,,,,,,,,,,,,,,,,"29.97","67","69","0.00",,,,"93","29.97","SCT:04 250","29.95","10.00","68","230",,"7",,,,,,,,,,,,,,,,,,,,,,,,,,,,,,,,,,,,,"MET09806/22/20 02:51:02 METAR KJFK 220751Z 23006KT 10SM SCT250 21/19 A2997 RMK AO2 SLP149 T02060194 (JC)","FM-15","7",,,,,,,,,,,,,,,,,,,,,,,,,,,,"2009-05-01"
"74486094789","2020-06-22T03:51:00","FM-15","7",,"ESE","1.5","mi","TEMP, PRECIP, SNOW",,,"PSY, SRG, SNOWBOARD",,,"FAA CWO",,,,,,,,,,,,,,,,,,,,,,,,,,,"29.98","67","70","0.00",,"-0.00","3","90","29.98","SCT:04 250","29.96","10.00","68","240",,"8",,,,,,,,,,,,,,,,,,,,,,,,,,,,,,,,,,,,,"MET10406/22/20 03:51:02 METAR KJFK 220851Z 24007KT 10SM SCT250 21/19 A2998 RMK AO2 SLP151 T02110194 53000 (JC)","FM-15","7",,,,,,,,,,,,,,,,,,,,,,,,,,,,"2009-05-01"
"74486094789","2020-06-22T04:00:00","FM-12","4",,"ESE","1.5","mi","TEMP, PRECIP, SNOW",,,"PSY, SRG, SNOWBOARD",,,"FAA CWO",,,,,,,,,,,,,,,,,,,,,,,,,,,,"67","70",,,"0.00","4","90","29.98",,"29.95","9.94","68","240",,"8",,,,,,,,,,,,,,,,,,,,,,,,,,,,,,,,,,,,,"SYN06474486 32966 42407 10211 20194 30141 40151 53000 90851 555 92209=","FM-12","4",,,,,,,,,,,,,,,,,,,,,,,,,,,,"2009-05-01"
"74486094789","2020-06-22T04:51:00","FM-15","7",,"ESE","1.5","mi","TEMP, PRECIP, SNOW",,,"PSY, SRG, SNOWBOARD",,,"FAA CWO",,,,,,,,,,,,,,,,,,,,,,,,,,,"29.98","67","69","0.00",,,,"93","29.98","SCT:04 250","29.96","10.00","68","230",,"7",,,,,,,,,,,,,,,,,,,,,,,,,,,,,,,,,,,,,"MET09806/22/20 04:51:02 METAR KJFK 220951Z 23006KT 10SM SCT250 21/19 A2998 RMK AO2 SLP151 T02060194 (JC)","FM-15","7",,,,,,,,,,,,,,,,,,,,,,,,,,,,"2009-05-01"
"74486094789","2020-06-22T05:51:00","FM-15","7",,"ESE","1.5","mi","TEMP, PRECIP, SNOW",,,"PSY, SRG, SNOWBOARD",,,"FAA CWO",,,,,,,,,,,,,,,,,,,,,,,,,,,"29.98","68","72","0.00",,,,"87","29.98","SCT:04 250","29.96","10.00","69","240",,"7",,,,,,,,,,,,,,,,,,,,,,,,,,,,,,,,,,,,,"MET09806/22/20 05:51:02 METAR KJFK 221051Z 24006KT 10SM SCT250 22/20 A2998 RMK AO2 SLP153 T02220200 (BH)","FM-15","7",,,,,,,,,,,,,,,,,,,,,,,,,,,,"2009-05-01"
"74486094789","2020-06-22T06:51:00","FM-15","7",,"ESE","1.5","mi","TEMP, PRECIP, SNOW",,,"PSY, SRG, SNOWBOARD",,,"FAA CWO",,,,,,,,,,,,,,,,,,,,,,,,,,,"29.99","69","75","0.00",,"-0.01","3","82","29.98","SCT:04 250","29.96","10.00","71","250",,"6",,,,,,,,,,,,,,,,,,,,,,,,,,,,,,,,,,,,,"MET11606/22/20 06:51:02 METAR KJFK 221151Z 25005KT 10SM SCT250 24/21 A2999 RMK AO2 SLP154 T02390206 10239 20206 53003 (BH)","FM-15","7",,,,,,,,,,,,,,,,,,,,,,,,,,,,"2009-05-01"
"74486094789","2020-06-22T07:00:00","FM-12","4",,"ESE","1.5","mi","TEMP, PRECIP, SNOW",,,"PSY, SRG, SNOWBOARD",,,"FAA CWO",,,,,,,,,,,,,,,,,,,,,,,,,,,,"69","75",,,"-0.01","3","82","29.98",,"29.96","9.94","71","250",,"6",,,,,,,,,,,,,,,,,,,,,,,,,,,,,,,,,,,,,"SYN08074486 32966 42505 10239 20206 30144 40154 53003 91151 333 10278 20206 555 92212=","FM-12","4",,,,,,,,,,,,,,,,,,,,,,,,,,,,"2009-05-01"
"74486094789","2020-06-22T07:51:00","FM-15","7",,"ESE","1.5","mi","TEMP, PRECIP, SNOW",,,"PSY, SRG, SNOWBOARD",,,"FAA CWO",,,,,,,,,,,,,,,,,,,,,,,,,,,"29.98","68","79","0.00",,,,"69","29.98","FEW:02 250","29.96","10.00","72","230",,"6",,,,,,,,,,,,,,,,,,,,,,,,,,,,,,,,,,,,,"MET09806/22/20 07:51:02 METAR KJFK 221251Z 23005KT 10SM FEW250 26/20 A2998 RMK AO2 SLP152 T02610200 (BH)","FM-15","7",,,,,,,,,,,,,,,,,,,,,,,,,,,,"2009-05-01"
"74486094789","2020-06-22T08:51:00","FM-15","7",,"ESE","1.5","mi","TEMP, PRECIP, SNOW",,,"PSY, SRG, SNOWBOARD",,,"FAA CWO",,,,,,,,,,,,,,,,,,,,,,,,,,,"29.98","68","82","0.00",,,,"63","29.97","FEW:02 180 FEW:02 250","29.96","10.00","73","200",,"8",,,,,,,,,,,,,,,,,,,,,,,,,,,,,,,,,,,,,"MET10506/22/20 08:51:02 METAR KJFK 221351Z 20007KT 10SM FEW180 FEW250 28/20 A2998 RMK AO2 SLP150 T02780200 (BH)","FM-15","7",,,,,,,,,,,,,,,,,,,,,,,,,,,,"2009-05-01"
"74486094789","2020-06-22T09:51:00","FM-15","7",,"ESE","1.5","mi","TEMP, PRECIP, SNOW",,,"PSY, SRG, SNOWBOARD",,,"FAA CWO",,,,,,,,,,,,,,,,,,,,,,,,,,,"29.98","67","84","0.00",,"+0.01","6","57","29.97","FEW:02 47 FEW:02 180 FEW:02 250","29.96","10.00","73","210",,"7",,,,,,,,,,,,,,,,,,,,,,,,,,,,,,,,,,,,,"MET11806/22/20 09:51:02 METAR KJFK 221451Z 21006KT 10SM FEW047 FEW180 FEW250 29/19 A2998 RMK AO2 SLP150 T02890194 56004 (BH)","FM-15","7",,,,,,,,,,,,,,,,,,,,,,,,,,,,"2009-05-01"
"74486094789","2020-06-22T10:00:00","FM-12","4",,"ESE","1.5","mi","TEMP, PRECIP, SNOW",,,"PSY, SRG, SNOWBOARD",,,"FAA CWO",,,,,,,,,,,,,,,,,,,,,,,,,,,,"67","84",,,"+0.01","6","57","29.97","41","29.95","9.94","73","210",,"7",,,,,,,,,,,,,,,,,,,,,,,,,,,,,,,,,,,,,"SYN06474486 32666 22106 10289 20194 30141 40150 56004 91451 555 92215=","FM-12","4",,,,,,,,,,,,,,,,,,,,,,,,,,,,"2009-05-01"
"74486094789","2020-06-22T10:51:00","FM-15","7",,"ESE","1.5","mi","TEMP, PRECIP, SNOW",,,"PSY, SRG, SNOWBOARD",,,"FAA CWO",,,,,,,,,,,,,,,,,,,,,,,,,,,"29.97","68","85","0.00",,,,"57","29.97","FEW:02 50 SCT:04 250","29.95","10.00","74","200",,"13",,,,,,,,,,,,,,,,,,,,,,,,,,,,,,,,,,,,,"MET10506/22/20 10:51:02 METAR KJFK 221551Z 20011KT 10SM FEW050 SCT250 29/20 A2997 RMK AO2 SLP149 T02940200 (BH)","FM-15","7",,,,,,,,,,,,,,,,,,,,,,,,,,,,"2009-05-01"
"74486094789","2020-06-22T11:51:00","FM-15","7",,"ESE","1.5","mi","TEMP, PRECIP, SNOW",,,"PSY, SRG, SNOWBOARD",,,"FAA CWO",,,,,,,,,,,,,,,,,,,,,,,,,,,"29.97","66","86","0.00",,,,"51","29.97","SCT:04 50 SCT:04 250","29.95","10.00","73","190",,"14",,,,,,,,,,,,,,,,,,,,,,,,,,,,,,,,,,,,,"MET10706/22/20 11:51:02 METAR KJFK 221651Z 19012KT 10SM SCT050 SCT250 30/19 A2997 RMK AO2 SLP148 T03000189 $ (BH)","FM-15","7",,,,,,,,,,,,,,,,,,,,,,,,,,,,"2009-05-01"
"74486094789","2020-06-22T12:51:00","FM-15","7",,"ESE","1.5","mi","TEMP, PRECIP, SNOW",,,"PSY, SRG, SNOWBOARD",,,"FAA CWO",,,,,,,,,,,,,,,,,,,,,,,,,,,"29.95","69","83","0.00",,"+0.02","8","63","29.95","FEW:02 50 FEW:02 250","29.93","10.00","74","190",,"16",,,,,,,,,,,,,,,,,,,,,,,,,,,,,,,,,,,,,"MET12506/22/20 12:51:02 METAR KJFK 221751Z 19014KT 10SM FEW050 FEW250 28/21 A2995 RMK AO2 SLP143 T02830206 10306 20239 58007 $ (BH)","FM-15","7",,,,,,,,,,,,,,,,,,,,,,,,,,,,"2009-05-01"
"74486094789","2020-06-22T13:00:00","FM-12","4",,"ESE","1.5","mi","TEMP, PRECIP, SNOW",,,"PSY, SRG, SNOWBOARD",,,"FAA CWO",,,,,,,,,,,,,,,,,,,,,,,,,,,,"69","83",,,"+0.02","8","63","29.95","57","29.92","9.94","74","190",,"16",,,,,,,,,,,,,,,,,,,,,,,,,,,,,,,,,,,,,"SYN08074486 32766 21914 10283 20206 30131 40143 58007 91751 333 10306 20233 555 92218=","FM-12","4",,,,,,,,,,,,,,,,,,,,,,,,,,,,"2009-05-01"
"74486094789","2020-06-22T13:51:00","FM-15","7",,"ESE","1.5","mi","TEMP, PRECIP, SNOW",,,"PSY, SRG, SNOWBOARD",,,"FAA CWO",,,,,,,,,,,,,,,,,,,,,,,,,,,"29.94","68","83","0.00",,,,"61","29.94","FEW:02 50 FEW:02 250","29.91","10.00","73","180",,"15",,,,,,,,,,,,,,,,,,,,,,,,,,,,,,,,,,,,,"MET10706/22/20 13:51:02 METAR KJFK 221851Z 18013KT 10SM FEW050 FEW250 28/20 A2994 RMK AO2 SLP139 T02830200 $ (RR)","FM-15","7",,,,,,,,,,,,,,,,,,,,,,,,,,,,"2009-05-01"
"74486094789","2020-06-22T14:51:00","FM-15","7",,"ESE","1.5","mi","TEMP, PRECIP, SNOW",,,"PSY, SRG, SNOWBOARD",,,"FAA CWO",,,,,,,,,,,,,,,,,,,,,,,,,,,"29.92","69","81","0.00",,,,"67","29.92","FEW:02 50 FEW:02 250","29.90","10.00","73","180",,"16",,,,,,,,,,,,,,,,,,,,,,,,,,,,,,,,,,,,,"MET10206/22/20 14:51:02 METAR KJFK 221951Z 18014KT 10SM FEW050 FEW250 27/21 A2992 RMK AO2 SLP132 T02720206 $","FM-15","7",,,,,,,,,,,,,,,,,,,,,,,,,,,,"2009-05-01"
"74486094789","2020-06-22T15:51:00","FM-15","7",,"ESE","1.5","mi","TEMP, PRECIP, SNOW",,,"PSY, SRG, SNOWBOARD",,,"FAA CWO",,,,,,,,,,,,,,,,,,,,,,,,,,,"29.90","67","82","0.00",,"+0.05","8","60","29.90","FEW:02 50 FEW:02 250","29.88","10.00","72","180",,"17",,,,,,,,,,,,,,,,,,,,,,,,,,,,,,,,,,,,,"MET10806/22/20 15:51:02 METAR KJFK 222051Z 18015KT 10SM FEW050 FEW250 28/19 A2990 RMK AO2 SLP126 T02780194 58017 $","FM-15","7",,,,,,,,,,,,,,,,,,,,,,,,,,,,"2009-05-01"
"74486094789","2020-06-22T16:00:00","FM-12","4",,"ESE","1.5","mi","TEMP, PRECIP, SNOW",,,"PSY, SRG, SNOWBOARD",,,"FAA CWO",,,,,,,,,,,,,,,,,,,,,,,,,,,,"67","82",,,"+0.05","8","60","29.90","57","29.87","9.94","72","180",,"17",,,,,,,,,,,,,,,,,,,,,,,,,,,,,,,,,,,,,"SYN06474486 32766 21815 10278 20194 30114 40126 58017 92051 555 92221=","FM-12","4",,,,,,,,,,,,,,,,,,,,,,,,,,,,"2009-05-01"
"74486094789","2020-06-22T16:51:00","FM-15","7",,"ESE","1.5","mi","TEMP, PRECIP, SNOW",,,"PSY, SRG, SNOWBOARD",,,"FAA CWO",,,,,,,,,,,,,,,,,,,,,,,,,,,"29.89","66","80","0.00",,,,"62","29.89","FEW:02 50 FEW:02 250","29.87","10.00","71","180",,"16",,,,,,,,,,,,,,,,,,,,,,,,,,,,,,,,,,,,,"MET10206/22/20 16:51:02 METAR KJFK 222151Z 18014KT 10SM FEW050 FEW250 27/19 A2989 RMK AO2 SLP121 T02670189 $","FM-15","7",,,,,,,,,,,,,,,,,,,,,,,,,,,,"2009-05-01"
"74486094789","2020-06-22T17:51:00","FM-15","7",,"ESE","1.5","mi","TEMP, PRECIP, SNOW",,,"PSY, SRG, SNOWBOARD",,,"FAA CWO",,,,,,,,,,,,,,,,,,,,,,,,,,,"29.89","66","77","0.00",,,,"69","29.89","FEW:02 50 FEW:02 250","29.87","10.00","70","180","26","20",,,,,,,,,,,,,,,,,,,,,,,,,,,,,,,,,,,,,"MET10506/22/20 17:51:02 METAR KJFK 222251Z 18017G23KT 10SM FEW050 FEW250 25/19 A2989 RMK AO2 SLP123 T02500189 $","FM-15","7",,,,,,,,,,,,,,,,,,,,,,,,,,,,"2009-05-01"
"74486094789","2020-06-22T18:51:00","FM-15","7",,"ESE","1.5","mi","TEMP, PRECIP, SNOW",,,"PSY, SRG, SNOWBOARD",,,"FAA CWO",,,,,,,,,,,,,,,,,,,,,,,,,,,"29.91","65","75","0.00",,"-0.01","3","71","29.91","FEW:02 50 FEW:02 250","29.88","10.00","69","180",,"18",,,,,,,,,,,,,,,,,,,,,,,,,,,,,,,,,,,,,"MET13906/22/20 18:51:02 METAR KJFK 222351Z 18016KT 10SM FEW050 FEW250 24/18 A2991 RMK AO2 SLP129 CB DSNT W TCU DSNT W T02390183 10289 20239 53003","FM-15","7",,,,,,,,,,,,,,,,,,,,,,,,,,,,"2009-05-01"
"74486094789","2020-06-22T19:00:00","FM-12","4",,"ESE","1.5","mi","TEMP, PRECIP, SNOW",,,"PSY, SRG, SNOWBOARD",,,"FAA CWO",,,,,,,,,,,,,,,,,,,,,,,,,,,,"65","75",,,"-0.01","3","71","29.91","57","29.88","9.94","69","180",,"18",,,,,,,,,,,,,,,,,,,,,,,,,,,,,,,,,,,,,"SYN08074486 32766 21816 10239 20183 30117 40129 53003 92351 333 10306 20206 555 92300=","FM-12","4",,,,,,,,,,,,,,,,,,,,,,,,,,,,"2009-05-01"
"74486094789","2020-06-22T19:51:00","FM-15","7",,"ESE","1.5","mi","TEMP, PRECIP, SNOW",,,"PSY, SRG, SNOWBOARD",,,"FAA CWO",,,,,,,,,,,,,,,,,,,,,,,,,,,"29.92","66","74","0.00",,,,"76","29.91","FEW:02 50 FEW:02 100 SCT:04 250","29.90","10.00","69","180",,"17",,,,,,,,,,,,,,,,,,,,,,,,,,,,,,,,,,,,,"MET13406/22/20 19:51:01 METAR KJFK 230051Z 18015KT 10SM FEW050 FEW100 SCT250 23/19 A2992 RMK AO2 SLP130 FRQ LTGIC DSNT W CB DSNT W T02330189","FM-15","7",,,,,,,,,,,,,,,,,,,,,,,,,,,,"2009-05-01"
"74486094789","2020-06-22T20:51:00","FM-15","7",,"ESE","1.5","mi","TEMP, PRECIP, SNOW",,,"PSY, SRG, SNOWBOARD",,,"FAA CWO",,,,,,,,,,,,,,,,,,,,,,,,,,,"29.92","67","73","0.00",,,,"81","29.92","FEW:02 50 FEW:02 100 SCT:04 250","29.90","10.00","69","190",,"18",,,,,,,,,,,,,,,,,,,,,,,,,,,,,,,,,,,,,"MET10706/22/20 20:51:01 METAR KJFK 230151Z 19016KT 10SM FEW050 FEW100 SCT250 23/19 A2992 RMK AO2 SLP131 T02280194","FM-15","7",,,,,,,,,,,,,,,,,,,,,,,,,,,,"2009-05-01"
"74486094789","2020-06-22T21:51:00","FM-15","7",,"ESE","1.5","mi","TEMP, PRECIP, SNOW",,,"PSY, SRG, SNOWBOARD",,,"FAA CWO",,,,,,,,,,,,,,,,,,,,,,,,,,,"29.90","67","72","0.00",,"+0.01","8","84","29.90","FEW:02 50 SCT:04 250","29.88","10.00","69","180",,"9",,,,,,,,,,,,,,,,,,,,,,,,,,,,,,,,,,,,,"MET10606/22/20 21:51:01 METAR KJFK 230251Z 18008KT 10SM FEW050 SCT250 22/19 A2990 RMK AO2 SLP125 T02220194 58004","FM-15","7",,,,,,,,,,,,,,,,,,,,,,,,,,,,"2009-05-01"
"74486094789","2020-06-22T22:00:00","FM-12","4",,"ESE","1.5","mi","TEMP, PRECIP, SNOW",,,"PSY, SRG, SNOWBOARD",,,"FAA CWO",,,,,,,,,,,,,,,,,,,,,,,,,,,,"67","72",,,"+0.01","8","84","29.90","57","29.87","9.94","69","180",,"9",,,,,,,,,,,,,,,,,,,,,,,,,,,,,,,,,,,,,"SYN06474486 32766 41808 10222 20194 30114 40125 58004 90251 555 92303=","FM-12","4",,,,,,,,,,,,,,,,,,,,,,,,,,,,"2009-05-01"
"74486094789","2020-06-22T22:51:00","FM-15","7",,"ESE","1.5","mi","TEMP, PRECIP, SNOW",,,"PSY, SRG, SNOWBOARD",,,"FAA CWO",,,,,,,,,,,,,,,,,,,,,,,,,,,"29.89","67","71","0.00",,,,"87","29.89","FEW:02 55 BKN:07 250","29.87","10.00","68","190",,"6",,,,,,,,,,,,,,,,,,,,,,,,,,,,,,,,,,,,,"MET10006/22/20 22:51:01 METAR KJFK 230351Z 19005KT 10SM FEW055 BKN250 22/19 A2989 RMK AO2 SLP121 T02170194","FM-15","7",,,,,,,,,,,,,,,,,,,,,,,,,,,,"2009-05-01"
"74486094789","2020-06-22T23:51:00","FM-15","7",,"ESE","1.5","mi","TEMP, PRECIP, SNOW",,,"PSY, SRG, SNOWBOARD",,,"FAA CWO",,,,,,,,,,,,,,,,,,,,,,,,,,,"29.88","68","71","0.00",,,,"90","29.88","FEW:02 55 BKN:07 250","29.85","10.00","69","190",,"9",,,,,,,,,,,,,,,,,,,,,,,,,,,,,,,,,,,,,"MET11006/22/20 23:51:01 METAR KJFK 230451Z 19008KT 10SM FEW055 BKN250 22/20 A2988 RMK AO2 SLP119 T02170200 403060206","FM-15","7",,,,,,,,,,,,,,,,,,,,,,,,,,,,"2009-05-01"
"74486094789","2020-06-22T23:59:00","SOD  ","6",,"ESE","1.5","mi","TEMP, PRECIP, SNOW",,,"PSY, SRG, SNOWBOARD",,,"FAA CWO",,,,"67","78","74","29.94","29.92","70","11.5","13","5.5","0","87","69","190","27","0.00","0","0.0","190","22",,,,,,,,,,,,,,,,,,,,,,,,,,,,,,,,,,,,,,,,,,,,,,,,,,,,,,,,,"SOD74324 HR PRECIPITATION (IN): 0.00 SNOW DEPTH (IN):0     24 HR SNOWFALL (IN):0.0  24 HR MAX TEMP (F): 8724 HR MIN TEMP (F): 69AVERAGE STATION PRESSURE(D):29.919 MINIMUM SEA LEVEL PRESSURE:29.88 TIME OF OCCURRENCE:2359 PEAK WIND SPEED (MPH): 27 PEAK WIND DIR (DEG):190 PEAK WIND TIME (LST):      FASTEST 2MIN SPEED (MPH): 22FASTEST 2MIN DIR (DEG):190 FASTEST 2MIN TIME (LST):     AVERAGE WIND SPEED (MPH):11.5 24 HR AVG TEMP (F): 78DEPART FROM NORMAL:  6  HEATING DEGREE DAYS:  0 COOLING DEGREE DAYS: 13 LATEST DAY MAX TEMP (0700-1900 LST): 87 LATEST NIGHT MIN TEMP(1900-0800 LST):69 HOURLY INCREMENTAL PRECIPITATION VALUES (IN):0.00 0.00 0.00 0.00 0.00 0.00 0.00 0.00 0.00 0.00 0.00 0.00 0.00 0.00 0.00 0.00 0.00 0.00 0.00 0.00 0.00 0.00 0.00 0.00","SOD  ","6",,,,,,,,,,,,,,,,,,,,,,,,,"0425","1930",,"2009-05-01"
"74486094789","2020-06-23T00:51:00","FM-15","7",,"ESE","1.5","mi","TEMP, PRECIP, SNOW",,,"PSY, SRG, SNOWBOARD",,,"FAA CWO",,,,,,,,,,,,,,,,,,,,,,,,,,,"29.87","68","70","0.00",,"+0.03","6","93","29.87","FEW:02 55 BKN:07 250","29.85","10.00","69","180",,"6",,,,,,,,,,,,,,,,,,,,,,,,,,,,,,,,,,,,,"MET12306/23/20 00:51:02 METAR KJFK 230551Z 18005KT 10SM FEW055 BKN250 21/20 A2987 RMK AO2 SLP116 T02110200 10239 20211 56009 (JC)","FM-15","7",,,,,,,,,,,,,,,,,,,,,,,,,,,,"2009-05-01"
"74486094789","2020-06-23T01:00:00","FM-12","4",,"ESE","1.5","mi","TEMP, PRECIP, SNOW",,,"PSY, SRG, SNOWBOARD",,,"FAA CWO",,,,,,,,,,,,,,,,,,,,,,,,,,,,"68","70",,,"+0.03","6","93","29.87","57","29.84","9.94","69","180",,"6",,,,,,,,,,,,,,,,,,,,,,,,,,,,,,,,,,,,,"SYN08074486 32766 61805 10211 20200 30104 40116 56009 90551 333 10239 20206 555 92306=","FM-12","4",,,,,,,,,,,,,,,,,,,,,,,,,,,,"2009-05-01"
"74486094789","2020-06-23T01:51:00","FM-15","7",,"ESE","1.5","mi","TEMP, PRECIP, SNOW",,,"PSY, SRG, SNOWBOARD",,,"FAA CWO",,,,,,,,,,,,,,,,,,,,,,,,,,,"29.87","68","70","0.00",,,,"93","29.86","FEW:02 55 BKN:07 250","29.85","10.00","69","210",,"7",,,,,,,,,,,,,,,,,,,,,,,,,,,,,,,,,,,,,"MET10506/23/20 01:51:02 METAR KJFK 230651Z 21006KT 10SM FEW055 BKN250 21/20 A2987 RMK AO2 SLP113 T02110200 (JC)","FM-15","7",,,,,,,,,,,,,,,,,,,,,,,,,,,,"2009-05-01"
"74486094789","2020-06-23T02:51:00","FM-15","7",,"ESE","1.5","mi","TEMP, PRECIP, SNOW",,,"PSY, SRG, SNOWBOARD",,,"FAA CWO",,,,,,,,,,,,,,,,,,,,,,,,,,,"29.86","67","69","0.00",,,,"93","29.86","FEW:02 55 BKN:07 250","29.83","10.00","68","200",,"7",,,,,,,,,,,,,,,,,,,,,,,,,,,,,,,,,,,,,"MET10506/23/20 02:51:02 METAR KJFK 230751Z 20006KT 10SM FEW055 BKN250 21/19 A2986 RMK AO2 SLP111 T02060194 (JC)","FM-15","7",,,,,,,,,,,,,,,,,,,,,,,,,,,,"2009-05-01"
"74486094789","2020-06-23T03:51:00","FM-15","7",,"ESE","1.5","mi","TEMP, PRECIP, SNOW",,,"PSY, SRG, SNOWBOARD",,,"FAA CWO",,,,,,,,,,,,,,,,,,,,,,,,,,,"29.85","67","69","0.00",,"+0.03","8","93","29.85","FEW:02 49 BKN:07 250","29.83","10.00","68","190",,"7",,,,,,,,,,,,,,,,,,,,,,,,,,,,,,,,,,,,,"MET11106/23/20 03:51:02 METAR KJFK 230851Z 19006KT 10SM FEW049 BKN250 21/19 A2985 RMK AO2 SLP107 T02060194 58009 (JC)","FM-15","7",,,,,,,,,,,,,,,,,,,,,,,,,,,,"2009-05-01"
"74486094789","2020-06-23T04:00:00","FM-12","4",,"ESE","1.5","mi","TEMP, PRECIP, SNOW",,,"PSY, SRG, SNOWBOARD",,,"FAA CWO",,,,,,,,,,,,,,,,,,,,,,,,,,,,"67","69",,,"+0.03","8","93","29.85","41","29.82","9.94","68","190",,"7",,,,,,,,,,,,,,,,,,,,,,,,,,,,,,,,,,,,,"SYN06474486 32666 61906 10206 20194 30097 40107 58009 90851 555 92309=","FM-12","4",,,,,,,,,,,,,,,,,,,,,,,,,,,,"2009-05-01"
"74486094789","2020-06-23T04:51:00","FM-15","7",,"ESE","1.5","mi","TEMP, PRECIP, SNOW",,,"PSY, SRG, SNOWBOARD",,,"FAA CWO",,,,,,,,,,,,,,,,,,,,,,,,,,,"29.85","67","69","0.00",,,,"93","29.85","FEW:02 50 SCT:04 250","29.83","10.00","68","200",,"5",,,,,,,,,,,,,,,,,,,,,,,,,,,,,,,,,,,,,"MET10506/23/20 04:51:02 METAR KJFK 230951Z 20004KT 10SM FEW050 SCT250 21/19 A2985 RMK AO2 SLP107 T02060194 (JC)","FM-15","7",,,,,,,,,,,,,,,,,,,,,,,,,,,,"2009-05-01"
"74486094789","2020-06-23T05:51:00","FM-15","7",,"ESE","1.5","mi","TEMP, PRECIP, SNOW",,,"PSY, SRG, SNOWBOARD",,,"FAA CWO",,,,,,,,,,,,,,,,,,,,,,,,,,,"29.85","68","71","0.00",,,,"90","29.85","FEW:02 50 SCT:04 250","29.83","10.00","69","200",,"7",,,,,,,,,,,,,,,,,,,,,,,,,,,,,,,,,,,,,"MET10506/23/20 05:51:02 METAR KJFK 231051Z 20006KT 10SM FEW050 SCT250 22/20 A2985 RMK AO2 SLP107 T02170200 (JC)","FM-15","7",,,,,,,,,,,,,,,,,,,,,,,,,,,,"2009-05-01"
"74486094789","2020-06-23T06:51:00","FM-15","7",,"ESE","1.5","mi","TEMP, PRECIP, SNOW",,,"PSY, SRG, SNOWBOARD",,,"FAA CWO",,,,,,,,,,,,,,,,,,,,,,,,,,,"29.85","68","74","0.00",,"-0.00","3","82","29.85","FEW:02 50 FEW:02 250","29.83","9.00","70","200",,"8",,,,,,,,,,,,,,,,,,,,,,,,,,,,,,,,,,,,,"MET12206/23/20 06:51:02 METAR KJFK 231151Z 20007KT 9SM FEW050 FEW250 23/20 A2985 RMK AO2 SLP108 T02330200 10233 20200 53001 (BH)","FM-15","7",,,,,,,,,,,,,,,,,,,,,,,,,,,,"2009-05-01"
"74486094789","2020-06-23T07:00:00","FM-12","4",,"ESE","1.5","mi","TEMP, PRECIP, SNOW",,,"PSY, SRG, SNOWBOARD",,,"FAA CWO",,,,,,,,,,,,,,,,,,,,,,,,,,,,"68","74",,,"-0.00","3","82","29.85","57","29.82","8.70","70","200",,"8",,,,,,,,,,,,,,,,,,,,,,,,,,,,,,,,,,,,,"SYN08074486 32764 22007 10233 20200 30097 40108 53001 91151 333 10306 20200 555 92312=","FM-12","4",,,,,,,,,,,,,,,,,,,,,,,,,,,,"2009-05-01"
"74486094789","2020-06-23T07:51:00","FM-15","7",,"ESE","1.5","mi","TEMP, PRECIP, SNOW",,,"PSY, SRG, SNOWBOARD",,,"FAA CWO",,,,,,,,,,,,,,,,,,,,,,,,,,,"29.84","68","77","0.00",,,,"74","29.84","SCT:04 250","29.82","10.00","71","200",,"9",,,,,,,,,,,,,,,,,,,,,,,,,,,,,,,,,,,,,"MET09806/23/20 07:51:02 METAR KJFK 231251Z 20008KT 10SM SCT250 25/20 A2984 RMK AO2 SLP105 T02500200 (BH)","FM-15","7",,,,,,,,,,,,,,,,,,,,,,,,,,,,"2009-05-01"
"74486094789","2020-06-23T08:51:00","FM-15","7",,"ESE","1.5","mi","TEMP, PRECIP, SNOW",,,"PSY, SRG, SNOWBOARD",,,"FAA CWO",,,,,,,,,,,,,,,,,,,,,,,,,,,"29.84","68","79","0.00",,,,"69","29.84","FEW:02 75 SCT:04 250","29.82","10.00","72","190",,"10",,,,,,,,,,,,,,,,,,,,,,,,,,,,,,,,,,,,,"MET10506/23/20 08:51:02 METAR KJFK 231351Z 19009KT 10SM FEW075 SCT250 26/20 A2984 RMK AO2 SLP104 T02610200 (BH)","FM-15","7",,,,,,,,,,,,,,,,,,,,,,,,,,,,"2009-05-01"
"74486094789","2020-06-23T09:51:00","FM-15","7",,"ESE","1.5","mi","TEMP, PRECIP, SNOW",,,"PSY, SRG, SNOWBOARD",,,"FAA CWO",,,,,,,,,,,,,,,,,,,,,,,,,,,"29.84","68","80","0.00",,"+0.01","5","67","29.84","FEW:02 37 FEW:02 65 SCT:04 250","29.82","10.00","72","170",,"13",,,,,,,,,,,,,,,,,,,,,,,,,,,,,,,,,,,,,"MET11806/23/20 09:51:02 METAR KJFK 231451Z 17011KT 10SM FEW037 FEW065 SCT250 27/20 A2984 RMK AO2 SLP105 T02670200 55004 (BH)","FM-15","7",,,,,,,,,,,,,,,,,,,,,,,,,,,,"2009-05-01"
"74486094789","2020-06-23T10:00:00","FM-12","4",,"ESE","1.5","mi","TEMP, PRECIP, SNOW",,,"PSY, SRG, SNOWBOARD",,,"FAA CWO",,,,,,,,,,,,,,,,,,,,,,,,,,,,"68","80",,,"+0.01","5","67","29.84","41","29.81","9.94","72","170",,"13",,,,,,,,,,,,,,,,,,,,,,,,,,,,,,,,,,,,,"SYN06474486 32666 41711 10267 20200 30094 40105 55004 91451 555 92315=","FM-12","4",,,,,,,,,,,,,,,,,,,,,,,,,,,,"2009-05-01"
"74486094789","2020-06-23T10:51:00","FM-15","7",,"ESE","1.5","mi","TEMP, PRECIP, SNOW",,,"PSY, SRG, SNOWBOARD",,,"FAA CWO",,,,,,,,,,,,,,,,,,,,,,,,,,,"29.83","67","81","0.00",,,,"62","29.83","FEW:02 40 FEW:02 80 SCT:04 250","29.80","10.00","72","160",,"14",,,,,,,,,,,,,,,,,,,,,,,,,,,,,,,,,,,,,"MET12006/23/20 10:51:02 METAR KJFK 231551Z 16012KT 10SM FEW040 FEW080 SCT250 27/19 A2983 RMK AO2 SLP102 ACSL NW T02720194 (BH)","FM-15","7",,,,,,,,,,,,,,,,,,,,,,,,,,,,"2009-05-01"
"74486094789","2020-06-23T11:51:00","FM-15","7",,"ESE","1.5","mi","TEMP, PRECIP, SNOW",,,"PSY, SRG, SNOWBOARD",,,"FAA CWO",,,,,,,,,,,,,,,,,,,,,,,,,,,"29.82","69","80","0.00",,,,"69","29.82","SCT:04 46 SCT:04 80 SCT:04 250","29.80","10.00","73","160",,"16",,,,,,,,,,,,,,,,,,,,,,,,,,,,,,,,,,,,,"MET11206/23/20 11:51:02 METAR KJFK 231651Z 16014KT 10SM SCT046 SCT080 SCT250 27/21 A2982 RMK AO2 SLP097 T02670206 (BH)","FM-15","7",,,,,,,,,,,,,,,,,,,,,,,,,,,,"2009-05-01"
"74486094789","2020-06-23T12:51:00","FM-15","7",,"ESE","1.5","mi","TEMP, PRECIP, SNOW",,,"PSY, SRG, SNOWBOARD",,,"FAA CWO",,,,,,,,,,,,,,,,,,,,,,,,,,,"29.79","68","80","0.00",,"+0.05","8","67","29.79","FEW:02 15 FEW:02 55 FEW:02 250","29.77","10.00","72","170",,"16",,,,,,,,,,,,,,,,,,,,,,,,,,,,,,,,,,,,,"MET13006/23/20 12:51:02 METAR KJFK 231751Z 17014KT 10SM FEW015 FEW055 FEW250 27/20 A2979 RMK AO2 SLP089 T02670200 10278 20233 58016 (BH)","FM-15","7",,,,,,,,,,,,,,,,,,,,,,,,,,,,"2009-05-01"
"74486094789","2020-06-23T13:00:00","FM-12","4",,"ESE","1.5","mi","TEMP, PRECIP, SNOW",,,"PSY, SRG, SNOWBOARD",,,"FAA CWO",,,,,,,,,,,,,,,,,,,,,,,,,,,,"68","80",,,"+0.05","8","67","29.79","15","29.76","9.94","72","170",,"16",,,,,,,,,,,,,,,,,,,,,,,,,,,,,,,,,,,,,"SYN08074486 32466 21714 10267 20200 30077 40089 58016 91751 333 10278 20233 555 92318=","FM-12","4",,,,,,,,,,,,,,,,,,,,,,,,,,,,"2009-05-01"
"74486094789","2020-06-23T13:51:00","FM-15","7",,"ESE","1.5","mi","TEMP, PRECIP, SNOW",,,"PSY, SRG, SNOWBOARD",,,"FAA CWO",,,,,,,,,,,,,,,,,,,,,,,,,,,"29.79","68","81","0.00",,,,"65","29.78","FEW:02 55 FEW:02 250","29.77","10.00","72","170",,"18",,,,,,,,,,,,,,,,,,,,,,,,,,,,,,,,,,,,,"MET10506/23/20 13:51:02 METAR KJFK 231851Z 17016KT 10SM FEW055 FEW250 27/20 A2979 RMK AO2 SLP086 T02720200 (RR)","FM-15","7",,,,,,,,,,,,,,,,,,,,,,,,,,,,"2009-05-01"
"74486094789","2020-06-23T14:51:00","FM-15","7",,"ESE","1.5","mi","TEMP, PRECIP, SNOW",,,"PSY, SRG, SNOWBOARD",,,"FAA CWO",,,,,,,,,,,,,,,,,,,,,,,,,,,"29.76","67","80","0.00",,,,"64","29.76","FEW:02 55 FEW:02 250","29.74","10.00","71","160",,"15",,,,,,,,,,,,,,,,,,,,,,,,,,,,,,,,,,,,,"MET11506/23/20 14:51:02 METAR KJFK 231951Z 16013KT 10SM FEW055 FEW250 27/19 A2976 RMK AO2 SLP078 CB DSNT W T02670194 (RR)","FM-15","7",,,,,,,,,,,,,,,,,,,,,,,,,,,,"2009-05-01"
"74486094789","2020-06-23T15:51:00","FM-15","7",,"ESE","1.5","mi","TEMP, PRECIP, SNOW",,,"PSY, SRG, SNOWBOARD",,,"FAA CWO",,,,,,,,,,,,,,,,,,,,,,,,,,,"29.74","69","78","0.00",,"+0.06","8","74","29.74","FEW:02 55 FEW:02 100 FEW:02 250","29.72","10.00","72","150",,"16",,,,,,,,,,,,,,,,,,,,,,,,,,,,,,,,,,,,,"MET12906/23/20 15:51:02 METAR KJFK 232051Z 15014KT 10SM FEW055 FEW100 FEW250 26/21 A2974 RMK AO2 SLP070 TCU DSNT N T02560206 58019 (RR)","FM-15","7",,,,,,,,,,,,,,,,,,,,,,,,,,,,"2009-05-01"
"74486094789","2020-06-23T16:00:00","FM-12","4",,"ESE","1.5","mi","TEMP, PRECIP, SNOW",,,"PSY, SRG, SNOWBOARD",,,"FAA CWO",,,,,,,,,,,,,,,,,,,,,,,,,,,,"69","78",,,"+0.06","8","74","29.74","57","29.71","9.94","72","150",,"16",,,,,,,,,,,,,,,,,,,,,,,,,,,,,,,,,,,,,"SYN06474486 32766 21514 10256 20206 30060 40070 58019 92051 555 92321=","FM-12","4",,,,,,,,,,,,,,,,,,,,,,,,,,,,"2009-05-01"
"74486094789","2020-06-23T16:51:00","FM-15","7",,"ESE","1.5","mi","TEMP, PRECIP, SNOW",,,"PSY, SRG, SNOWBOARD",,,"FAA CWO",,,,,,,,,,,,,,,,,,,,,,,,,,,"29.72","69","77","0.00",,,,"77","29.72","FEW:02 55 FEW:02 100 FEW:02 250","29.70","10.00","72","170","25","18",,,,,,,,,,,,,,,,,,,,,,,,,,,,,,,,,,,,,"MET12506/23/20 16:51:02 METAR KJFK 232151Z 17016G22KT 10SM FEW055 FEW100 FEW250 25/21 A2972 RMK AO2 SLP063 CB DSNT N T02500206 (RR)","FM-15","7",,,,,,,,,,,,,,,,,,,,,,,,,,,,"2009-05-01"
"74486094789","2020-06-23T17:51:00","FM-15","7",,"ESE","1.5","mi","TEMP, PRECIP, SNOW",,,"PSY, SRG, SNOWBOARD",,,"FAA CWO",,,,,,,,,,,,,,,,,,,,,,,,,,,"29.70","70","76","0.00",,,,"82","29.70","FEW:02 55 FEW:02 100 FEW:02 250","29.67","10.00","72","150",,"18",,,,,,,,,,,,,,,,,,,,,,,,,,,,,,,,,,,,,"MET11206/23/20 17:51:02 METAR KJFK 232251Z 15016KT 10SM FEW055 FEW100 FEW250 24/21 A2970 RMK AO2 SLP058 T02440211 (RR)","FM-15","7",,,,,,,,,,,,,,,,,,,,,,,,,,,,"2009-05-01"
"74486094789","2020-06-23T18:47:00","FM-16","7",,"ESE","1.5","mi","TEMP, PRECIP, SNOW",,,"PSY, SRG, SNOWBOARD",,,"FAA CWO",,,,,,,,,,,,,,,,,,,,,,,,,,,"29.71","70","73",,,,,"89",,"FEW:02 7 FEW:02 55 FEW:02 100","29.69","10.00","71","160",,"15",,,,,,,,,,,,,,,,,,,,,,,,,,,,,,,,,,,,,"MET09506/23/20 18:47:02 SPECI KJFK 232347Z 16013KT 10SM FEW007 FEW055 FEW100 23/21 A2971 RMK AO2 (RR)","FM-16","7",,,,,,,,,,,,,,,,,,,,,,,,,,,,"2009-05-01"
"74486094789","2020-06-23T18:51:00","FM-15","7",,"ESE","1.5","mi","TEMP, PRECIP, SNOW",,,"PSY, SRG, SNOWBOARD",,,"FAA CWO",,,,,,,,,,,,,,,,,,,,,,,,,,,"29.71","70","73","0.00",,"+0.03","5","90","29.71","FEW:02 7 FEW:02 55 FEW:02 100","29.69","10.00","71","160",,"16",,,,,,,,,,,,,,,,,,,,,,,,,,,,,,,,,,,,,"MET13006/23/20 18:51:02 METAR KJFK 232351Z 16014KT 10SM FEW007 FEW055 FEW100 23/21 A2971 RMK AO2 SLP060 T02280211 10272 20228 55010 (RR)","FM-15","7",,,,,,,,,,,,,,,,,,,,,,,,,,,,"2009-05-01"
"74486094789","2020-06-23T19:00:00","FM-12","4",,"ESE","1.5","mi","TEMP, PRECIP, SNOW",,,"PSY, SRG, SNOWBOARD",,,"FAA CWO",,,,,,,,,,,,,,,,,,,,,,,,,,,,"70","73",,,"+0.03","5","90","29.71","8","29.68","9.94","71","160",,"16",,,,,,,,,,,,,,,,,,,,,,,,,,,,,,,,,,,,,"SYN08074486 32366 41614 10228 20211 30050 40060 55010 92351 333 10278 20200 555 92400=","FM-12","4",,,,,,,,,,,,,,,,,,,,,,,,,,,,"2009-05-01"
"74486094789","2020-06-23T19:51:00","FM-15","7",,"ESE","1.5","mi","TEMP, PRECIP, SNOW",,,"PSY, SRG, SNOWBOARD",,,"FAA CWO",,,,,,,,,,,,,,,,,,,,,,,,,,,"29.71","70","73","0.00",,,,"90","29.71","FEW:02 6 FEW:02 55 FEW:02 100","29.69","10.00","71","160",,"15",,,,,,,,,,,,,,,,,,,,,,,,,,,,,,,,,,,,,"MET10706/23/20 19:51:01 METAR KJFK 240051Z 16013KT 10SM FEW006 FEW055 FEW100 23/21 A2971 RMK AO2 SLP060 T02280211","FM-15","7",,,,,,,,,,,,,,,,,,,,,,,,,,,,"2009-05-01"
"74486094789","2020-06-23T20:51:00","FM-15","7",,"ESE","1.5","mi","TEMP, PRECIP, SNOW",,,"PSY, SRG, SNOWBOARD",,,"FAA CWO",,,,,,,,,,,,,,,,,,,,,,,,,,,"29.70","70","72","0.00",,,,"94","29.70","FEW:02 6 FEW:02 100 SCT:04 250","29.67","10.00","71","160",,"15",,,,,,,,,,,,,,,,,,,,,,,,,,,,,,,,,,,,,"MET10706/23/20 20:51:01 METAR KJFK 240151Z 16013KT 10SM FEW006 FEW100 SCT250 22/21 A2970 RMK AO2 SLP058 T02220211","FM-15","7",,,,,,,,,,,,,,,,,,,,,,,,,,,,"2009-05-01"
"74486094789","2020-06-23T21:51:00","FM-15","7",,"ESE","1.5","mi","TEMP, PRECIP, SNOW",,,"PSY, SRG, SNOWBOARD",,,"FAA CWO",,,,,,,,,,,,,,,,,,,,,,,,,,,"29.71","70","73","0.00",,"-0.00","3","90","29.71","SCT:04 7 BKN:07 150 OVC:08 240","29.69","10.00","71","170",,"10",,,,,,,,,,,,,,,,,,,,,,,,,,,,,,,,,,,,,"MET12606/23/20 21:51:01 METAR KJFK 240251Z 17009KT 10SM SCT007 BKN150 OVC240 23/21 A2971 RMK AO2 SLP061 SCT007 V BKN T02280211 53001","FM-15","7",,,,,,,,,,,,,,,,,,,,,,,,,,,,"2009-05-01"
"74486094789","2020-06-23T22:00:00","FM-12","4",,"ESE","1.5","mi","TEMP, PRECIP, SNOW",,,"PSY, SRG, SNOWBOARD",,,"FAA CWO",,,,,,,,,,,,,,,,,,,,,,,,,,,,"70","73",,,"-0.00","3","90","29.71","8","29.68","9.94","71","170",,"10",,,,,,,,,,,,,,,,,,,,,,,,,,,,,,,,,,,,,"SYN06474486 32366 81709 10228 20211 30050 40061 53001 90251 555 92403=","FM-12","4",,,,,,,,,,,,,,,,,,,,,,,,,,,,"2009-05-01"
"74486094789","2020-06-23T22:51:00","FM-15","7",,"ESE","1.5","mi","TEMP, PRECIP, SNOW",,,"PSY, SRG, SNOWBOARD",,,"FAA CWO",,,,,,,,,,,,,,,,,,,,,,,,,,,"29.70","70","72","0.00",,,,"94","29.70","SCT:04 8 SCT:04 150 OVC:08 250","29.67","10.00","71","200",,"7",,,,,,,,,,,,,,,,,,,,,,,,,,,,,,,,,,,,,"MET10706/23/20 22:51:01 METAR KJFK 240351Z 20006KT 10SM SCT008 SCT150 OVC250 22/21 A2970 RMK AO2 SLP057 T02220211","FM-15","7",,,,,,,,,,,,,,,,,,,,,,,,,,,,"2009-05-01"
"74486094789","2020-06-23T23:51:00","FM-15","7",,"ESE","1.5","mi","TEMP, PRECIP, SNOW",,,"PSY, SRG, SNOWBOARD",,,"FAA CWO",,,,,,,,,,,,,,,,,,,,,,,,,,,"29.68","70","72","0.00",,,,"94","29.68","FEW:02 8 OVC:08 250","29.65","10.00","71","140",,"5",,,,,,,,,,,,,,,,,,,,,,,,,,,,,,,,,,,,,"MET11006/23/20 23:51:01 METAR KJFK 240451Z 14004KT 10SM FEW008 OVC250 22/21 A2968 RMK AO2 SLP050 T02220211 402780200","FM-15","7",,,,,,,,,,,,,,,,,,,,,,,,,,,,"2009-05-01"
"74486094789","2020-06-23T23:59:00","SOD  ","6",,"ESE","1.5","mi","TEMP, PRECIP, SNOW",,,"PSY, SRG, SNOWBOARD",,,"FAA CWO",,,,"69","75","81","29.79","29.78","71","11.6","10","2.3","0","82","68","160","28","0.00","0","0.0","160","22",,,,,,,,,,,,,,,,,,,,,,,,,,,,,,,,,,,,,,,,,,,,,,,,,,,,,,,,,"SOD73924 HR PRECIPITATION (IN): 0.00 SNOW DEPTH (IN):0     24 HR SNOWFALL (IN):0.0  24 HR MAX TEMP (F): 8224 HR MIN TEMP (F): 68AVERAGE STATION PRESSURE:29.780 MINIMUM SEA LEVEL PRESSURE:29.68 TIME OF OCCURRENCE:2359 PEAK WIND SPEED (MPH): 28 PEAK WIND DIR (DEG):160 PEAK WIND TIME (LST):      FASTEST 2MIN SPEED (MPH): 22FASTEST 2MIN DIR (DEG):160 FASTEST 2MIN TIME (LST):     AVERAGE WIND SPEED (MPH):11.6 24 HR AVG TEMP (F): 75DEPART FROM NORMAL:  2  HEATING DEGREE DAYS:  0 COOLING DEGREE DAYS: 10 LATEST DAY MAX TEMP (0700-1900 LST):82  LATEST NIGHT MIN TEMP(1900-0800 LST):68 HOURLY INCREMENTAL PRECIPITATION VALUES (IN):.00 0.00 0.00 0.00 0.00 0.00 0.00 0.00 0.00 0.00 0.00 0.00 0.00 0.00 0.00 0.00 0.00 0.00 0.00 0.00 0.00 0.00 0.00 0.00","SOD  ","6",,,,,,,,,,,,,,,,,,,,,,,,,"0425","1930",,"2009-05-01"
"74486094789","2020-06-24T00:51:00","FM-15","7",,"ESE","1.5","mi","TEMP, PRECIP, SNOW",,,"PSY, SRG, SNOWBOARD",,,"FAA CWO",,,,,,,,,,,,,,,,,,,,,,,,,,,"29.67","70","72","0.00",,"+0.04","6","94","29.67","FEW:02 8 OVC:08 250","29.65","10.00","71","190",,"7",,,,,,,,,,,,,,,,,,,,,,,,,,,,,,,,,,,,,"MET12306/24/20 00:51:02 METAR KJFK 240551Z 19006KT 10SM FEW008 OVC250 22/21 A2967 RMK AO2 SLP047 T02220211 10228 20222 56014 (JC)","FM-15","7",,,,,,,,,,,,,,,,,,,,,,,,,,,,"2009-05-01"
"74486094789","2020-06-24T01:00:00","FM-12","4",,"ESE","1.5","mi","TEMP, PRECIP, SNOW",,,"PSY, SRG, SNOWBOARD",,,"FAA CWO",,,,,,,,,,,,,,,,,,,,,,,,,,,,"70","72",,,"+0.04","6","94","29.67","8","29.64","9.94","71","190",,"7",,,,,,,,,,,,,,,,,,,,,,,,,,,,,,,,,,,,,"SYN08074486 32366 81906 10222 20211 30036 40047 56014 90551 333 10233 20200 555 92406=","FM-12","4",,,,,,,,,,,,,,,,,,,,,,,,,,,,"2009-05-01"
"74486094789","2020-06-24T01:51:00","FM-15","7",,"ESE","1.5","mi","TEMP, PRECIP, SNOW",,,"PSY, SRG, SNOWBOARD",,,"FAA CWO",,,,,,,,,,,,,,,,,,,,,,,,,,,"29.65","70","72","0.00",,,,"94","29.65","BKN:07 70 OVC:08 250","29.62","10.00","71","190",,"7",,,,,,,,,,,,,,,,,,,,,,,,,,,,,,,,,,,,,"MET10506/24/20 01:51:02 METAR KJFK 240651Z 19006KT 10SM BKN070 OVC250 22/21 A2965 RMK AO2 SLP040 T02220211 (JC)","FM-15","7",,,,,,,,,,,,,,,,,,,,,,,,,,,,"2009-05-01"
"74486094789","2020-06-24T02:44:00","FM-16","7",,"ESE","1.5","mi","TEMP, PRECIP, SNOW",,,"PSY, SRG, SNOWBOARD",,,"FAA CWO",,,,,,,,,,,,,,,,,,,,,,,,,,,"29.65","70","72",,,,,"94",,"FEW:02 7 SCT:04 65 BKN:07 250","29.62","10.00","71","210",,"6",,,,,,,,,,,,,,,,,,,,,,,,,,,,,,,,,,,,,"MET10506/24/20 02:44:02 SPECI KJFK 240744Z 21005KT 10SM FEW007 SCT065 BKN250 22/21 A2965 RMK AO2 T02220211 (JC)","FM-16","7",,,,,,,,,,,,,,,,,,,,,,,,,,,,"2009-05-01"
"74486094789","2020-06-24T02:51:00","FM-15","7",,"ESE","1.5","mi","TEMP, PRECIP, SNOW",,,"PSY, SRG, SNOWBOARD",,,"FAA CWO",,,,,,,,,,,,,,,,,,,,,,,,,,,"29.65","70","72","0.00",,,,"94","29.65","FEW:02 7 SCT:04 65 BKN:07 250","29.62","10.00","71","200",,"11",,,,,,,,,,,,,,,,,,,,,,,,,,,,,,,,,,,,,"MET11206/24/20 02:51:02 METAR KJFK 240751Z 20010KT 10SM FEW007 SCT065 BKN250 22/21 A2965 RMK AO2 SLP042 T02220211 (JC)","FM-15","7",,,,,,,,,,,,,,,,,,,,,,,,,,,,"2009-05-01"
"74486094789","2020-06-24T03:51:00","FM-15","7",,"ESE","1.5","mi","TEMP, PRECIP, SNOW",,,"PSY, SRG, SNOWBOARD",,,"FAA CWO",,,,,,,,,,,,,,,,,,,,,,,,,,,"29.65","69","72","0.00",,"+0.02","6","91","29.65","FEW:02 50 BKN:07 140 OVC:08 250","29.62","10.00","70","190",,"7",,,,,,,,,,,,,,,,,,,,,,,,,,,,,,,,,,,,,"MET11806/24/20 03:51:02 METAR KJFK 240851Z 19006KT 10SM FEW050 BKN140 OVC250 22/21 A2965 RMK AO2 SLP040 T02220206 56007 (JC)","FM-15","7",,,,,,,,,,,,,,,,,,,,,,,,,,,,"2009-05-01"
"74486094789","2020-06-24T04:00:00","FM-12","4",,"ESE","1.5","mi","TEMP, PRECIP, SNOW",,,"PSY, SRG, SNOWBOARD",,,"FAA CWO",,,,,,,,,,,,,,,,,,,,,,,,,,,,"69","72",,,"+0.02","6","91","29.65","57","29.62","9.94","70","190",,"7",,,,,,,,,,,,,,,,,,,,,,,,,,,,,,,,,,,,,"SYN06474486 32766 81906 10222 20206 30029 40040 56007 90851 555 92409=","FM-12","4",,,,,,,,,,,,,,,,,,,,,,,,,,,,"2009-05-01"
"74486094789","2020-06-24T04:51:00","FM-15","7",,"ESE","1.5","mi","TEMP, PRECIP, SNOW",,,"PSY, SRG, SNOWBOARD",,,"FAA CWO",,,,,,,,,,,,,,,,,,,,,,,,,,,"29.68","69","72","0.00",,,,"91","29.67","FEW:02 47 BKN:07 160 BKN:07 250","29.65","9.00","70","210",,"8",,,,,,,,,,,,,,,,,,,,,,,,,,,,,,,,,,,,,"MET11106/24/20 04:51:02 METAR KJFK 240951Z 21007KT 9SM FEW047 BKN160 BKN250 22/21 A2968 RMK AO2 SLP049 T02220206 (JC)","FM-15","7",,,,,,,,,,,,,,,,,,,,,,,,,,,,"2009-05-01"
"74486094789","2020-06-24T05:51:00","FM-15","7",,"ESE","1.5","mi","TEMP, PRECIP, SNOW",,,"PSY, SRG, SNOWBOARD",,,"FAA CWO",,,,,,,,,,,,,,,,,,,,,,,,,,,"29.69","71","74","0.00",,,,"91","29.69","FEW:02 50 BKN:07 160 BKN:07 250","29.67","10.00","72","200",,"7",,,,,,,,,,,,,,,,,,,,,,,,,,,,,,,,,,,,,"MET11206/24/20 05:51:02 METAR KJFK 241051Z 20006KT 10SM FEW050 BKN160 BKN250 23/22 A2969 RMK AO2 SLP053 T02330217 (BH)","FM-15","7",,,,,,,,,,,,,,,,,,,,,,,,,,,,"2009-05-01"
"74486094789","2020-06-24T06:51:00","FM-15","7",,"ESE","1.5","mi","TEMP, PRECIP, SNOW",,,"PSY, SRG, SNOWBOARD",,,"FAA CWO",,,,,,,,,,,,,,,,,,,,,,,,,,,"29.69","70","79","0.00",,"-0.04","1","74","29.69","FEW:02 21 FEW:02 60 SCT:04 110","29.67","10.00","73","270",,"10",,,,,,,,,,,,,,,,,,,,,,,,,,,,,,,,,,,,,"MET13006/24/20 06:51:02 METAR KJFK 241151Z 27009KT 10SM FEW021 FEW060 SCT110 26/21 A2969 RMK AO2 SLP055 T02610211 10261 20217 51014 (BH)","FM-15","7",,,,,,,,,,,,,,,,,,,,,,,,,,,,"2009-05-01"
"74486094789","2020-06-24T07:00:00","FM-12","4",,"ESE","1.5","mi","TEMP, PRECIP, SNOW",,,"PSY, SRG, SNOWBOARD",,,"FAA CWO",,,,,,,,,,,,,,,,,,,,,,,,,,,,"70","79",,,"-0.04","1","74","29.69","26","29.66","9.94","73","270",,"10",,,,,,,,,,,,,,,,,,,,,,,,,,,,,,,,,,,,,"SYN08074486 32566 62709 10261 20211 30043 40055 51014 91151 333 10278 20217 555 92412=","FM-12","4",,,,,,,,,,,,,,,,,,,,,,,,,,,,"2009-05-01"
"74486094789","2020-06-24T07:51:00","FM-15","7",,"ESE","1.5","mi","TEMP, PRECIP, SNOW",,,"PSY, SRG, SNOWBOARD",,,"FAA CWO",,,,,,,,,,,,,,,,,,,,,,,,,,,"29.70","69","81","0.00",,,,"67","29.70","FEW:02 26 BKN:07 90 BKN:07 150","29.67","10.00","73","270",,"10",,,,,,,,,,,,,,,,,,,,,,,,,,,,,,,,,,,,,"MET11206/24/20 07:51:02 METAR KJFK 241251Z 27009KT 10SM FEW026 BKN090 BKN150 27/21 A2970 RMK AO2 SLP057 T02720206 (BH)","FM-15","7",,,,,,,,,,,,,,,,,,,,,,,,,,,,"2009-05-01"
"74486094789","2020-06-24T08:51:00","FM-15","7",,"ESE","1.5","mi","TEMP, PRECIP, SNOW",,,"PSY, SRG, SNOWBOARD",,,"FAA CWO",,,,,,,,,,,,,,,,,,,,,,,,,,,"29.71","68","81","0.00",,,,"65","29.71","FEW:02 32 BKN:07 75 BKN:07 150","29.69","10.00","72","260",,"14",,,,,,,,,,,,,,,,,,,,,,,,,,,,,,,,,,,,,"MET11206/24/20 08:51:02 METAR KJFK 241351Z 26012KT 10SM FEW032 BKN075 BKN150 27/20 A2971 RMK AO2 SLP061 T02720200 (BH)","FM-15","7",,,,,,,,,,,,,,,,,,,,,,,,,,,,"2009-05-01"
"74486094789","2020-06-24T09:51:00","FM-15","7",,"ESE","1.5","mi","TEMP, PRECIP, SNOW",,,"PSY, SRG, SNOWBOARD",,,"FAA CWO",,,,,,,,,,,,,,,,,,,,,,,,,,,"29.72","67","84","0.00",,"-0.02","3","57","29.72","SCT:04 38 SCT:04 90 SCT:04 150","29.70","10.00","73","250",,"16",,,,,,,,,,,,,,,,,,,,,,,,,,,,,,,,,,,,,"MET11806/24/20 09:51:02 METAR KJFK 241451Z 25014KT 10SM SCT038 SCT090 SCT150 29/19 A2972 RMK AO2 SLP063 T02890194 53008 (BH)","FM-15","7",,,,,,,,,,,,,,,,,,,,,,,,,,,,"2009-05-01"
"74486094789","2020-06-24T10:00:00","FM-12","4",,"ESE","1.5","mi","TEMP, PRECIP, SNOW",,,"PSY, SRG, SNOWBOARD",,,"FAA CWO",,,,,,,,,,,,,,,,,,,,,,,,,,,,"67","84",,,"-0.02","3","57","29.72","41","29.69","9.94","73","250",,"16",,,,,,,,,,,,,,,,,,,,,,,,,,,,,,,,,,,,,"SYN06474486 32666 62514 10289 20194 30053 40063 53008 91451 555 92415=","FM-12","4",,,,,,,,,,,,,,,,,,,,,,,,,,,,"2009-05-01"
"74486094789","2020-06-24T10:51:00","FM-15","7",,"ESE","1.5","mi","TEMP, PRECIP, SNOW",,,"PSY, SRG, SNOWBOARD",,,"FAA CWO",,,,,,,,,,,,,,,,,,,,,,,,,,,"29.72","64","85","0.00",,,,"50","29.72","FEW:02 50 BKN:07 250","29.70","10.00","71","260",,"16",,,,,,,,,,,,,,,,,,,,,,,,,,,,,,,,,,,,,"MET10506/24/20 10:51:02 METAR KJFK 241551Z 26014KT 10SM FEW050 BKN250 29/18 A2972 RMK AO2 SLP065 T02940178 (BH)","FM-15","7",,,,,,,,,,,,,,,,,,,,,,,,,,,,"2009-05-01"
"74486094789","2020-06-24T11:51:00","FM-15","7",,"ESE","1.5","mi","TEMP, PRECIP, SNOW",,,"PSY, SRG, SNOWBOARD",,,"FAA CWO",,,,,,,,,,,,,,,,,,,,,,,,,,,"29.73","56","85","0.00",,,,"37","29.73","FEW:02 60 BKN:07 250","29.70","10.00","67","250",,"17",,,,,,,,,,,,,,,,,,,,,,,,,,,,,,,,,,,,,"MET10506/24/20 11:51:02 METAR KJFK 241651Z 25015KT 10SM FEW060 BKN250 29/13 A2973 RMK AO2 SLP067 T02940133 (BH)","FM-15","7",,,,,,,,,,,,,,,,,,,,,,,,,,,,"2009-05-01"
"74486094789","2020-06-24T12:51:00","FM-15","7",,"ESE","1.5","mi","TEMP, PRECIP, SNOW",,,"PSY, SRG, SNOWBOARD",,,"FAA CWO",,,,,,,,,,,,,,,,,,,,,,,,,,,"29.73","55","86","0.00",,"-0.01","0","35","29.73","FEW:02 60 BKN:07 250","29.70","10.00","67","270","23","17",,,,,,,,,,,,,,,,,,,,,,,,,,,,,,,,,,,,,"MET12606/24/20 12:51:02 METAR KJFK 241751Z 27015G20KT 10SM FEW060 BKN250 30/13 A2973 RMK AO2 SLP067 T03000128 10300 20261 50004 (BH)","FM-15","7",,,,,,,,,,,,,,,,,,,,,,,,,,,,"2009-05-01"
"74486094789","2020-06-24T13:00:00","FM-12","4",,"ESE","1.5","mi","TEMP, PRECIP, SNOW",,,"PSY, SRG, SNOWBOARD",,,"FAA CWO",,,,,,,,,,,,,,,,,,,,,,,,,,,,"55","86",,,"0.01","9","35","29.73","57","29.70","9.94","67","270",,"17",,,,,,,,,,,,,,,,,,,,,,,,,,,,,,,,,,,,,"SYN08674486 32766 62715 10300 20128 30056 40067 50004 91751 333 10300 20228 91020 555 92418=","FM-12","4",,,,,,,,,,,,,,,,,,,,,,,,,,,,"2009-05-01"
"74486094789","2020-06-24T13:51:00","FM-15","7",,"ESE","1.5","mi","TEMP, PRECIP, SNOW",,,"PSY, SRG, SNOWBOARD",,,"FAA CWO",,,,,,,,,,,,,,,,,,,,,,,,,,,"29.73","54","87","0.00",,,,"32","29.72","FEW:02 65 BKN:07 250","29.70","10.00","67","250",,"15",,,,,,,,,,,,,,,,,,,,,,,,,,,,,,,,,,,,,"MET10506/24/20 13:51:02 METAR KJFK 241851Z 25013KT 10SM FEW065 BKN250 31/12 A2973 RMK AO2 SLP066 T03060122 (RR)","FM-15","7",,,,,,,,,,,,,,,,,,,,,,,,,,,,"2009-05-01"
"74486094789","2020-06-24T14:51:00","FM-15","7",,"ESE","1.5","mi","TEMP, PRECIP, SNOW",,,"PSY, SRG, SNOWBOARD",,,"FAA CWO",,,,,,,,,,,,,,,,,,,,,,,,,,,"29.73","52","88","0.00",,,,"29","29.73","FEW:02 65 BKN:07 250","29.70","10.00","66","260",,"14",,,,,,,,,,,,,,,,,,,,,,,,,,,,,,,,,,,,,"MET10506/24/20 14:51:02 METAR KJFK 241951Z 26012KT 10SM FEW065 BKN250 31/11 A2973 RMK AO2 SLP068 T03110111 (RR)","FM-15","7",,,,,,,,,,,,,,,,,,,,,,,,,,,,"2009-05-01"
"74486094789","2020-06-24T15:51:00","FM-15","7",,"ESE","1.5","mi","TEMP, PRECIP, SNOW",,,"PSY, SRG, SNOWBOARD",,,"FAA CWO",,,,,,,,,,,,,,,,,,,,,,,,,,,"29.74","53","87","0.00",,"-0.01","3","31","29.74","SCT:04 65 SCT:04 250","29.72","10.00","66","260",,"20",,,,,,,,,,,,,,,,,,,,,,,,,,,,,,,,,,,,,"MET11106/24/20 15:51:02 METAR KJFK 242051Z 26017KT 10SM SCT065 SCT250 31/12 A2974 RMK AO2 SLP071 T03060117 53004 (RR)","FM-15","7",,,,,,,,,,,,,,,,,,,,,,,,,,,,"2009-05-01"
"74486094789","2020-06-24T16:00:00","FM-12","4",,"ESE","1.5","mi","TEMP, PRECIP, SNOW",,,"PSY, SRG, SNOWBOARD",,,"FAA CWO",,,,,,,,,,,,,,,,,,,,,,,,,,,,"53","87",,,"-0.01","3","31","29.74","57","29.71","9.94","66","260",,"20",,,,,,,,,,,,,,,,,,,,,,,,,,,,,,,,,,,,,"SYN06474486 32766 42617 10306 20117 30060 40071 53004 92051 555 92421=","FM-12","4",,,,,,,,,,,,,,,,,,,,,,,,,,,,"2009-05-01"
"74486094789","2020-06-24T16:51:00","FM-15","7",,"ESE","1.5","mi","TEMP, PRECIP, SNOW",,,"PSY, SRG, SNOWBOARD",,,"FAA CWO",,,,,,,,,,,,,,,,,,,,,,,,,,,"29.75","51","86","0.00",,,,"30","29.75","FEW:02 65 SCT:04 250","29.72","10.00","65","260",,"18",,,,,,,,,,,,,,,,,,,,,,,,,,,,,,,,,,,,,"MET10506/24/20 16:51:02 METAR KJFK 242151Z 26016KT 10SM FEW065 SCT250 30/11 A2975 RMK AO2 SLP074 T03000106 (RR)","FM-15","7",,,,,,,,,,,,,,,,,,,,,,,,,,,,"2009-05-01"
"74486094789","2020-06-24T17:51:00","FM-15","7",,"ESE","1.5","mi","TEMP, PRECIP, SNOW",,,"PSY, SRG, SNOWBOARD",,,"FAA CWO",,,,,,,,,,,,,,,,,,,,,,,,,,,"29.76","52","85","0.00",,,,"32","29.76","FEW:02 75 SCT:04 250","29.74","10.00","65","270",,"20",,,,,,,,,,,,,,,,,,,,,,,,,,,,,,,,,,,,,"MET10506/24/20 17:51:02 METAR KJFK 242251Z 27017KT 10SM FEW075 SCT250 29/11 A2976 RMK AO2 SLP078 T02940111 (RR)","FM-15","7",,,,,,,,,,,,,,,,,,,,,,,,,,,,"2009-05-01"
"74486094789","2020-06-24T18:51:00","FM-15","7",,"ESE","1.5","mi","TEMP, PRECIP, SNOW",,,"PSY, SRG, SNOWBOARD",,,"FAA CWO",,,,,,,,,,,,,,,,,,,,,,,,,,,"29.78","52","82","0.00",,"-0.04","3","35","29.78","FEW:02 75 SCT:04 250","29.75","10.00","64","270",,"16",,,,,,,,,,,,,,,,,,,,,,,,,,,,,,,,,,,,,"MET12306/24/20 18:51:02 METAR KJFK 242351Z 27014KT 10SM FEW075 SCT250 28/11 A2978 RMK AO2 SLP084 T02780111 10311 20278 53014 (RR)","FM-15","7",,,,,,,,,,,,,,,,,,,,,,,,,,,,"2009-05-01"
"74486094789","2020-06-24T19:00:00","FM-12","4",,"ESE","1.5","mi","TEMP, PRECIP, SNOW",,,"PSY, SRG, SNOWBOARD",,,"FAA CWO",,,,,,,,,,,,,,,,,,,,,,,,,,,,"52","82",,,"-0.04","3","35","29.78","74","29.75","9.94","64","270",,"16",,,,,,,,,,,,,,,,,,,,,,,,,,,,,,,,,,,,,"SYN08074486 32866 42714 10278 20111 30073 40084 53014 92351 333 10311 20217 555 92500=","FM-12","4",,,,,,,,,,,,,,,,,,,,,,,,,,,,"2009-05-01"
"74486094789","2020-06-24T19:51:00","FM-15","7",,"ESE","1.5","mi","TEMP, PRECIP, SNOW",,,"PSY, SRG, SNOWBOARD",,,"FAA CWO",,,,,,,,,,,,,,,,,,,,,,,,,,,"29.80","54","81","0.00",,,,"39","29.80","FEW:02 75 SCT:04 250","29.78","10.00","65","270",,"14",,,,,,,,,,,,,,,,,,,,,,,,,,,,,,,,,,,,,"MET10006/24/20 19:51:01 METAR KJFK 250051Z 27012KT 10SM FEW075 SCT250 27/12 A2980 RMK AO2 SLP092 T02720122","FM-15","7",,,,,,,,,,,,,,,,,,,,,,,,,,,,"2009-05-01"
"74486094789","2020-06-24T20:51:00","FM-15","7",,"ESE","1.5","mi","TEMP, PRECIP, SNOW",,,"PSY, SRG, SNOWBOARD",,,"FAA CWO",,,,,,,,,,,,,,,,,,,,,,,,,,,"29.83","55","79","0.00",,,,"44","29.83","SCT:04 250","29.80","10.00","65","260",,"8",,,,,,,,,,,,,,,,,,,,,,,,,,,,,,,,,,,,,"MET09306/24/20 20:51:01 METAR KJFK 250151Z 26007KT 10SM SCT250 26/13 A2983 RMK AO2 SLP100 T02610128","FM-15","7",,,,,,,,,,,,,,,,,,,,,,,,,,,,"2009-05-01"
"74486094789","2020-06-24T21:51:00","FM-15","7",,"ESE","1.5","mi","TEMP, PRECIP, SNOW",,,"PSY, SRG, SNOWBOARD",,,"FAA CWO",,,,,,,,,,,,,,,,,,,,,,,,,,,"29.84","62","74","0.00",,"-0.06","1","67","29.84","SCT:04 250","29.82","10.00","67","220",,"8",,,,,,,,,,,,,,,,,,,,,,,,,,,,,,,,,,,,,"MET09906/24/20 21:51:01 METAR KJFK 250251Z 22007KT 10SM SCT250 23/17 A2984 RMK AO2 SLP105 T02330167 51021","FM-15","7",,,,,,,,,,,,,,,,,,,,,,,,,,,,"2009-05-01"
"74486094789","2020-06-24T22:00:00","FM-12","4",,"ESE","1.5","mi","TEMP, PRECIP, SNOW",,,"PSY, SRG, SNOWBOARD",,,"FAA CWO",,,,,,,,,,,,,,,,,,,,,,,,,,,,"62","74",,,"-0.06","1","67","29.84",,"29.81","9.94","67","220",,"8",,,,,,,,,,,,,,,,,,,,,,,,,,,,,,,,,,,,,"SYN06474486 32966 42207 10233 20167 30094 40105 51021 90251 555 92503=","FM-12","4",,,,,,,,,,,,,,,,,,,,,,,,,,,,"2009-05-01"
"74486094789","2020-06-24T22:51:00","FM-15","7",,"ESE","1.5","mi","TEMP, PRECIP, SNOW",,,"PSY, SRG, SNOWBOARD",,,"FAA CWO",,,,,,,,,,,,,,,,,,,,,,,,,,,"29.86","59","74","0.00",,,,"60","29.85","SCT:04 250","29.83","10.00","65","220",,"10",,,,,,,,,,,,,,,,,,,,,,,,,,,,,,,,,,,,,"MET09306/24/20 22:51:01 METAR KJFK 250351Z 22009KT 10SM SCT250 23/15 A2986 RMK AO2 SLP110 T02330150","FM-15","7",,,,,,,,,,,,,,,,,,,,,,,,,,,,"2009-05-01"
"74486094789","2020-06-24T23:51:00","FM-15","7",,"ESE","1.5","mi","TEMP, PRECIP, SNOW",,,"PSY, SRG, SNOWBOARD",,,"FAA CWO",,,,,,,,,,,,,,,,,,,,,,,,,,,"29.87","61","72","0.00",,,,"68","29.87","FEW:02 60 SCT:04 250","29.85","10.00","65","230",,"8",,,,,,,,,,,,,,,,,,,,,,,,,,,,,,,,,,,,,"MET11006/24/20 23:51:01 METAR KJFK 250451Z 23007KT 10SM FEW060 SCT250 22/16 A2987 RMK AO2 SLP115 T02220161 403110217","FM-15","7",,,,,,,,,,,,,,,,,,,,,,,,,,,,"2009-05-01"
"74486094789","2020-06-24T23:59:00","SOD  ","6",,"ESE","1.5","mi","TEMP, PRECIP, SNOW",,,"PSY, SRG, SNOWBOARD",,,"FAA CWO",,,,"61","80","57","29.74","29.69","68","12.5","15","7.0","0","88","71","280","27","0.00","0","0.0","260","22",,,,,,,,,,,,,,,,,,,,,,,,,,,,,,,,,,,,,,,,,,,,,,,,,,,,,,,,,"SOD73924 HR PRECIPITATION (IN): 0.00 SNOW DEPTH (IN):0     24 HR SNOWFALL (IN):0.0  24 HR MAX TEMP (F): 8824 HR MIN TEMP (F): 71AVERAGE STATION PRESSURE:29.690 MINIMUM SEA LEVEL PRESSURE:29.64 TIME OF OCCURRENCE:0213 PEAK WIND SPEED (MPH): 27 PEAK WIND DIR (DEG):280 PEAK WIND TIME (LST):      FASTEST 2MIN SPEED (MPH): 22FASTEST 2MIN DIR (DEG):260 FASTEST 2MIN TIME (LST):     AVERAGE WIND SPEED (MPH):12.5 24 HR AVG TEMP (F): 80DEPART FROM NORMAL:  7  HEATING DEGREE DAYS:  0 COOLING DEGREE DAYS: 15 LATEST DAY MAX TEMP (0700-1900 LST):88  LATEST NIGHT MIN TEMP(1900-0800 LST):71 HOURLY INCREMENTAL PRECIPITATION VALUES (IN):.00 0.00 0.00 0.00 0.00 0.00 0.00 0.00 0.00 0.00 0.00 0.00 0.00 0.00 0.00 0.00 0.00 0.00 0.00 0.00 0.00 0.00 0.00 0.00","SOD  ","6",,,,,,,,,,,,,,,,,,,,,,,,,"0425","1930",,"2009-05-01"
"74486094789","2020-06-25T00:51:00","FM-15","7",,"ESE","1.5","mi","TEMP, PRECIP, SNOW",,,"PSY, SRG, SNOWBOARD",,,"FAA CWO",,,,,,,,,,,,,,,,,,,,,,,,,,,"29.88","62","72","0.00",,"-0.04","1","71","29.88","SCT:04 70 SCT:04 250","29.85","10.00","66","240",,"7",,,,,,,,,,,,,,,,,,,,,,,,,,,,,,,,,,,,,"MET12306/25/20 00:51:02 METAR KJFK 250551Z 24006KT 10SM SCT070 SCT250 22/17 A2988 RMK AO2 SLP117 T02220167 10278 20217 51013 (JC)","FM-15","7",,,,,,,,,,,,,,,,,,,,,,,,,,,,"2009-05-01"
"74486094789","2020-06-25T01:00:00","FM-12","4",,"ESE","1.5","mi","TEMP, PRECIP, SNOW",,,"PSY, SRG, SNOWBOARD",,,"FAA CWO",,,,,,,,,,,,,,,,,,,,,,,,,,,,"62","72",,,"-0.04","1","71","29.88","74","29.85","9.94","66","240",,"7",,,,,,,,,,,,,,,,,,,,,,,,,,,,,,,,,,,,,"SYN08074486 32866 42406 10222 20167 30107 40117 51013 90551 333 10278 20217 555 92506=","FM-12","4",,,,,,,,,,,,,,,,,,,,,,,,,,,,"2009-05-01"
"74486094789","2020-06-25T01:51:00","FM-15","7",,"ESE","1.5","mi","TEMP, PRECIP, SNOW",,,"PSY, SRG, SNOWBOARD",,,"FAA CWO",,,,,,,,,,,,,,,,,,,,,,,,,,,"29.88","61","72","0.00",,,,"68","29.88","FEW:02 70 BKN:07 250","29.85","10.00","65","250",,"8",,,,,,,,,,,,,,,,,,,,,,,,,,,,,,,,,,,,,"MET10506/25/20 01:51:02 METAR KJFK 250651Z 25007KT 10SM FEW070 BKN250 22/16 A2988 RMK AO2 SLP119 T02220161 (JC)","FM-15","7",,,,,,,,,,,,,,,,,,,,,,,,,,,,"2009-05-01"
"74486094789","2020-06-25T02:51:00","FM-15","7",,"ESE","1.5","mi","TEMP, PRECIP, SNOW",,,"PSY, SRG, SNOWBOARD",,,"FAA CWO",,,,,,,,,,,,,,,,,,,,,,,,,,,"29.89","63","71","0.00",,,,"76","29.89","FEW:02 70 FEW:02 110 BKN:07 250","29.87","10.00","66","250",,"6",,,,,,,,,,,,,,,,,,,,,,,,,,,,,,,,,,,,,"MET11206/25/20 02:51:02 METAR KJFK 250751Z 25005KT 10SM FEW070 FEW110 BKN250 22/17 A2989 RMK AO2 SLP122 T02170172 (JC)","FM-15","7",,,,,,,,,,,,,,,,,,,,,,,,,,,,"2009-05-01"
"74486094789","2020-06-25T03:51:00","FM-15","7",,"ESE","1.5","mi","TEMP, PRECIP, SNOW",,,"PSY, SRG, SNOWBOARD",,,"FAA CWO",,,,,,,,,,,,,,,,,,,,,,,,,,,"29.91","60","72","0.00",,"-0.04","3","66","29.91","FEW:02 80 BKN:07 250","29.88","10.00","65","250",,"7",,,,,,,,,,,,,,,,,,,,,,,,,,,,,,,,,,,,,"MET11106/25/20 03:51:02 METAR KJFK 250851Z 25006KT 10SM FEW080 BKN250 22/16 A2991 RMK AO2 SLP129 T02220156 53012 (JC)","FM-15","7",,,,,,,,,,,,,,,,,,,,,,,,,,,,"2009-05-01"
"74486094789","2020-06-25T04:00:00","FM-12","4",,"ESE","1.5","mi","TEMP, PRECIP, SNOW",,,"PSY, SRG, SNOWBOARD",,,"FAA CWO",,,,,,,,,,,,,,,,,,,,,,,,,,,,"60","72",,,"-0.04","3","66","29.91","74","29.88","9.94","65","250",,"7",,,,,,,,,,,,,,,,,,,,,,,,,,,,,,,,,,,,,"SYN06474486 32866 62506 10222 20156 30117 40129 53012 90851 555 92509=","FM-12","4",,,,,,,,,,,,,,,,,,,,,,,,,,,,"2009-05-01"
"74486094789","2020-06-25T04:51:00","FM-15","7",,"ESE","1.5","mi","TEMP, PRECIP, SNOW",,,"PSY, SRG, SNOWBOARD",,,"FAA CWO",,,,,,,,,,,,,,,,,,,,,,,,,,,"29.94","60","72","0.00",,,,"66","29.93","FEW:02 80 FEW:02 110 BKN:07 250","29.91","10.00","65","280",,"5",,,,,,,,,,,,,,,,,,,,,,,,,,,,,,,,,,,,,"MET11206/25/20 04:51:02 METAR KJFK 250951Z 28004KT 10SM FEW080 FEW110 BKN250 22/16 A2994 RMK AO2 SLP137 T02220156 (JC)","FM-15","7",,,,,,,,,,,,,,,,,,,,,,,,,,,,"2009-05-01"
"74486094789","2020-06-25T05:51:00","FM-15","7",,"ESE","1.5","mi","TEMP, PRECIP, SNOW",,,"PSY, SRG, SNOWBOARD",,,"FAA CWO",,,,,,,,,,,,,,,,,,,,,,,,,,,"29.96","55","75","0.00",,,,"50","29.95","FEW:02 45 FEW:02 110 BKN:07 250","29.93","10.00","63","320",,"9",,,,,,,,,,,,,,,,,,,,,,,,,,,,,,,,,,,,,"MET11206/25/20 05:51:02 METAR KJFK 251051Z 32008KT 10SM FEW045 FEW110 BKN250 24/13 A2996 RMK AO2 SLP143 T02390128 (BH)","FM-15","7",,,,,,,,,,,,,,,,,,,,,,,,,,,,"2009-05-01"
"74486094789","2020-06-25T06:51:00","FM-15","7",,"ESE","1.5","mi","TEMP, PRECIP, SNOW",,,"PSY, SRG, SNOWBOARD",,,"FAA CWO",,,,,,,,,,,,,,,,,,,,,,,,,,,"29.97","54","76","0.00",,"-0.06","1","47","29.97","FEW:02 45 FEW:02 110 BKN:07 250","29.95","10.00","63","340",,"7",,,,,,,,,,,,,,,,,,,,,,,,,,,,,,,,,,,,,"MET13006/25/20 06:51:02 METAR KJFK 251151Z 34006KT 10SM FEW045 FEW110 BKN250 24/12 A2997 RMK AO2 SLP149 T02440122 10244 20211 51020 (BH)","FM-15","7",,,,,,,,,,,,,,,,,,,,,,,,,,,,"2009-05-01"
"74486094789","2020-06-25T07:00:00","FM-12","4",,"ESE","1.5","mi","TEMP, PRECIP, SNOW",,,"PSY, SRG, SNOWBOARD",,,"FAA CWO",,,,,,,,,,,,,,,,,,,,,,,,,,,,"54","76",,,"-0.06","1","47","29.97","41","29.94","9.94","63","340",,"7",,,,,,,,,,,,,,,,,,,,,,,,,,,,,,,,,,,,,"SYN08074486 32666 63406 10244 20122 30138 40149 51020 91151 333 10311 20211 555 92512=","FM-12","4",,,,,,,,,,,,,,,,,,,,,,,,,,,,"2009-05-01"
"74486094789","2020-06-25T07:51:00","FM-15","7",,"ESE","1.5","mi","TEMP, PRECIP, SNOW",,,"PSY, SRG, SNOWBOARD",,,"FAA CWO",,,,,,,,,,,,,,,,,,,,,,,,,,,"29.98","52","78","0.00",,,,"40","29.98","FEW:02 110 BKN:07 250","29.96","10.00","63","340",,"5",,,,,,,,,,,,,,,,,,,,,,,,,,,,,,,,,,,,,"MET10506/25/20 07:51:02 METAR KJFK 251251Z 34004KT 10SM FEW110 BKN250 26/11 A2998 RMK AO2 SLP152 T02560111 (BH)","FM-15","7",,,,,,,,,,,,,,,,,,,,,,,,,,,,"2009-05-01"
"74486094789","2020-06-25T08:51:00","FM-15","7",,"ESE","1.5","mi","TEMP, PRECIP, SNOW",,,"PSY, SRG, SNOWBOARD",,,"FAA CWO",,,,,,,,,,,,,,,,,,,,,,,,,,,"29.99","50","80","0.00",,,,"35","29.98","FEW:02 100 BKN:07 250","29.96","10.00","63","350",,"6",,,,,,,,,,,,,,,,,,,,,,,,,,,,,,,,,,,,,"MET10506/25/20 08:51:02 METAR KJFK 251351Z 35005KT 10SM FEW100 BKN250 27/10 A2999 RMK AO2 SLP154 T02670100 (BH)","FM-15","7",,,,,,,,,,,,,,,,,,,,,,,,,,,,"2009-05-01"
"74486094789","2020-06-25T09:51:00","FM-15","7",,"ESE","1.5","mi","TEMP, PRECIP, SNOW",,,"PSY, SRG, SNOWBOARD",,,"FAA CWO",,,,,,,,,,,,,,,,,,,,,,,,,,,"29.99","48","81","0.00",,"-0.02","1","32","29.99","FEW:02 110 BKN:07 250","29.96","10.00","62","320",,"9",,,,,,,,,,,,,,,,,,,,,,,,,,,,,,,,,,,,,"MET11106/25/20 09:51:02 METAR KJFK 251451Z 32008KT 10SM FEW110 BKN250 27/09 A2999 RMK AO2 SLP156 T02720089 51007 (BH)","FM-15","7",,,,,,,,,,,,,,,,,,,,,,,,,,,,"2009-05-01"
"74486094789","2020-06-25T10:00:00","FM-12","4",,"ESE","1.5","mi","TEMP, PRECIP, SNOW",,,"PSY, SRG, SNOWBOARD",,,"FAA CWO",,,,,,,,,,,,,,,,,,,,,,,,,,,,"48","81",,,"-0.02","1","32","29.99",,"29.96","9.94","62","320",,"9",,,,,,,,,,,,,,,,,,,,,,,,,,,,,,,,,,,,,"SYN06474486 32966 63208 10272 20089 30144 40156 51007 91451 555 92515=","FM-12","4",,,,,,,,,,,,,,,,,,,,,,,,,,,,"2009-05-01"
"74486094789","2020-06-25T10:51:00","FM-15","7",,"ESE","1.5","mi","TEMP, PRECIP, SNOW",,,"PSY, SRG, SNOWBOARD",,,"FAA CWO",,,,,,,,,,,,,,,,,,,,,,,,,,,"30.00","52","81","0.00",,,,"37","30.00","FEW:02 120 BKN:07 220","29.98","10.00","64","200",,"9",,,,,,,,,,,,,,,,,,,,,,,,,,,,,,,,,,,,,"MET10506/25/20 10:51:02 METAR KJFK 251551Z 20008KT 10SM FEW120 BKN220 27/11 A3000 RMK AO2 SLP158 T02720111 (BH)","FM-15","7",,,,,,,,,,,,,,,,,,,,,,,,,,,,"2009-05-01"
"74486094789","2020-06-25T11:51:00","FM-15","7",,"ESE","1.5","mi","TEMP, PRECIP, SNOW",,,"PSY, SRG, SNOWBOARD",,,"FAA CWO",,,,,,,,,,,,,,,,,,,,,,,,,,,"30.00","52","82","0.00",,,,"35","30.00","FEW:02 70 FEW:02 120 SCT:04 250","29.98","10.00","64","200",,"10",,,,,,,,,,,,,,,,,,,,,,,,,,,,,,,,,,,,,"MET11206/25/20 11:51:02 METAR KJFK 251651Z 20009KT 10SM FEW070 FEW120 SCT250 28/11 A3000 RMK AO2 SLP159 T02780111 (BH)","FM-15","7",,,,,,,,,,,,,,,,,,,,,,,,,,,,"2009-05-01"
"74486094789","2020-06-25T12:51:00","FM-15","7",,"ESE","1.5","mi","TEMP, PRECIP, SNOW",,,"PSY, SRG, SNOWBOARD",,,"FAA CWO",,,,,,,,,,,,,,,,,,,,,,,,,,,"29.99","51","84","0.00",,"+0.00","8","32","29.99","FEW:02 70 SCT:04 140 BKN:07 250","29.96","10.00","64","190",,"11",,,,,,,,,,,,,,,,,,,,,,,,,,,,,,,,,,,,,"MET13006/25/20 12:51:02 METAR KJFK 251751Z 19010KT 10SM FEW070 SCT140 BKN250 29/11 A2999 RMK AO2 SLP155 T02890106 10294 20244 58001 (BH)","FM-15","7",,,,,,,,,,,,,,,,,,,,,,,,,,,,"2009-05-01"
"74486094789","2020-06-25T13:00:00","FM-12","4",,"ESE","1.5","mi","TEMP, PRECIP, SNOW",,,"PSY, SRG, SNOWBOARD",,,"FAA CWO",,,,,,,,,,,,,,,,,,,,,,,,,,,,"51","84",,,"+0.00","8","32","29.99","74","29.96","9.94","64","190",,"11",,,,,,,,,,,,,,,,,,,,,,,,,,,,,,,,,,,,,"SYN08074486 32866 61910 10289 20106 30144 40155 58001 91751 333 10294 20244 555 92518=","FM-12","4",,,,,,,,,,,,,,,,,,,,,,,,,,,,"2009-05-01"
"74486094789","2020-06-25T13:51:00","FM-15","7",,"ESE","1.5","mi","TEMP, PRECIP, SNOW",,,"PSY, SRG, SNOWBOARD",,,"FAA CWO",,,,,,,,,,,,,,,,,,,,,,,,,,,"29.99","53","83","0.00",,,,"36","29.98","FEW:02 70 BKN:07 130 BKN:07 250","29.96","10.00","65","170",,"11",,,,,,,,,,,,,,,,,,,,,,,,,,,,,,,,,,,,,"MET11206/25/20 13:51:02 METAR KJFK 251851Z 17010KT 10SM FEW070 BKN130 BKN250 28/12 A2999 RMK AO2 SLP154 T02830117 (RR)","FM-15","7",,,,,,,,,,,,,,,,,,,,,,,,,,,,"2009-05-01"
"74486094789","2020-06-25T14:51:00","FM-15","7",,"ESE","1.5","mi","TEMP, PRECIP, SNOW",,,"PSY, SRG, SNOWBOARD",,,"FAA CWO",,,,,,,,,,,,,,,,,,,,,,,,,,,"29.99","55","78","0.00",,,,"45","29.98","FEW:02 70 BKN:07 120 BKN:07 250","29.96","10.00","64","180",,"11",,,,,,,,,,,,,,,,,,,,,,,,,,,,,,,,,,,,,"MET11206/25/20 14:51:02 METAR KJFK 251951Z 18010KT 10SM FEW070 BKN120 BKN250 26/13 A2999 RMK AO2 SLP154 T02560128 (RR)","FM-15","7",,,,,,,,,,,,,,,,,,,,,,,,,,,,"2009-05-01"
"74486094789","2020-06-25T15:51:00","FM-15","7",,"ESE","1.5","mi","TEMP, PRECIP, SNOW",,,"PSY, SRG, SNOWBOARD",,,"FAA CWO",,,,,,,,,,,,,,,,,,,,,,,,,,,"29.97","56","78","0.00",,"+0.02","8","47","29.97","FEW:02 70 BKN:07 110 BKN:07 250","29.95","10.00","65","180",,"11",,,,,,,,,,,,,,,,,,,,,,,,,,,,,,,,,,,,,"MET11806/25/20 15:51:02 METAR KJFK 252051Z 18010KT 10SM FEW070 BKN110 BKN250 26/13 A2997 RMK AO2 SLP148 T02560133 58008 (RR)","FM-15","7",,,,,,,,,,,,,,,,,,,,,,,,,,,,"2009-05-01"
"74486094789","2020-06-25T16:00:00","FM-12","4",,"ESE","1.5","mi","TEMP, PRECIP, SNOW",,,"PSY, SRG, SNOWBOARD",,,"FAA CWO",,,,,,,,,,,,,,,,,,,,,,,,,,,,"56","78",,,"+0.02","8","47","29.97","74","29.94","9.94","65","180",,"11",,,,,,,,,,,,,,,,,,,,,,,,,,,,,,,,,,,,,"SYN06474486 32866 61810 10256 20133 30138 40148 58008 92051 555 92521=","FM-12","4",,,,,,,,,,,,,,,,,,,,,,,,,,,,"2009-05-01"
"74486094789","2020-06-25T16:51:00","FM-15","7",,"ESE","1.5","mi","TEMP, PRECIP, SNOW",,,"PSY, SRG, SNOWBOARD",,,"FAA CWO",,,,,,,,,,,,,,,,,,,,,,,,,,,"29.96","62","78","0.00",,,,"58","29.96","FEW:02 70 BKN:07 110 BKN:07 140","29.93","10.00","68","180",,"13",,,,,,,,,,,,,,,,,,,,,,,,,,,,,,,,,,,,,"MET11206/25/20 16:51:02 METAR KJFK 252151Z 18011KT 10SM FEW070 BKN110 BKN140 26/17 A2996 RMK AO2 SLP146 T02560167 (RR)","FM-15","7",,,,,,,,,,,,,,,,,,,,,,,,,,,,"2009-05-01"
"74486094789","2020-06-25T17:51:00","FM-15","7",,"ESE","1.5","mi","TEMP, PRECIP, SNOW",,,"PSY, SRG, SNOWBOARD",,,"FAA CWO",,,,,,,,,,,,,,,,,,,,,,,,,,,"29.97","61","76","0.00",,,,"60","29.97","FEW:02 70 SCT:04 100 SCT:04 130","29.95","10.00","67","190",,"18",,,,,,,,,,,,,,,,,,,,,,,,,,,,,,,,,,,,,"MET11206/25/20 17:51:02 METAR KJFK 252251Z 19016KT 10SM FEW070 SCT100 SCT130 24/16 A2997 RMK AO2 SLP148 T02440161 (RR)","FM-15","7",,,,,,,,,,,,,,,,,,,,,,,,,,,,"2009-05-01"
"74486094789","2020-06-25T18:51:00","FM-15","7",,"ESE","1.5","mi","TEMP, PRECIP, SNOW",,,"PSY, SRG, SNOWBOARD",,,"FAA CWO",,,,,,,,,,,,,,,,,,,,,,,,,,,"29.96","61","74","0.00",,"+0.01","8","64","29.96","FEW:02 70 FEW:02 100 SCT:04 150","29.93","10.00","66","180",,"15",,,,,,,,,,,,,,,,,,,,,,,,,,,,,,,,,,,,,"MET13006/25/20 18:51:02 METAR KJFK 252351Z 18013KT 10SM FEW070 FEW100 SCT150 23/16 A2996 RMK AO2 SLP145 T02330161 10289 20233 58003 (RR)","FM-15","7",,,,,,,,,,,,,,,,,,,,,,,,,,,,"2009-05-01"
"74486094789","2020-06-25T19:00:00","FM-12","4",,"ESE","1.5","mi","TEMP, PRECIP, SNOW",,,"PSY, SRG, SNOWBOARD",,,"FAA CWO",,,,,,,,,,,,,,,,,,,,,,,,,,,,"61","74",,,"+0.01","8","64","29.96","74","29.93","9.94","66","180",,"15",,,,,,,,,,,,,,,,,,,,,,,,,,,,,,,,,,,,,"SYN08074486 32866 61813 10233 20161 30134 40145 58003 92351 333 10294 20211 555 92600=","FM-12","4",,,,,,,,,,,,,,,,,,,,,,,,,,,,"2009-05-01"
"74486094789","2020-06-25T19:51:00","FM-15","7",,"ESE","1.5","mi","TEMP, PRECIP, SNOW",,,"PSY, SRG, SNOWBOARD",,,"FAA CWO",,,,,,,,,,,,,,,,,,,,,,,,,,,"29.97","62","71","0.00",,,,"73","29.96","FEW:02 70 FEW:02 110 FEW:02 150","29.95","10.00","65","220",,"6",,,,,,,,,,,,,,,,,,,,,,,,,,,,,,,,,,,,,"MET10706/25/20 19:51:01 METAR KJFK 260051Z 22005KT 10SM FEW070 FEW110 FEW150 22/17 A2997 RMK AO2 SLP147 T02170167","FM-15","7",,,,,,,,,,,,,,,,,,,,,,,,,,,,"2009-05-01"
"74486094789","2020-06-25T20:51:00","FM-15","7",,"ESE","1.5","mi","TEMP, PRECIP, SNOW",,,"PSY, SRG, SNOWBOARD",,,"FAA CWO",,,,,,,,,,,,,,,,,,,,,,,,,,,"29.97","62","69","0.00",,,,"78","29.97","FEW:02 70 FEW:02 110 SCT:04 210","29.95","10.00","65","210",,"8",,,,,,,,,,,,,,,,,,,,,,,,,,,,,,,,,,,,,"MET10706/25/20 20:51:01 METAR KJFK 260151Z 21007KT 10SM FEW070 FEW110 SCT210 21/17 A2997 RMK AO2 SLP149 T02060167","FM-15","7",,,,,,,,,,,,,,,,,,,,,,,,,,,,"2009-05-01"
"74486094789","2020-06-25T21:51:00","FM-15","7",,"ESE","1.5","mi","TEMP, PRECIP, SNOW",,,"PSY, SRG, SNOWBOARD",,,"FAA CWO",,,,,,,,,,,,,,,,,,,,,,,,,,,"29.98","63","69","0.00",,"-0.02","1","81","29.98","FEW:02 70 SCT:04 160 BKN:07 250","29.96","10.00","65","180",,"6",,,,,,,,,,,,,,,,,,,,,,,,,,,,,,,,,,,,,"MET11306/25/20 21:51:02 METAR KJFK 260251Z 18005KT 10SM FEW070 SCT160 BKN250 21/17 A2998 RMK AO2 SLP151 T02060172 51006","FM-15","7",,,,,,,,,,,,,,,,,,,,,,,,,,,,"2009-05-01"
"74486094789","2020-06-25T22:00:00","FM-12","4",,"ESE","1.5","mi","TEMP, PRECIP, SNOW",,,"PSY, SRG, SNOWBOARD",,,"FAA CWO",,,,,,,,,,,,,,,,,,,,,,,,,,,,"63","69",,,"-0.02","1","81","29.98","74","29.95","9.94","65","180",,"6",,,,,,,,,,,,,,,,,,,,,,,,,,,,,,,,,,,,,"SYN06474486 32866 61805 10206 20172 30141 40151 51006 90251 555 92603=","FM-12","4",,,,,,,,,,,,,,,,,,,,,,,,,,,,"2009-05-01"
"74486094789","2020-06-25T22:51:00","FM-15","7",,"ESE","1.5","mi","TEMP, PRECIP, SNOW",,,"PSY, SRG, SNOWBOARD",,,"FAA CWO",,,,,,,,,,,,,,,,,,,,,,,,,,,"29.97","62","70","0.00",,,,"76","29.97","FEW:02 70 SCT:04 150 BKN:07 250","29.95","10.00","65","190",,"8",,,,,,,,,,,,,,,,,,,,,,,,,,,,,,,,,,,,,"MET10706/25/20 22:51:02 METAR KJFK 260351Z 19007KT 10SM FEW070 SCT150 BKN250 21/17 A2997 RMK AO2 SLP149 T02110167","FM-15","7",,,,,,,,,,,,,,,,,,,,,,,,,,,,"2009-05-01"
"74486094789","2020-06-25T23:51:00","FM-15","7",,"ESE","1.5","mi","TEMP, PRECIP, SNOW",,,"PSY, SRG, SNOWBOARD",,,"FAA CWO",,,,,,,,,,,,,,,,,,,,,,,,,,,"29.97","64","70","0.00",,,,"82","29.97","FEW:02 70 BKN:07 140 OVC:08 250","29.95","10.00","66","200",,"8",,,,,,,,,,,,,,,,,,,,,,,,,,,,,,,,,,,,,"MET11706/25/20 23:51:02 METAR KJFK 260451Z 20007KT 10SM FEW070 BKN140 OVC250 21/18 A2997 RMK AO2 SLP149 T02110178 402940200","FM-15","7",,,,,,,,,,,,,,,,,,,,,,,,,,,,"2009-05-01"
"74486094789","2020-06-25T23:59:00","SOD  ","6",,"ESE","1.5","mi","TEMP, PRECIP, SNOW",,,"PSY, SRG, SNOWBOARD",,,"FAA CWO",,,,"58","77","56","29.96","29.92","65","9.0","12","3.8","0","85","68","190","26","0.00","0","0.0","180","22",,,,,,,,,,,,,,,,,,,,,,,,,,,,,,,,,,,,,,,,,,,,,,,,,,,,,,,,,"SOD73924 HR PRECIPITATION (IN): 0.00 SNOW DEPTH (IN):0     24 HR SNOWFALL (IN):0.0  24 HR MAX TEMP (F): 8524 HR MIN TEMP (F): 68AVERAGE STATION PRESSURE:29.920 MINIMUM SEA LEVEL PRESSURE:29.87 TIME OF OCCURRENCE:0029 PEAK WIND SPEED (MPH): 26 PEAK WIND DIR (DEG):190 PEAK WIND TIME (LST):      FASTEST 2MIN SPEED (MPH): 22FASTEST 2MIN DIR (DEG):180 FASTEST 2MIN TIME (LST):     AVERAGE WIND SPEED (MPH): 9.0 24 HR AVG TEMP (F): 77DEPART FROM NORMAL:  4  HEATING DEGREE DAYS:  0 COOLING DEGREE DAYS: 12 LATEST DAY MAX TEMP (0700-1900 LST):85  LATEST NIGHT MIN TEMP(1900-0800 LST):70 HOURLY INCREMENTAL PRECIPITATION VALUES (IN):.00 0.00 0.00 0.00 0.00 0.00 0.00 0.00 0.00 0.00 0.00 0.00 0.00 0.00 0.00 0.00 0.00 0.00 0.00 0.00 0.00 0.00 0.00 0.00","SOD  ","6",,,,,,,,,,,,,,,,,,,,,,,,,"0426","1930",,"2009-05-01"
"74486094789","2020-06-26T00:51:00","FM-15","7",,"ESE","1.5","mi","TEMP, PRECIP, SNOW",,,"PSY, SRG, SNOWBOARD",,,"FAA CWO",,,,,,,,,,,,,,,,,,,,,,,,,,,"29.97","64","69","0.00",,"+0.01","6","84","29.96","SCT:04 140 BKN:07 250","29.95","10.00","66","210",,"5",,,,,,,,,,,,,,,,,,,,,,,,,,,,,,,,,,,,,"MET12306/26/20 00:51:02 METAR KJFK 260551Z 21004KT 10SM SCT140 BKN250 21/18 A2997 RMK AO2 SLP147 T02060178 10233 20200 56004 (JC)","FM-15","7",,,,,,,,,,,,,,,,,,,,,,,,,,,,"2009-05-01"
"74486094789","2020-06-26T01:00:00","FM-12","4",,"ESE","1.5","mi","TEMP, PRECIP, SNOW",,,"PSY, SRG, SNOWBOARD",,,"FAA CWO",,,,,,,,,,,,,,,,,,,,,,,,,,,,"64","69",,,"+0.01","6","84","29.96",,"29.94","9.94","66","210",,"5",,,,,,,,,,,,,,,,,,,,,,,,,,,,,,,,,,,,,"SYN08074486 32966 62104 10206 20178 30138 40147 56004 90551 333 10244 20200 555 92606=","FM-12","4",,,,,,,,,,,,,,,,,,,,,,,,,,,,"2009-05-01"
"74486094789","2020-06-26T01:51:00","FM-15","7",,"ESE","1.5","mi","TEMP, PRECIP, SNOW",,,"PSY, SRG, SNOWBOARD",,,"FAA CWO",,,,,,,,,,,,,,,,,,,,,,,,,,,"29.97","64","68","0.00",,,,"87","29.96","FEW:02 140 BKN:07 250","29.95","10.00","66","200",,"7",,,,,,,,,,,,,,,,,,,,,,,,,,,,,,,,,,,,,"MET10506/26/20 01:51:02 METAR KJFK 260651Z 20006KT 10SM FEW140 BKN250 20/18 A2997 RMK AO2 SLP147 T02000178 (JC)","FM-15","7",,,,,,,,,,,,,,,,,,,,,,,,,,,,"2009-05-01"
"74486094789","2020-06-26T02:51:00","FM-15","7",,"ESE","1.5","mi","TEMP, PRECIP, SNOW",,,"PSY, SRG, SNOWBOARD",,,"FAA CWO",,,,,,,,,,,,,,,,,,,,,,,,,,,"29.97","64","69","0.00",,,,"84","29.96","FEW:02 140 BKN:07 250","29.95","10.00","66","250",,"9",,,,,,,,,,,,,,,,,,,,,,,,,,,,,,,,,,,,,"MET10506/26/20 02:51:02 METAR KJFK 260751Z 25008KT 10SM FEW140 BKN250 21/18 A2997 RMK AO2 SLP147 T02060178 (JC)","FM-15","7",,,,,,,,,,,,,,,,,,,,,,,,,,,,"2009-05-01"
"74486094789","2020-06-26T03:51:00","FM-15","7",,"ESE","1.5","mi","TEMP, PRECIP, SNOW",,,"PSY, SRG, SNOWBOARD",,,"FAA CWO",,,,,,,,,,,,,,,,,,,,,,,,,,,"29.97","64","70","0.00",,"-0.00","2","82","29.97","FEW:02 150 SCT:04 250","29.95","10.00","66","250",,"7",,,,,,,,,,,,,,,,,,,,,,,,,,,,,,,,,,,,,"MET11106/26/20 03:51:02 METAR KJFK 260851Z 25006KT 10SM FEW150 SCT250 21/18 A2997 RMK AO2 SLP148 T02110178 52001 (JC)","FM-15","7",,,,,,,,,,,,,,,,,,,,,,,,,,,,"2009-05-01"
"74486094789","2020-06-26T04:00:00","FM-12","4",,"ESE","1.5","mi","TEMP, PRECIP, SNOW",,,"PSY, SRG, SNOWBOARD",,,"FAA CWO",,,,,,,,,,,,,,,,,,,,,,,,,,,,"64","70",,,"-0.00","2","82","29.97",,"29.94","9.94","66","250",,"7",,,,,,,,,,,,,,,,,,,,,,,,,,,,,,,,,,,,,"SYN06474486 32966 42506 10211 20178 30138 40148 52001 90851 555 92609=","FM-12","4",,,,,,,,,,,,,,,,,,,,,,,,,,,,"2009-05-01"
"74486094789","2020-06-26T04:51:00","FM-15","7",,"ESE","1.5","mi","TEMP, PRECIP, SNOW",,,"PSY, SRG, SNOWBOARD",,,"FAA CWO",,,,,,,,,,,,,,,,,,,,,,,,,,,"29.97","63","70","0.00",,,,"79","29.97","FEW:02 70 FEW:02 150 SCT:04 250","29.95","10.00","66","290",,"7",,,,,,,,,,,,,,,,,,,,,,,,,,,,,,,,,,,,,"MET11206/26/20 04:51:02 METAR KJFK 260951Z 29006KT 10SM FEW070 FEW150 SCT250 21/17 A2997 RMK AO2 SLP149 T02110172 (JC)","FM-15","7",,,,,,,,,,,,,,,,,,,,,,,,,,,,"2009-05-01"
"74486094789","2020-06-26T05:51:00","FM-15","7",,"ESE","1.5","mi","TEMP, PRECIP, SNOW",,,"PSY, SRG, SNOWBOARD",,,"FAA CWO",,,,,,,,,,,,,,,,,,,,,,,,,,,"29.98","64","72","0.00",,,,"76","29.98","FEW:02 150 FEW:02 250","29.96","10.00","67","250",,"6",,,,,,,,,,,,,,,,,,,,,,,,,,,,,,,,,,,,,"MET10506/26/20 05:51:02 METAR KJFK 261051Z 25005KT 10SM FEW150 FEW250 22/18 A2998 RMK AO2 SLP151 T02220178 (BH)","FM-15","7",,,,,,,,,,,,,,,,,,,,,,,,,,,,"2009-05-01"
"74486094789","2020-06-26T06:51:00","FM-15","7",,"ESE","1.5","mi","TEMP, PRECIP, SNOW",,,"PSY, SRG, SNOWBOARD",,,"FAA CWO",,,,,,,,,,,,,,,,,,,,,,,,,,,"29.98","62","77","0.00",,"-0.01","2","60","29.98","FEW:02 95 FEW:02 150 SCT:04 250","29.96","10.00","68","290",,"9",,,,,,,,,,,,,,,,,,,,,,,,,,,,,,,,,,,,,"MET13006/26/20 06:51:02 METAR KJFK 261151Z 29008KT 10SM FEW095 FEW150 SCT250 25/17 A2998 RMK AO2 SLP152 T02500167 10250 20194 52005 (BH)","FM-15","7",,,,,,,,,,,,,,,,,,,,,,,,,,,,"2009-05-01"
"74486094789","2020-06-26T07:00:00","FM-12","4",,"ESE","1.5","mi","TEMP, PRECIP, SNOW",,,"PSY, SRG, SNOWBOARD",,,"FAA CWO",,,,,,,,,,,,,,,,,,,,,,,,,,,,"62","77",,,"-0.01","2","60","29.98",,"29.95","9.94","68","290",,"9",,,,,,,,,,,,,,,,,,,,,,,,,,,,,,,,,,,,,"SYN08074486 32966 42908 10250 20167 30141 40152 52005 91151 333 10294 20194 555 92612=","FM-12","4",,,,,,,,,,,,,,,,,,,,,,,,,,,,"2009-05-01"
"74486094789","2020-06-26T07:51:00","FM-15","7",,"ESE","1.5","mi","TEMP, PRECIP, SNOW",,,"PSY, SRG, SNOWBOARD",,,"FAA CWO",,,,,,,,,,,,,,,,,,,,,,,,,,,"29.98","56","78","0.00",,,,"47","29.98","FEW:02 95 FEW:02 150 BKN:07 250","29.96","10.00","65","300",,"11",,,,,,,,,,,,,,,,,,,,,,,,,,,,,,,,,,,,,"MET11206/26/20 07:51:02 METAR KJFK 261251Z 30010KT 10SM FEW095 FEW150 BKN250 26/13 A2998 RMK AO2 SLP153 T02560133 (BH)","FM-15","7",,,,,,,,,,,,,,,,,,,,,,,,,,,,"2009-05-01"
"74486094789","2020-06-26T08:51:00","FM-15","7",,"ESE","1.5","mi","TEMP, PRECIP, SNOW",,,"PSY, SRG, SNOWBOARD",,,"FAA CWO",,,,,,,,,,,,,,,,,,,,,,,,,,,"29.98","56","81","0.00",,,,"42","29.98","FEW:02 80 SCT:04 150 BKN:07 250","29.96","10.00","66","290",,"11",,,,,,,,,,,,,,,,,,,,,,,,,,,,,,,,,,,,,"MET11206/26/20 08:51:02 METAR KJFK 261351Z 29010KT 10SM FEW080 SCT150 BKN250 27/13 A2998 RMK AO2 SLP153 T02720133 (BH)","FM-15","7",,,,,,,,,,,,,,,,,,,,,,,,,,,,"2009-05-01"
"74486094789","2020-06-26T09:51:00","FM-15","7",,"ESE","1.5","mi","TEMP, PRECIP, SNOW",,,"PSY, SRG, SNOWBOARD",,,"FAA CWO",,,,,,,,,,,,,,,,,,,,,,,,,,,"29.97","54","82","0.00",,"+0.01","8","38","29.97","FEW:02 70 FEW:02 140 BKN:07 230","29.95","10.00","65","310",,"8",,,,,,,,,,,,,,,,,,,,,,,,,,,,,,,,,,,,,"MET11806/26/20 09:51:02 METAR KJFK 261451Z 31007KT 10SM FEW070 FEW140 BKN230 28/12 A2997 RMK AO2 SLP149 T02780122 58003 (BH)","FM-15","7",,,,,,,,,,,,,,,,,,,,,,,,,,,,"2009-05-01"
"74486094789","2020-06-26T10:00:00","FM-12","4",,"ESE","1.5","mi","TEMP, PRECIP, SNOW",,,"PSY, SRG, SNOWBOARD",,,"FAA CWO",,,,,,,,,,,,,,,,,,,,,,,,,,,,"54","82",,,"+0.01","8","38","29.97","74","29.94","9.94","65","310",,"8",,,,,,,,,,,,,,,,,,,,,,,,,,,,,,,,,,,,,"SYN06474486 32866 63107 10278 20122 30138 40149 58003 91451 555 92615=","FM-12","4",,,,,,,,,,,,,,,,,,,,,,,,,,,,"2009-05-01"
"74486094789","2020-06-26T10:51:00","FM-15","7",,"ESE","1.5","mi","TEMP, PRECIP, SNOW",,,"PSY, SRG, SNOWBOARD",,,"FAA CWO",,,,,,,,,,,,,,,,,,,,,,,,,,,"29.96","52","85","0.00",,,,"32","29.96","FEW:02 65 FEW:02 180 BKN:07 230","29.93","10.00","65","310","16","10",,,,,,,,,,,,,,,,,,,,,,,,,,,,,,,,,,,,,"MET11506/26/20 10:51:02 METAR KJFK 261551Z 31009G14KT 10SM FEW065 FEW180 BKN230 29/11 A2996 RMK AO2 SLP146 T02940111 (BH)","FM-15","7",,,,,,,,,,,,,,,,,,,,,,,,,,,,"2009-05-01"
"74486094789","2020-06-26T11:51:00","FM-15","7",,"ESE","1.5","mi","TEMP, PRECIP, SNOW",,,"PSY, SRG, SNOWBOARD",,,"FAA CWO",,,,,,,,,,,,,,,,,,,,,,,,,,,"29.96","58","83","0.00",,,,"43","29.95","FEW:02 65 FEW:02 100 SCT:04 180","29.93","10.00","67","200",,"14",,,,,,,,,,,,,,,,,,,,,,,,,,,,,,,,,,,,,"MET11206/26/20 11:51:02 METAR KJFK 261651Z 20012KT 10SM FEW065 FEW100 SCT180 28/14 A2996 RMK AO2 SLP143 T02830144 (BH)","FM-15","7",,,,,,,,,,,,,,,,,,,,,,,,,,,,"2009-05-01"
"74486094789","2020-06-26T12:51:00","FM-15","7",,"ESE","1.5","mi","TEMP, PRECIP, SNOW",,,"PSY, SRG, SNOWBOARD",,,"FAA CWO",,,,,,,,,,,,,,,,,,,,,,,,,,,"29.93","55","83","0.00",,"+0.04","8","38","29.93","SCT:04 70 SCT:04 250","29.91","10.00","66","200",,"14",,,,,,,,,,,,,,,,,,,,,,,,,,,,,,,,,,,,,"MET12306/26/20 12:51:02 METAR KJFK 261751Z 20012KT 10SM SCT070 SCT250 28/13 A2993 RMK AO2 SLP136 T02830128 10300 20250 58013 (BH)","FM-15","7",,,,,,,,,,,,,,,,,,,,,,,,,,,,"2009-05-01"
"74486094789","2020-06-26T13:00:00","FM-12","4",,"ESE","1.5","mi","TEMP, PRECIP, SNOW",,,"PSY, SRG, SNOWBOARD",,,"FAA CWO",,,,,,,,,,,,,,,,,,,,,,,,,,,,"55","83",,,"+0.04","8","38","29.93","74","29.90","9.94","66","200",,"14",,,,,,,,,,,,,,,,,,,,,,,,,,,,,,,,,,,,,"SYN08074486 32866 42012 10283 20128 30124 40136 58013 91751 333 10300 20233 555 92618=","FM-12","4",,,,,,,,,,,,,,,,,,,,,,,,,,,,"2009-05-01"
"74486094789","2020-06-26T13:51:00","FM-15","7",,"ESE","1.5","mi","TEMP, PRECIP, SNOW",,,"PSY, SRG, SNOWBOARD",,,"FAA CWO",,,,,,,,,,,,,,,,,,,,,,,,,,,"29.91","56","84","0.00",,,,"38","29.91","SCT:04 75 SCT:04 250","29.88","10.00","67","190",,"16",,,,,,,,,,,,,,,,,,,,,,,,,,,,,,,,,,,,,"MET10506/26/20 13:51:02 METAR KJFK 261851Z 19014KT 10SM SCT075 SCT250 29/13 A2991 RMK AO2 SLP130 T02890133 (RR)","FM-15","7",,,,,,,,,,,,,,,,,,,,,,,,,,,,"2009-05-01"
"74486094789","2020-06-26T14:51:00","FM-15","7",,"ESE","1.5","mi","TEMP, PRECIP, SNOW",,,"PSY, SRG, SNOWBOARD",,,"FAA CWO",,,,,,,,,,,,,,,,,,,,,,,,,,,"29.91","59","84","0.00",,,,"43","29.91","SCT:04 75 SCT:04 120 SCT:04 250","29.88","10.00","68","180",,"16",,,,,,,,,,,,,,,,,,,,,,,,,,,,,,,,,,,,,"MET11206/26/20 14:51:02 METAR KJFK 261951Z 18014KT 10SM SCT075 SCT120 SCT250 29/15 A2991 RMK AO2 SLP127 T02890150 (RR)","FM-15","7",,,,,,,,,,,,,,,,,,,,,,,,,,,,"2009-05-01"
"74486094789","2020-06-26T15:51:00","FM-15","7",,"ESE","1.5","mi","TEMP, PRECIP, SNOW",,,"PSY, SRG, SNOWBOARD",,,"FAA CWO",,,,,,,,,,,,,,,,,,,,,,,,,,,"29.90","62","80","0.00",,"+0.04","6","54","29.90","SCT:04 75 SCT:04 120 SCT:04 250","29.88","10.00","69","190",,"18",,,,,,,,,,,,,,,,,,,,,,,,,,,,,,,,,,,,,"MET11806/26/20 15:51:02 METAR KJFK 262051Z 19016KT 10SM SCT075 SCT120 SCT250 27/17 A2990 RMK AO2 SLP124 T02670167 56013 (RR)","FM-15","7",,,,,,,,,,,,,,,,,,,,,,,,,,,,"2009-05-01"
"74486094789","2020-06-26T16:00:00","FM-12","4",,"ESE","1.5","mi","TEMP, PRECIP, SNOW",,,"PSY, SRG, SNOWBOARD",,,"FAA CWO",,,,,,,,,,,,,,,,,,,,,,,,,,,,"62","80",,,"+0.04","6","54","29.90","74","29.87","9.94","69","190",,"18",,,,,,,,,,,,,,,,,,,,,,,,,,,,,,,,,,,,,"SYN06474486 32866 41916 10267 20167 30114 40124 56013 92051 555 92621=","FM-12","4",,,,,,,,,,,,,,,,,,,,,,,,,,,,"2009-05-01"
"74486094789","2020-06-26T16:51:00","FM-15","7",,"ESE","1.5","mi","TEMP, PRECIP, SNOW",,,"PSY, SRG, SNOWBOARD",,,"FAA CWO",,,,,,,,,,,,,,,,,,,,,,,,,,,"29.90","63","79","0.00",,,,"58","29.90","FEW:02 75 BKN:07 120","29.88","10.00","69","190",,"20",,,,,,,,,,,,,,,,,,,,,,,,,,,,,,,,,,,,,"MET10506/26/20 16:51:02 METAR KJFK 262151Z 19017KT 10SM FEW075 BKN120 26/17 A2990 RMK AO2 SLP126 T02610172 (RR)","FM-15","7",,,,,,,,,,,,,,,,,,,,,,,,,,,,"2009-05-01"
"74486094789","2020-06-26T17:51:00","FM-15","7",,"ESE","1.5","mi","TEMP, PRECIP, SNOW",,,"PSY, SRG, SNOWBOARD",,,"FAA CWO",,,,,,,,,,,,,,,,,,,,,,,,,,,"29.91","64","77","0.00",,,,"64","29.91","FEW:02 75 SCT:04 110","29.88","10.00","69","190",,"15",,,,,,,,,,,,,,,,,,,,,,,,,,,,,,,,,,,,,"MET10506/26/20 17:51:02 METAR KJFK 262251Z 19013KT 10SM FEW075 SCT110 25/18 A2991 RMK AO2 SLP127 T02500178 (RR)","FM-15","7",,,,,,,,,,,,,,,,,,,,,,,,,,,,"2009-05-01"
"74486094789","2020-06-26T18:51:00","FM-15","7",,"ESE","1.5","mi","TEMP, PRECIP, SNOW",,,"PSY, SRG, SNOWBOARD",,,"FAA CWO",,,,,,,,,,,,,,,,,,,,,,,,,,,"29.90","65","75","0.00",,"-0.01","0","71","29.90","FEW:02 75 BKN:07 130","29.88","10.00","69","190",,"11",,,,,,,,,,,,,,,,,,,,,,,,,,,,,,,,,,,,,"MET12306/26/20 18:51:02 METAR KJFK 262351Z 19010KT 10SM FEW075 BKN130 24/18 A2990 RMK AO2 SLP126 T02390183 10300 20239 50002 (RR)","FM-15","7",,,,,,,,,,,,,,,,,,,,,,,,,,,,"2009-05-01"
"74486094789","2020-06-26T19:00:00","FM-12","4",,"ESE","1.5","mi","TEMP, PRECIP, SNOW",,,"PSY, SRG, SNOWBOARD",,,"FAA CWO",,,,,,,,,,,,,,,,,,,,,,,,,,,,"65","75",,,"0.01","9","71","29.90","74","29.87","9.94","69","190",,"11",,,,,,,,,,,,,,,,,,,,,,,,,,,,,,,,,,,,,"SYN08074486 32866 61910 10239 20183 30114 40126 50002 92351 333 10300 20194 555 92700=","FM-12","4",,,,,,,,,,,,,,,,,,,,,,,,,,,,"2009-05-01"
"74486094789","2020-06-26T19:51:00","FM-15","7",,"ESE","1.5","mi","TEMP, PRECIP, SNOW",,,"PSY, SRG, SNOWBOARD",,,"FAA CWO",,,,,,,,,,,,,,,,,,,,,,,,,,,"29.91","54","81","0.00",,,,"39","29.91","FEW:02 75 BKN:07 110 BKN:07 250","29.88","10.00","65","260",,"13",,,,,,,,,,,,,,,,,,,,,,,,,,,,,,,,,,,,,"MET10706/26/20 19:51:01 METAR KJFK 270051Z 26011KT 10SM FEW075 BKN110 BKN250 27/12 A2991 RMK AO2 SLP128 T02720122","FM-15","7",,,,,,,,,,,,,,,,,,,,,,,,,,,,"2009-05-01"
"74486094789","2020-06-26T20:51:00","FM-15","7",,"ESE","1.5","mi","TEMP, PRECIP, SNOW",,,"PSY, SRG, SNOWBOARD",,,"FAA CWO",,,,,,,,,,,,,,,,,,,,,,,,,,,"29.91","55","79","0.00",,,,"44","29.91","FEW:02 110 BKN:07 250","29.88","10.00","65","270",,"10",,,,,,,,,,,,,,,,,,,,,,,,,,,,,,,,,,,,,"MET10006/26/20 20:51:01 METAR KJFK 270151Z 27009KT 10SM FEW110 BKN250 26/13 A2991 RMK AO2 SLP130 T02610128","FM-15","7",,,,,,,,,,,,,,,,,,,,,,,,,,,,"2009-05-01"
"74486094789","2020-06-26T21:51:00","FM-15","7",,"ESE","1.5","mi","TEMP, PRECIP, SNOW",,,"PSY, SRG, SNOWBOARD",,,"FAA CWO",,,,,,,,,,,,,,,,,,,,,,,,,,,"29.91","62","75","0.00",,"-0.01","0","64","29.91","FEW:02 250","29.88","10.00","67","240",,"10",,,,,,,,,,,,,,,,,,,,,,,,,,,,,,,,,,,,,"MET09906/26/20 21:51:01 METAR KJFK 270251Z 24009KT 10SM FEW250 24/17 A2991 RMK AO2 SLP129 T02390167 50003","FM-15","7",,,,,,,,,,,,,,,,,,,,,,,,,,,,"2009-05-01"
"74486094789","2020-06-26T22:00:00","FM-12","4",,"ESE","1.5","mi","TEMP, PRECIP, SNOW",,,"PSY, SRG, SNOWBOARD",,,"FAA CWO",,,,,,,,,,,,,,,,,,,,,,,,,,,,"62","75",,,"0.01","9","64","29.91",,"29.88","9.94","67","240",,"10",,,,,,,,,,,,,,,,,,,,,,,,,,,,,,,,,,,,,"SYN06474486 32966 22409 10239 20167 30117 40129 50003 90251 555 92703=","FM-12","4",,,,,,,,,,,,,,,,,,,,,,,,,,,,"2009-05-01"
"74486094789","2020-06-26T22:51:00","FM-15","7",,"ESE","1.5","mi","TEMP, PRECIP, SNOW",,,"PSY, SRG, SNOWBOARD",,,"FAA CWO",,,,,,,,,,,,,,,,,,,,,,,,,,,"29.91","62","72","0.00",,,,"71","29.91","SCT:04 250","29.88","10.00","66","230",,"6",,,,,,,,,,,,,,,,,,,,,,,,,,,,,,,,,,,,,"MET09306/26/20 22:51:02 METAR KJFK 270351Z 23005KT 10SM SCT250 22/17 A2991 RMK AO2 SLP127 T02220167","FM-15","7",,,,,,,,,,,,,,,,,,,,,,,,,,,,"2009-05-01"
"74486094789","2020-06-26T23:51:00","FM-15","7",,"ESE","1.5","mi","TEMP, PRECIP, SNOW",,,"PSY, SRG, SNOWBOARD",,,"FAA CWO",,,,,,,,,,,,,,,,,,,,,,,,,,,"29.90","61","73","0.00",,,,"66","29.90","SCT:04 250","29.88","10.00","66","240",,"9",,,,,,,,,,,,,,,,,,,,,,,,,,,,,,,,,,,,,"MET10306/26/20 23:51:02 METAR KJFK 270451Z 24008KT 10SM SCT250 23/16 A2990 RMK AO2 SLP124 T02280161 403000194","FM-15","7",,,,,,,,,,,,,,,,,,,,,,,,,,,,"2009-05-01"
"74486094789","2020-06-26T23:59:00","SOD  ","6",,"ESE","1.5","mi","TEMP, PRECIP, SNOW",,,"PSY, SRG, SNOWBOARD",,,"FAA CWO",,,,"60","77","57","29.94","29.92","67","11.0","12","3.5","0","86","67","190","27","0.00","0","0.0","190","24",,,,,,,,,,,,,,,,,,,,,,,,,,,,,,,,,,,,,,,,,,,,,,,,,,,,,,,,,"SOD73924 HR PRECIPITATION (IN): 0.00 SNOW DEPTH (IN):0     24 HR SNOWFALL (IN):0.0  24 HR MAX TEMP (F): 8624 HR MIN TEMP (F): 67AVERAGE STATION PRESSURE:29.920 MINIMUM SEA LEVEL PRESSURE:29.89 TIME OF OCCURRENCE:1615 PEAK WIND SPEED (MPH): 27 PEAK WIND DIR (DEG):190 PEAK WIND TIME (LST):      FASTEST 2MIN SPEED (MPH): 24FASTEST 2MIN DIR (DEG):190 FASTEST 2MIN TIME (LST):     AVERAGE WIND SPEED (MPH):11.0 24 HR AVG TEMP (F): 77DEPART FROM NORMAL:  3  HEATING DEGREE DAYS:  0 COOLING DEGREE DAYS: 12 LATEST DAY MAX TEMP (0700-1900 LST):86  LATEST NIGHT MIN TEMP(1900-0800 LST):67 HOURLY INCREMENTAL PRECIPITATION VALUES (IN):.00 0.00 0.00 0.00 0.00 0.00 0.00 0.00 0.00 0.00 0.00 0.00 0.00 0.00 0.00 0.00 0.00 0.00 0.00 0.00 0.00 0.00 0.00 0.00","SOD  ","6",,,,,,,,,,,,,,,,,,,,,,,,,"0426","1930",,"2009-05-01"
"74486094789","2020-06-27T00:51:00","FM-15","7",,"ESE","1.5","mi","TEMP, PRECIP, SNOW",,,"PSY, SRG, SNOWBOARD",,,"FAA CWO",,,,,,,,,,,,,,,,,,,,,,,,,,,"29.89","61","71","0.00",,"+0.02","8","71","29.89","SCT:04 250","29.87","10.00","65","210",,"3",,,,,,,,,,,,,,,,,,,,,,,,,,,,,,,,,,,,,"MET11606/27/20 00:51:02 METAR KJFK 270551Z 21003KT 10SM SCT250 22/16 A2989 RMK AO2 SLP121 T02170161 10272 20217 58008 (DM)","FM-15","7",,,,,,,,,,,,,,,,,,,,,,,,,,,,"2009-05-01"
"74486094789","2020-06-27T01:00:00","FM-12","4",,"ESE","1.5","mi","TEMP, PRECIP, SNOW",,,"PSY, SRG, SNOWBOARD",,,"FAA CWO",,,,,,,,,,,,,,,,,,,,,,,,,,,,"61","71",,,"+0.02","8","71","29.89",,"29.86","9.94","65","210",,"3",,,,,,,,,,,,,,,,,,,,,,,,,,,,,,,,,,,,,"SYN08074486 32966 42103 10217 20161 30111 40121 58008 90551 333 10272 20194 555 92706=","FM-12","4",,,,,,,,,,,,,,,,,,,,,,,,,,,,"2009-05-01"
"74486094789","2020-06-27T01:51:00","FM-15","7",,"ESE","1.5","mi","TEMP, PRECIP, SNOW",,,"PSY, SRG, SNOWBOARD",,,"FAA CWO",,,,,,,,,,,,,,,,,,,,,,,,,,,"29.89","61","70","0.00",,,,"73","29.88","BKN:07 250","29.87","10.00","65","200",,"8",,,,,,,,,,,,,,,,,,,,,,,,,,,,,,,,,,,,,"MET09806/27/20 01:51:02 METAR KJFK 270651Z 20007KT 10SM BKN250 21/16 A2989 RMK AO2 SLP120 T02110161 (DM)","FM-15","7",,,,,,,,,,,,,,,,,,,,,,,,,,,,"2009-05-01"
"74486094789","2020-06-27T02:51:00","FM-15","7",,"ESE","1.5","mi","TEMP, PRECIP, SNOW",,,"PSY, SRG, SNOWBOARD",,,"FAA CWO",,,,,,,,,,,,,,,,,,,,,,,,,,,"29.89","63","69","0.00",,,,"81","29.88","BKN:07 250","29.87","10.00","65","220",,"7",,,,,,,,,,,,,,,,,,,,,,,,,,,,,,,,,,,,,"MET09806/27/20 02:51:02 METAR KJFK 270751Z 22006KT 10SM BKN250 21/17 A2989 RMK AO2 SLP120 T02060172 (DM)","FM-15","7",,,,,,,,,,,,,,,,,,,,,,,,,,,,"2009-05-01"
"74486094789","2020-06-27T03:51:00","FM-15","7",,"ESE","1.5","mi","TEMP, PRECIP, SNOW",,,"PSY, SRG, SNOWBOARD",,,"FAA CWO",,,,,,,,,,,,,,,,,,,,,,,,,,,"29.88","64","69","0.00",,"+0.01","8","84","29.87","BKN:07 250","29.85","10.00","66","230",,"6",,,,,,,,,,,,,,,,,,,,,,,,,,,,,,,,,,,,,"MET10406/27/20 03:51:02 METAR KJFK 270851Z 23005KT 10SM BKN250 21/18 A2988 RMK AO2 SLP116 T02060178 58005 (DM)","FM-15","7",,,,,,,,,,,,,,,,,,,,,,,,,,,,"2009-05-01"
"74486094789","2020-06-27T04:00:00","FM-12","4",,"ESE","1.5","mi","TEMP, PRECIP, SNOW",,,"PSY, SRG, SNOWBOARD",,,"FAA CWO",,,,,,,,,,,,,,,,,,,,,,,,,,,,"64","69",,,"+0.01","8","84","29.87",,"29.85","9.94","66","230",,"6",,,,,,,,,,,,,,,,,,,,,,,,,,,,,,,,,,,,,"SYN06474486 32966 62305 10206 20178 30107 40116 58005 90851 555 92709=","FM-12","4",,,,,,,,,,,,,,,,,,,,,,,,,,,,"2009-05-01"
"74486094789","2020-06-27T04:51:00","FM-15","7",,"ESE","1.5","mi","TEMP, PRECIP, SNOW",,,"PSY, SRG, SNOWBOARD",,,"FAA CWO",,,,,,,,,,,,,,,,,,,,,,,,,,,"29.87","63","70","0.00",,,,"79","29.87","FEW:02 120 FEW:02 200 BKN:07 250","29.85","10.00","66","220",,"8",,,,,,,,,,,,,,,,,,,,,,,,,,,,,,,,,,,,,"MET11206/27/20 04:51:02 METAR KJFK 270951Z 22007KT 10SM FEW120 FEW200 BKN250 21/17 A2987 RMK AO2 SLP115 T02110172 (DM)","FM-15","7",,,,,,,,,,,,,,,,,,,,,,,,,,,,"2009-05-01"
"74486094789","2020-06-27T05:51:00","FM-15","7",,"ESE","1.5","mi","TEMP, PRECIP, SNOW",,,"PSY, SRG, SNOWBOARD",,,"FAA CWO",,,,,,,,,,,,,,,,,,,,,,,,,,,"29.86","65","72","0.00",,,,"79","29.86","SCT:04 120 SCT:04 200 BKN:07 250","29.83","10.00","68","000",,"0",,,,,,,,,,,,,,,,,,,,,,,,,,,,,,,,,,,,,"MET11206/27/20 05:51:02 METAR KJFK 271051Z 00000KT 10SM SCT120 SCT200 BKN250 22/18 A2986 RMK AO2 SLP112 T02220183 (RG)","FM-15","7",,,,,,,,,,,,,,,,,,,,,,,,,,,,"2009-05-01"
"74486094789","2020-06-27T06:51:00","FM-15","7",,"ESE","1.5","mi","TEMP, PRECIP, SNOW",,,"PSY, SRG, SNOWBOARD",,,"FAA CWO",,,,,,,,,,,,,,,,,,,,,,,,,,,"29.86","65","74","0.00",,"+0.02","7","74","29.85","FEW:02 120 BKN:07 200 BKN:07 250","29.83","10.00","68","210",,"7",,,,,,,,,,,,,,,,,,,,,,,,,,,,,,,,,,,,,"MET13006/27/20 06:51:02 METAR KJFK 271151Z 21006KT 10SM FEW120 BKN200 BKN250 23/18 A2986 RMK AO2 SLP110 T02330183 10239 20194 57006 (RG)","FM-15","7",,,,,,,,,,,,,,,,,,,,,,,,,,,,"2009-05-01"
"74486094789","2020-06-27T07:00:00","FM-12","4",,"ESE","1.5","mi","TEMP, PRECIP, SNOW",,,"PSY, SRG, SNOWBOARD",,,"FAA CWO",,,,,,,,,,,,,,,,,,,,,,,,,,,,"65","74",,,"+0.02","7","74","29.85",,"29.83","9.94","68","210",,"7",,,,,,,,,,,,,,,,,,,,,,,,,,,,,,,,,,,,,"SYN08074486 32966 62106 10233 20183 30100 40110 57006 91151 333 10300 20194 555 92712=","FM-12","4",,,,,,,,,,,,,,,,,,,,,,,,,,,,"2009-05-01"
"74486094789","2020-06-27T07:51:00","FM-15","7",,"ESE","1.5","mi","TEMP, PRECIP, SNOW",,,"PSY, SRG, SNOWBOARD",,,"FAA CWO",,,,,,,,,,,,,,,,,,,,,,,,,,,"29.86","65","73","0.00",,,,"76","29.85","BKN:07 110 BKN:07 200 BKN:07 250","29.83","10.00","68","210",,"8",,,,,,,,,,,,,,,,,,,,,,,,,,,,,,,,,,,,,"MET11206/27/20 07:51:02 METAR KJFK 271251Z 21007KT 10SM BKN110 BKN200 BKN250 23/18 A2986 RMK AO2 SLP110 T02280183 (RG)","FM-15","7",,,,,,,,,,,,,,,,,,,,,,,,,,,,"2009-05-01"
"74486094789","2020-06-27T08:51:00","FM-15","7",,"ESE","1.5","mi","TEMP, PRECIP, SNOW",,,"PSY, SRG, SNOWBOARD",,,"FAA CWO",,,,,,,,,,,,,,,,,,,,,,,,,,,"29.83","64","75","0.00",,,,"69","29.83","SCT:04 95 BKN:07 150","29.80","10.00","68","220",,"8",,,,,,,,,,,,,,,,,,,,,,,,,,,,,,,,,,,,,"MET10506/27/20 08:51:02 METAR KJFK 271351Z 22007KT 10SM SCT095 BKN150 24/18 A2983 RMK AO2 SLP102 T02390178 (RG)","FM-15","7",,,,,,,,,,,,,,,,,,,,,,,,,,,,"2009-05-01"
"74486094789","2020-06-27T09:51:00","FM-15","7",,"ESE","1.5","mi","TEMP, PRECIP, SNOW",,,"PSY, SRG, SNOWBOARD",,,"FAA CWO",,,,,,,,,,,,,,,,,,,,,,,,,,,"29.81","65","75","0.00",,"+0.04","8","71","29.81","OVC:08 110","29.78","10.00","69","170",,"7",,,,,,,,,,,,,,,,,,,,,,,,,,,,,,,,,,,,,"MET10406/27/20 09:51:02 METAR KJFK 271451Z 17006KT 10SM OVC110 24/18 A2981 RMK AO2 SLP095 T02390183 58015 (RG)","FM-15","7",,,,,,,,,,,,,,,,,,,,,,,,,,,,"2009-05-01"
"74486094789","2020-06-27T10:00:00","FM-12","4",,"ESE","1.5","mi","TEMP, PRECIP, SNOW",,,"PSY, SRG, SNOWBOARD",,,"FAA CWO",,,,,,,,,,,,,,,,,,,,,,,,,,,,"65","75",,,"+0.04","8","71","29.81",,"29.78","9.94","69","170",,"7",,,,,,,,,,,,,,,,,,,,,,,,,,,,,,,,,,,,,"SYN06474486 32966 81706 10239 20183 30084 40095 58015 91451 555 92715=","FM-12","4",,,,,,,,,,,,,,,,,,,,,,,,,,,,"2009-05-01"
"74486094789","2020-06-27T10:51:00","FM-15","7",,"ESE","1.5","mi","TEMP, PRECIP, SNOW",,,"PSY, SRG, SNOWBOARD",,,"FAA CWO",,,,,,,,,,,,,,,,,,,,,,,,,,,"29.80","66","75","0.00",,,,"74","29.80","OVC:08 100","29.78","10.00","69","190",,"10",,,,,,,,,,,,,,,,,,,,,,,,,,,,,,,,,,,,,"MET09806/27/20 10:51:02 METAR KJFK 271551Z 19009KT 10SM OVC100 24/19 A2980 RMK AO2 SLP091 T02390189 (RG)","FM-15","7",,,,,,,,,,,,,,,,,,,,,,,,,,,,"2009-05-01"
"74486094789","2020-06-27T11:51:00","FM-15","7",,"ESE","1.5","mi","TEMP, PRECIP, SNOW",,,"PSY, SRG, SNOWBOARD",,,"FAA CWO",,,,,,,,,,,,,,,,,,,,,,,,,,,"29.77","67","79","T","-RA:02 |RA |RA",,,"67","29.77","FEW:02 100 OVC:08 130","29.75","10.00","71","220",,"8",,,,,,,,,,,,,,,,,,,,,,,,,,,,,,,,,,,,,"MET12106/27/20 11:51:02 METAR KJFK 271651Z 22007KT 10SM -RA FEW100 OVC130 26/19 A2977 RMK AO2 RAB49 SLP082 P0000 T02610194 (RG)","FM-15","7",,,,,,,,,,,,,,,,,,,,,,,,,,,,"2009-05-01"
"74486094789","2020-06-27T12:51:00","FM-15","7",,"ESE","1.5","mi","TEMP, PRECIP, SNOW",,,"PSY, SRG, SNOWBOARD",,,"FAA CWO",,,,,,,,,,,,,,,,,,,,,,,,,,,"29.75","69","77","T","-RA:02 |RA |RA","+0.06","8","77","29.75","FEW:02 25 SCT:04 100 OVC:08 120","29.72","10.00","72","190",,"13",,,,,,,,,,,,,,,,,,,,,,,,,,,,,,,,,,,,,"MET15506/27/20 12:51:02 METAR KJFK 271751Z 19011KT 10SM -RA FEW025 SCT100 OVC120 25/21 A2975 RMK AO2 RAE16B39 SLP074 P0000 60000 T02500206 10261 20228 58021 (RG)","FM-15","7",,,,,,,,,,,,,,,,,,,,,,,,,,,,"2009-05-01"
"74486094789","2020-06-27T13:00:00","FM-12","4",,"ESE","1.5","mi","TEMP, PRECIP, SNOW",,,"PSY, SRG, SNOWBOARD",,,"FAA CWO",,,,,,,,,,,,,,,,,,,,,,,,,,,,"69","77",,"||RA","+0.06","8","77","29.75","26","29.72","9.94","72","190",,"13",,,,,,,,,,,,,,,,,,,,,,,,,,,,,,,,,,,,,"SYN09274486 11566 81911 10250 20206 30063 40074 58021 69901 761// 91751 333 10261 20228 555 92718=","FM-12","4",,,,,,,,,,,,,,,,,,,,,,,,,,,,"2009-05-01"
"74486094789","2020-06-27T13:51:00","FM-15","7",,"ESE","1.5","mi","TEMP, PRECIP, SNOW",,,"PSY, SRG, SNOWBOARD",,,"FAA CWO",,,,,,,,,,,,,,,,,,,,,,,,,,,"29.72","69","78","T","-RA:02 |RA |RA",,,"74","29.72","SCT:04 39 BKN:07 60 OVC:08 85","29.70","10.00","72","180",,"14",,,,,,,,,,,,,,,,,,,,,,,,,,,,,,,,,,,,,"MET13306/27/20 13:51:02 METAR KJFK 271851Z 18012KT 10SM -RA SCT039 BKN060 OVC085 26/21 A2972 RMK AO2 RAE1752B51 SLP063 P0000 T02560206 (BH)","FM-15","7",,,,,,,,,,,,,,,,,,,,,,,,,,,,"2009-05-01"
"74486094789","2020-06-27T14:11:00","FM-16","7",,"ESE","1.5","mi","TEMP, PRECIP, SNOW",,,"PSY, SRG, SNOWBOARD",,,"FAA CWO",,,,,,,,,,,,,,,,,,,,,,,,,,,"29.73","70","74","0.03","+RA:02 BR:1 |RA |RA",,,"88",,"BKN:07 35 BKN:07 45 OVC:08 55","29.70","1.00","71","230",,"13",,,,,,,,,,,,,,,,,,,,,,,,,,,,,,,,,,,,,"MET14506/27/20 14:11:02 SPECI KJFK 271911Z 23011KT 1SM R04R/2400VP6000FT +RA BR BKN035 BKN045 OVC055 23/21 A2973 RMK AO2 SFC VIS 3 P0003 T02330211 (BH)","FM-16","7",,,,,,,,,,,,,,,,,,,,,,,,,,,,"2009-05-01"
"74486094789","2020-06-27T14:17:00","FM-16","7",,"ESE","1.5","mi","TEMP, PRECIP, SNOW",,,"PSY, SRG, SNOWBOARD",,,"FAA CWO",,,,,,,,,,,,,,,,,,,,,,,,,,,"29.72","71","73","0.18","-RA:02 BR:1 |RA |RA",,,"94",,"SCT:04 28 BKN:07 35 OVC:08 90","29.70","6.00","72","230",,"14",,,,,,,,,,,,,,,,,,,,,,,,,,,,,,,,,,,,,"MET14906/27/20 14:17:02 SPECI KJFK 271917Z 23012KT 6SM R04R/2400VP6000FT -RA BR SCT028 BKN035 OVC090 23/22 A2972 RMK AO2 VIS LWR NE-SE P0018 T02280217 (BH)","FM-16","7",,,,,,,,,,,,,,,,,,,,,,,,,,,,"2009-05-01"
"74486094789","2020-06-27T14:51:00","FM-15","7",,"ESE","1.5","mi","TEMP, PRECIP, SNOW",,,"PSY, SRG, SNOWBOARD",,,"FAA CWO",,,,,,,,,,,,,,,,,,,,,,,,,,,"29.72","72","76","0.21","|RA |RA",,,"88","29.71","FEW:02 24 SCT:04 38 BKN:07 65","29.70","7.00","73","260",,"10",,,,,,,,,,,,,,,,,,,,,,,,,,,,,,,,,,,,,"MET12106/27/20 14:51:02 METAR KJFK 271951Z 26009KT 7SM -RA FEW024 SCT038 BKN065 24/22 A2972 RMK AO2 SLP062 P0021 T02440222 (BH)","FM-15","7",,,,,,,,,,,,,,,,,,,,,,,,,,,,"2009-05-01"
"74486094789","2020-06-27T15:42:00","FM-16","7",,"ESE","1.5","mi","TEMP, PRECIP, SNOW",,,"PSY, SRG, SNOWBOARD",,,"FAA CWO",,,,,,,,,,,,,,,,,,,,,,,,,,,"29.72","73","76","0.03","-TS:7 RA:02 BR:1 |TS |RA",,,"91",,"FEW:02 17 BKN:07 35 BKN:07 70","29.70","5.00","74","290",,"11",,,,,,,,,,,,,,,,,,,,,,,,,,,,,,,,,,,,,"MET19006/27/20 15:42:02 SPECI KJFK 272042Z 29010KT 5SM -TSRA BR FEW017 BKN035CB BKN0 24/23 A2972 RMK AO2 LTG DSNT SW AND W TSB41 VIS SE-SW 2 OCNL LTGICCG OHD-S TS OHD-S MOV SE P0003 T02440228 (BH)","FM-16","7",,,,,,,,,,,,,,,,,,,,,,,,,,,,"2009-05-01"
"74486094789","2020-06-27T15:51:00","FM-15","7",,"ESE","1.5","mi","TEMP, PRECIP, SNOW",,,"PSY, SRG, SNOWBOARD",,,"FAA CWO",,,,,,,,,,,,,,,,,,,,,,,,,,,"29.71","72","75","0.04","-TS:7 RA:02 |TS |RA","+0.04","6","90","29.71","FEW:02 14 BKN:07 31 BKN:07 70","29.69","7.00","73","250","22","14",,,,,,,,,,,,,,,,,,,,,,,,,,,,,,,,,,,,,"MET20706/27/20 15:51:02 METAR KJFK 272051Z 25012G19KT 7SM R04R/3500VP6000FT -TSRA FEW014 BKN031CB BKN0 24/22 A2971 RMK AO2 LTG DSNT SW TSB41 SLP060 OCNL LTGICCG NE-S TS NE-S MOV SE P0004 60025 T02390222 56014 (BH)","FM-15","7",,,,,,,,,,,,,,,,,,,,,,,,,,,,"2009-05-01"
"74486094789","2020-06-27T16:00:00","FM-12","4",,"ESE","1.5","mi","TEMP, PRECIP, SNOW",,,"PSY, SRG, SNOWBOARD",,,"FAA CWO",,,,,,,,,,,,,,,,,,,,,,,,,,,,"72","75",,,"+0.04","6","90","29.71","15","29.68","6.84","73","250",,"14",,,,,,,,,,,,,,,,,,,,,,,,,,,,,,,,,,,,,"SYN08074486 11461 82512 10239 20222 30050 40060 56014 60067 92051 333 91019 555 92721=","FM-12","4",,,,,,,,,,,,,,,,,,,,,,,,,,,,"2009-05-01"
"74486094789","2020-06-27T16:01:00","FM-16","7",,"ESE","1.5","mi","TEMP, PRECIP, SNOW",,,"PSY, SRG, SNOWBOARD",,,"FAA CWO",,,,,,,,,,,,,,,,,,,,,,,,,,,"29.71","71","74","T",,,,"91",,"FEW:02 14 SCT:04 42","29.69","10.00","72","240",,"11",,,,,,,,,,,,,,,,,,,,,,,,,,,,,,,,,,,,,"MET14906/27/20 16:01:02 SPECI KJFK 272101Z 24010KT 10SM FEW014 SCT042CB BKN1 23/22 A2971 RMK AO2 RAE2057 TSE01 CB SE-S MOV S VCSH E-SW P0000 T02330217 (BH)","FM-16","7",,,,,,,,,,,,,,,,,,,,,,,,,,,,"2009-05-01"
"74486094789","2020-06-27T16:51:00","FM-15","7",,"ESE","1.5","mi","TEMP, PRECIP, SNOW",,,"PSY, SRG, SNOWBOARD",,,"FAA CWO",,,,,,,,,,,,,,,,,,,,,,,,,,,"29.69","73","79","0.00",,,,"82","29.69","FEW:02 45 SCT:04 120 BKN:07 210","29.67","10.00","75","250",,"17",,,,,,,,,,,,,,,,,,,,,,,,,,,,,,,,,,,,,"MET17606/27/20 16:51:02 METAR KJFK 272151Z 25015KT 10SM FEW045 SCT120 BKN210 26/23 A2969 RMK AO2 RAE2057 TSE01 SLP055 CB DSNT SE-S MOV SE TCU DSNT NE AND DSNT NW P0000 T02610228 (BH)","FM-15","7",,,,,,,,,,,,,,,,,,,,,,,,,,,,"2009-05-01"
"74486094789","2020-06-27T17:51:00","FM-15","7",,"ESE","1.5","mi","TEMP, PRECIP, SNOW",,,"PSY, SRG, SNOWBOARD",,,"FAA CWO",,,,,,,,,,,,,,,,,,,,,,,,,,,"29.71","70","80","0.00",,,,"71","29.71","FEW:02 45 BKN:07 75 BKN:07 120","29.69","10.00","73","280",,"11",,,,,,,,,,,,,,,,,,,,,,,,,,,,,,,,,,,,,"MET14706/27/20 17:51:02 METAR KJFK 272251Z 28010KT 10SM FEW045 BKN075 BKN120 27/21 A2971 RMK AO2 SLP061 CB DSNT SW MOV SE TCU NE VCSH N-NE T02670211 (BH)","FM-15","7",,,,,,,,,,,,,,,,,,,,,,,,,,,,"2009-05-01"
"74486094789","2020-06-27T18:51:00","FM-15","7",,"ESE","1.5","mi","TEMP, PRECIP, SNOW",,,"PSY, SRG, SNOWBOARD",,,"FAA CWO",,,,,,,,,,,,,,,,,,,,,,,,,,,"29.72","71","77","0.00",,"-0.01","3","82","29.72","FEW:02 32 FEW:02 45 SCT:04 75","29.70","10.00","73","250",,"9",,,,,,,,,,,,,,,,,,,,,,,,,,,,,,,,,,,,,"MET15306/27/20 18:51:02 METAR KJFK 272351Z 25008KT 10SM FEW032 FEW045 SCT075 25/22 A2972 RMK AO2 SLP065 CB DSNT S MOV SE 60025 T02500217 10267 20228 53005 (BH)","FM-15","7",,,,,,,,,,,,,,,,,,,,,,,,,,,,"2009-05-01"
"74486094789","2020-06-27T19:00:00","FM-12","4",,"ESE","1.5","mi","TEMP, PRECIP, SNOW",,,"PSY, SRG, SNOWBOARD",,,"FAA CWO",,,,,,,,,,,,,,,,,,,,,,,,,,,,"71","77",,,"-0.01","3","82","29.72","26","29.69","9.94","73","250",,"9",,,,,,,,,,,,,,,,,,,,,,,,,,,,,,,,,,,,,"SYN08674486 12566 62508 10250 20217 30053 40065 53005 60061 92351 333 10267 20194 555 92800=","FM-12","4",,,,,,,,,,,,,,,,,,,,,,,,,,,,"2009-05-01"
"74486094789","2020-06-27T19:51:00","FM-15","7",,"ESE","1.5","mi","TEMP, PRECIP, SNOW",,,"PSY, SRG, SNOWBOARD",,,"FAA CWO",,,,,,,,,,,,,,,,,,,,,,,,,,,"29.73","70","74","0.00",,,,"88","29.73","FEW:02 45 SCT:04 70 SCT:04 170","29.70","10.00","71","220",,"9",,,,,,,,,,,,,,,,,,,,,,,,,,,,,,,,,,,,,"MET14306/27/20 19:51:01 METAR KJFK 280051Z 22008KT 10SM FEW045 SCT070 SCT170 23/21 A2973 RMK AO2 SLP068 FRQ LTGIC DSNT SW CB DSNT SW MOV SE T02330211","FM-15","7",,,,,,,,,,,,,,,,,,,,,,,,,,,,"2009-05-01"
"74486094789","2020-06-27T20:51:00","FM-15","7",,"ESE","1.5","mi","TEMP, PRECIP, SNOW",,,"PSY, SRG, SNOWBOARD",,,"FAA CWO",,,,,,,,,,,,,,,,,,,,,,,,,,,"29.75","70","74","0.00",,,,"88","29.75","FEW:02 45 FEW:02 95 SCT:04 170","29.72","10.00","71","240",,"9",,,,,,,,,,,,,,,,,,,,,,,,,,,,,,,,,,,,,"MET14306/27/20 20:51:01 METAR KJFK 280151Z 24008KT 10SM FEW045 FEW095 SCT170 23/21 A2975 RMK AO2 SLP074 FRQ LTGICCC DSNT S CB DSNT S MOV SE T02330211","FM-15","7",,,,,,,,,,,,,,,,,,,,,,,,,,,,"2009-05-01"
"74486094789","2020-06-27T21:51:00","FM-15","7",,"ESE","1.5","mi","TEMP, PRECIP, SNOW",,,"PSY, SRG, SNOWBOARD",,,"FAA CWO",,,,,,,,,,,,,,,,,,,,,,,,,,,"29.76","71","73","0.00",,"-0.04","2","94","29.76","FEW:02 45 FEW:02 100 BKN:07 200","29.74","10.00","72","180",,"3",,,,,,,,,,,,,,,,,,,,,,,,,,,,,,,,,,,,,"MET11306/27/20 21:51:01 METAR KJFK 280251Z 18003KT 10SM FEW045 FEW100 BKN200 23/22 A2976 RMK AO2 SLP077 T02280217 52013","FM-15","7",,,,,,,,,,,,,,,,,,,,,,,,,,,,"2009-05-01"
"74486094789","2020-06-27T22:00:00","FM-12","4",,"ESE","1.5","mi","TEMP, PRECIP, SNOW",,,"PSY, SRG, SNOWBOARD",,,"FAA CWO",,,,,,,,,,,,,,,,,,,,,,,,,,,,"71","73",,,"-0.04","2","94","29.76","41","29.73","9.94","72","180",,"3",,,,,,,,,,,,,,,,,,,,,,,,,,,,,,,,,,,,,"SYN06474486 32666 61803 10228 20217 30067 40077 52013 90251 555 92803=","FM-12","4",,,,,,,,,,,,,,,,,,,,,,,,,,,,"2009-05-01"
"74486094789","2020-06-27T22:51:00","FM-15","7",,"ESE","1.5","mi","TEMP, PRECIP, SNOW",,,"PSY, SRG, SNOWBOARD",,,"FAA CWO",,,,,,,,,,,,,,,,,,,,,,,,,,,"29.76","70","72","0.00",,,,"94","29.75","FEW:02 40 FEW:02 95 BKN:07 200","29.74","10.00","71","160",,"3",,,,,,,,,,,,,,,,,,,,,,,,,,,,,,,,,,,,,"MET10706/27/20 22:51:02 METAR KJFK 280351Z 16003KT 10SM FEW040 FEW095 BKN200 22/21 A2976 RMK AO2 SLP076 T02220211","FM-15","7",,,,,,,,,,,,,,,,,,,,,,,,,,,,"2009-05-01"
"74486094789","2020-06-27T23:51:00","FM-15","7",,"ESE","1.5","mi","TEMP, PRECIP, SNOW",,,"PSY, SRG, SNOWBOARD",,,"FAA CWO",,,,,,,,,,,,,,,,,,,,,,,,,,,"29.74","70","71","0.00",,,,"96","29.74","FEW:02 40 BKN:07 200 BKN:07 250","29.72","10.00","70","200",,"7",,,,,,,,,,,,,,,,,,,,,,,,,,,,,,,,,,,,,"MET11706/27/20 23:51:02 METAR KJFK 280451Z 20006KT 10SM FEW040 BKN200 BKN250 22/21 A2974 RMK AO2 SLP071 T02170211 402670194","FM-15","7",,,,,,,,,,,,,,,,,,,,,,,,,,,,"2009-05-01"
"74486094789","2020-06-27T23:59:00","SOD  ","6",,"ESE","1.5","mi","TEMP, PRECIP, SNOW",,,"PSY, SRG, SNOWBOARD",,,"FAA CWO",,,,"67","74","80","29.79","29.78","70","8.4","9","0.3","0","80","67","240","22","0.25","0","0.0","240","18","TS RA BR",,,,,,,,,,,,,,,,,,,,,,,,,,,,,,,,,,,,,,,,,,,,,,,,,,,,,,,,"SOD75724 HR PRECIPITATION (IN): 0.25 SNOW DEPTH (IN):0     24 HR SNOWFALL (IN):0.0  WEATHER(CODE):13  24 HR MAX TEMP (F): 8024 HR MIN TEMP (F): 67AVERAGE STATION PRESSURE:29.775 MINIMUM SEA LEVEL PRESSURE:29.69 TIME OF OCCURRENCE:1717 PEAK WIND SPEED (MPH): 22 PEAK WIND DIR (DEG):240 PEAK WIND TIME (LST):      FASTEST 2MIN SPEED (MPH): 18FASTEST 2MIN DIR (DEG):240 FASTEST 2MIN TIME (LST):     AVERAGE WIND SPEED (MPH): 8.4 24 HR AVG TEMP (F): 74DEPART FROM NORMAL:  0  HEATING DEGREE DAYS:  0 COOLING DEGREE DAYS:  9 LATEST DAY MAX TEMP (0700-1900 LST):80  LATEST NIGHT MIN TEMP(1900-0800 LST):67 HOURLY INCREMENTAL PRECIPITATION VALUES (IN):.00 0.00 0.00 0.00 0.00 0.00 0.00 0.00 0.00 0.00 0.00 T    T    T    0.21 0.04 0.00 0.00 0.00 0.00 0.00 0.00 0.00 0.00","SOD  ","6",,,,,,,,,,,,,,,,,,,,,,,,,"0426","1930",,"2009-05-01"
"74486094789","2020-06-28T00:51:00","FM-15","7",,"ESE","1.5","mi","TEMP, PRECIP, SNOW",,,"PSY, SRG, SNOWBOARD",,,"FAA CWO",,,,,,,,,,,,,,,,,,,,,,,,,,,"29.74","70","72","0.00",,"+0.02","6","94","29.74","FEW:02 90 FEW:02 200 FEW:02 250","29.72","10.00","71","230",,"6",,,,,,,,,,,,,,,,,,,,,,,,,,,,,,,,,,,,,"MET13006/28/20 00:51:02 METAR KJFK 280551Z 23005KT 10SM FEW090 FEW200 FEW250 22/21 A2974 RMK AO2 SLP070 T02220211 10256 20217 56007 (DM)","FM-15","7",,,,,,,,,,,,,,,,,,,,,,,,,,,,"2009-05-01"
"74486094789","2020-06-28T01:00:00","FM-12","4",,"ESE","1.5","mi","TEMP, PRECIP, SNOW",,,"PSY, SRG, SNOWBOARD",,,"FAA CWO",,,,,,,,,,,,,,,,,,,,,,,,,,,,"70","72",,,"+0.02","6","94","29.74",,"29.71","9.94","71","230",,"6",,,,,,,,,,,,,,,,,,,,,,,,,,,,,,,,,,,,,"SYN08074486 32966 22305 10222 20211 30060 40070 56007 90551 333 10256 20194 555 92806=","FM-12","4",,,,,,,,,,,,,,,,,,,,,,,,,,,,"2009-05-01"
"74486094789","2020-06-28T01:51:00","FM-15","7",,"ESE","1.5","mi","TEMP, PRECIP, SNOW",,,"PSY, SRG, SNOWBOARD",,,"FAA CWO",,,,,,,,,,,,,,,,,,,,,,,,,,,"29.73","70","72","0.00",,,,"94","29.73","FEW:02 120 FEW:02 150 SCT:04 250","29.70","10.00","71","240",,"5",,,,,,,,,,,,,,,,,,,,,,,,,,,,,,,,,,,,,"MET11206/28/20 01:51:02 METAR KJFK 280651Z 24004KT 10SM FEW120 FEW150 SCT250 22/21 A2973 RMK AO2 SLP068 T02220211 (DM)","FM-15","7",,,,,,,,,,,,,,,,,,,,,,,,,,,,"2009-05-01"
"74486094789","2020-06-28T02:51:00","FM-15","7",,"ESE","1.5","mi","TEMP, PRECIP, SNOW",,,"PSY, SRG, SNOWBOARD",,,"FAA CWO",,,,,,,,,,,,,,,,,,,,,,,,,,,"29.73","69","71","0.00",,,,"94","29.72","FEW:02 120 FEW:02 150 SCT:04 250","29.70","10.00","70","210",,"6",,,,,,,,,,,,,,,,,,,,,,,,,,,,,,,,,,,,,"MET11206/28/20 02:51:02 METAR KJFK 280751Z 21005KT 10SM FEW120 FEW150 SCT250 22/21 A2973 RMK AO2 SLP066 T02170206 (DM)","FM-15","7",,,,,,,,,,,,,,,,,,,,,,,,,,,,"2009-05-01"
"74486094789","2020-06-28T03:51:00","FM-15","7",,"ESE","1.5","mi","TEMP, PRECIP, SNOW",,,"PSY, SRG, SNOWBOARD",,,"FAA CWO",,,,,,,,,,,,,,,,,,,,,,,,,,,"29.74","70","72","0.00",,"+0.00","5","94","29.73","FEW:02 120 BKN:07 150","29.72","10.00","71","260",,"5",,,,,,,,,,,,,,,,,,,,,,,,,,,,,,,,,,,,,"MET11106/28/20 03:51:02 METAR KJFK 280851Z 26004KT 10SM FEW120 BKN150 22/21 A2974 RMK AO2 SLP069 T02220211 55001 (DM)","FM-15","7",,,,,,,,,,,,,,,,,,,,,,,,,,,,"2009-05-01"
"74486094789","2020-06-28T04:00:00","FM-12","4",,"ESE","1.5","mi","TEMP, PRECIP, SNOW",,,"PSY, SRG, SNOWBOARD",,,"FAA CWO",,,,,,,,,,,,,,,,,,,,,,,,,,,,"70","72",,,"+0.00","5","94","29.73",,"29.71","9.94","71","260",,"5",,,,,,,,,,,,,,,,,,,,,,,,,,,,,,,,,,,,,"SYN06474486 32966 62604 10222 20211 30060 40069 55001 90851 555 92809=","FM-12","4",,,,,,,,,,,,,,,,,,,,,,,,,,,,"2009-05-01"
"74486094789","2020-06-28T04:51:00","FM-15","7",,"ESE","1.5","mi","TEMP, PRECIP, SNOW",,,"PSY, SRG, SNOWBOARD",,,"FAA CWO",,,,,,,,,,,,,,,,,,,,,,,,,,,"29.75","70","72","0.00",,,,"94","29.74","FEW:02 85 BKN:07 110 BKN:07 150","29.72","9.00","71","200",,"5",,,,,,,,,,,,,,,,,,,,,,,,,,,,,,,,,,,,,"MET11106/28/20 04:51:02 METAR KJFK 280951Z 20004KT 9SM FEW085 BKN110 BKN150 22/21 A2975 RMK AO2 SLP072 T02220211 (DM)","FM-15","7",,,,,,,,,,,,,,,,,,,,,,,,,,,,"2009-05-01"
"74486094789","2020-06-28T05:51:00","FM-15","7",,"ESE","1.5","mi","TEMP, PRECIP, SNOW",,,"PSY, SRG, SNOWBOARD",,,"FAA CWO",,,,,,,,,,,,,,,,,,,,,,,,,,,"29.76","71","74","0.00",,,,"91","29.75","FEW:02 80 SCT:04 110 SCT:04 250","29.74","9.00","72","220",,"6",,,,,,,,,,,,,,,,,,,,,,,,,,,,,,,,,,,,,"MET11106/28/20 05:51:02 METAR KJFK 281051Z 22005KT 9SM FEW080 SCT110 SCT250 23/22 A2976 RMK AO2 SLP076 T02330217 (ML)","FM-15","7",,,,,,,,,,,,,,,,,,,,,,,,,,,,"2009-05-01"
"74486094789","2020-06-28T06:51:00","FM-15","7",,"ESE","1.5","mi","TEMP, PRECIP, SNOW",,,"PSY, SRG, SNOWBOARD",,,"FAA CWO",,,,,,,,,,,,,,,,,,,,,,,,,,,"29.76","70","76","0.00",,"-0.02","1","82","29.76","FEW:02 80 SCT:04 110 SCT:04 250","29.74","10.00","72","230",,"6",,,,,,,,,,,,,,,,,,,,,,,,,,,,,,,,,,,,,"MET13606/28/20 06:51:02 METAR KJFK 281151Z 23005KT 10SM FEW080 SCT110 SCT250 24/21 A2976 RMK AO2 SLP077 70025 T02440211 10244 20217 51008 (ML)","FM-15","7",,,,,,,,,,,,,,,,,,,,,,,,,,,,"2009-05-01"
"74486094789","2020-06-28T07:00:00","FM-12","4",,"ESE","1.5","mi","TEMP, PRECIP, SNOW",,,"PSY, SRG, SNOWBOARD",,,"FAA CWO",,,,,,,,,,,,,,,,,,,,,,,,,,,,"70","76",,,"-0.02","1","82","29.76","74","29.73","9.94","72","230",,"6",,,,,,,,,,,,,,,,,,,,,,,,,,,,,,,,,,,,,"SYN08674486 32866 42305 10244 20211 30067 40077 51008 91151 333 10267 20217 70064 555 92812=","FM-12","4",,,,,,,,,,,,,,,,,,,,,,,,,,,,"2009-05-01"
"74486094789","2020-06-28T07:51:00","FM-15","7",,"ESE","1.5","mi","TEMP, PRECIP, SNOW",,,"PSY, SRG, SNOWBOARD",,,"FAA CWO",,,,,,,,,,,,,,,,,,,,,,,,,,,"29.76","70","78","0.00",,,,"76","29.76","FEW:02 80 FEW:02 110 SCT:04 250","29.74","10.00","73","190",,"5",,,,,,,,,,,,,,,,,,,,,,,,,,,,,,,,,,,,,"MET11206/28/20 07:51:02 METAR KJFK 281251Z 19004KT 10SM FEW080 FEW110 SCT250 26/21 A2976 RMK AO2 SLP079 T02560211 (ML)","FM-15","7",,,,,,,,,,,,,,,,,,,,,,,,,,,,"2009-05-01"
"74486094789","2020-06-28T08:51:00","FM-15","7",,"ESE","1.5","mi","TEMP, PRECIP, SNOW",,,"PSY, SRG, SNOWBOARD",,,"FAA CWO",,,,,,,,,,,,,,,,,,,,,,,,,,,"29.76","70","81","0.00",,,,"69","29.76","FEW:02 40 SCT:04 110 BKN:07 250","29.74","10.00","74","160",,"5",,,,,,,,,,,,,,,,,,,,,,,,,,,,,,,,,,,,,"MET11206/28/20 08:51:02 METAR KJFK 281351Z 16004KT 10SM FEW040 SCT110 BKN250 27/21 A2976 RMK AO2 SLP078 T02720211 (ML)","FM-15","7",,,,,,,,,,,,,,,,,,,,,,,,,,,,"2009-05-01"
"74486094789","2020-06-28T09:51:00","FM-15","7",,"ESE","1.5","mi","TEMP, PRECIP, SNOW",,,"PSY, SRG, SNOWBOARD",,,"FAA CWO",,,,,,,,,,,,,,,,,,,,,,,,,,,"29.76","70","82","0.00",,"-0.00","1","67","29.76","SCT:04 40 SCT:04 110 SCT:04 250","29.74","10.00","74","190",,"9",,,,,,,,,,,,,,,,,,,,,,,,,,,,,,,,,,,,,"MET11806/28/20 09:51:02 METAR KJFK 281451Z 19008KT 10SM SCT040 SCT110 SCT250 28/21 A2976 RMK AO2 SLP078 T02780211 51001 (ML)","FM-15","7",,,,,,,,,,,,,,,,,,,,,,,,,,,,"2009-05-01"
"74486094789","2020-06-28T10:00:00","FM-12","4",,"ESE","1.5","mi","TEMP, PRECIP, SNOW",,,"PSY, SRG, SNOWBOARD",,,"FAA CWO",,,,,,,,,,,,,,,,,,,,,,,,,,,,"70","82",,,"-0.00","1","67","29.76","41","29.73","9.94","74","190",,"9",,,,,,,,,,,,,,,,,,,,,,,,,,,,,,,,,,,,,"SYN06474486 32666 41908 10278 20211 30067 40078 51001 91451 555 92815=","FM-12","4",,,,,,,,,,,,,,,,,,,,,,,,,,,,"2009-05-01"
"74486094789","2020-06-28T10:51:00","FM-15","7",,"ESE","1.5","mi","TEMP, PRECIP, SNOW",,,"PSY, SRG, SNOWBOARD",,,"FAA CWO",,,,,,,,,,,,,,,,,,,,,,,,,,,"29.76","69","84","0.00",,,,"61","29.76","SCT:04 40 SCT:04 110 BKN:07 250","29.74","10.00","74","190",,"9",,,,,,,,,,,,,,,,,,,,,,,,,,,,,,,,,,,,,"MET11206/28/20 10:51:02 METAR KJFK 281551Z 19008KT 10SM SCT040 SCT110 BKN250 29/21 A2976 RMK AO2 SLP077 T02890206 (ML)","FM-15","7",,,,,,,,,,,,,,,,,,,,,,,,,,,,"2009-05-01"
"74486094789","2020-06-28T11:51:00","FM-15","7",,"ESE","1.5","mi","TEMP, PRECIP, SNOW",,,"PSY, SRG, SNOWBOARD",,,"FAA CWO",,,,,,,,,,,,,,,,,,,,,,,,,,,"29.74","67","86","0.00",,,,"53","29.74","SCT:04 40 SCT:04 55 SCT:04 150","29.72","10.00","73","180",,"11",,,,,,,,,,,,,,,,,,,,,,,,,,,,,,,,,,,,,"MET12406/28/20 11:51:02 METAR KJFK 281651Z 18010KT 10SM SCT040 SCT055 SCT150 30/19 A2974 RMK AO2 LTG DSNT NE SLP071 T03000194 (ML)","FM-15","7",,,,,,,,,,,,,,,,,,,,,,,,,,,,"2009-05-01"
"74486094789","2020-06-28T12:51:00","FM-15","7",,"ESE","1.5","mi","TEMP, PRECIP, SNOW",,,"PSY, SRG, SNOWBOARD",,,"FAA CWO",,,,,,,,,,,,,,,,,,,,,,,,,,,"29.72","69","85","0.00",,"+0.04","8","59","29.72","FEW:02 40 SCT:04 55 SCT:04 150","29.70","10.00","74","170",,"14",,,,,,,,,,,,,,,,,,,,,,,,,,,,,,,,,,,,,"MET15506/28/20 12:51:02 METAR KJFK 281751Z 17012KT 10SM FEW040 SCT055 SCT150 29/21 A2972 RMK AO2 SLP063 CB DSNT NW TCU DSNT S-SW T02940206 10300 20244 58015 (ML)","FM-15","7",,,,,,,,,,,,,,,,,,,,,,,,,,,,"2009-05-01"
"74486094789","2020-06-28T13:00:00","FM-12","4",,"ESE","1.5","mi","TEMP, PRECIP, SNOW",,,"PSY, SRG, SNOWBOARD",,,"FAA CWO",,,,,,,,,,,,,,,,,,,,,,,,,,,,"69","85",,,"+0.04","8","59","29.72","41","29.69","9.94","74","170",,"14",,,,,,,,,,,,,,,,,,,,,,,,,,,,,,,,,,,,,"SYN08074486 32666 61712 10294 20206 30053 40063 58015 91751 333 10300 20228 555 92818=","FM-12","4",,,,,,,,,,,,,,,,,,,,,,,,,,,,"2009-05-01"
"74486094789","2020-06-28T13:51:00","FM-15","7",,"ESE","1.5","mi","TEMP, PRECIP, SNOW",,,"PSY, SRG, SNOWBOARD",,,"FAA CWO",,,,,,,,,,,,,,,,,,,,,,,,,,,"29.71","69","85","0.00",,,,"59","29.71","FEW:02 40 SCT:04 55 SCT:04 150","29.69","10.00","74","180",,"15",,,,,,,,,,,,,,,,,,,,,,,,,,,,,,,,,,,,,"MET13506/28/20 13:51:02 METAR KJFK 281851Z 18013KT 10SM FEW040 SCT055 SCT150 29/21 A2971 RMK AO2 SLP061 CB DSNT NW TCU DSNT SW T02940206 (RG)","FM-15","7",,,,,,,,,,,,,,,,,,,,,,,,,,,,"2009-05-01"
"74486094789","2020-06-28T14:51:00","FM-15","7",,"ESE","1.5","mi","TEMP, PRECIP, SNOW",,,"PSY, SRG, SNOWBOARD",,,"FAA CWO",,,,,,,,,,,,,,,,,,,,,,,,,,,"29.70","69","85","0.00",,,,"59","29.70","SCT:04 55 SCT:04 150 BKN:07 250","29.67","10.00","74","170",,"17",,,,,,,,,,,,,,,,,,,,,,,,,,,,,,,,,,,,,"MET13506/28/20 14:51:02 METAR KJFK 281951Z 17015KT 10SM SCT055 SCT150 BKN250 29/21 A2970 RMK AO2 LTG DSNT NW SLP057 CB DSNT NW T02940206 (RG)","FM-15","7",,,,,,,,,,,,,,,,,,,,,,,,,,,,"2009-05-01"
"74486094789","2020-06-28T15:51:00","FM-15","7",,"ESE","1.5","mi","TEMP, PRECIP, SNOW",,,"PSY, SRG, SNOWBOARD",,,"FAA CWO",,,,,,,,,,,,,,,,,,,,,,,,,,,"29.70","67","82","0.00",,"+0.01","5","60","29.70","SCT:04 55 SCT:04 150 BKN:07 250","29.67","10.00","72","180",,"18",,,,,,,,,,,,,,,,,,,,,,,,,,,,,,,,,,,,,"MET13906/28/20 15:51:02 METAR KJFK 282051Z 18016KT 10SM SCT055 SCT150 BKN250 28/19 A2970 RMK AO2 LTG DSNT N SLP058 CB DSNT N T02780194 55004 (RG)","FM-15","7",,,,,,,,,,,,,,,,,,,,,,,,,,,,"2009-05-01"
"74486094789","2020-06-28T16:00:00","FM-12","4",,"ESE","1.5","mi","TEMP, PRECIP, SNOW",,,"PSY, SRG, SNOWBOARD",,,"FAA CWO",,,,,,,,,,,,,,,,,,,,,,,,,,,,"67","82",,,"+0.01","5","60","29.70","57","29.67","9.94","72","180",,"18",,,,,,,,,,,,,,,,,,,,,,,,,,,,,,,,,,,,,"SYN06474486 32766 61816 10278 20194 30046 40058 55004 92051 555 92821=","FM-12","4",,,,,,,,,,,,,,,,,,,,,,,,,,,,"2009-05-01"
"74486094789","2020-06-28T16:51:00","FM-15","7",,"ESE","1.5","mi","TEMP, PRECIP, SNOW",,,"PSY, SRG, SNOWBOARD",,,"FAA CWO",,,,,,,,,,,,,,,,,,,,,,,,,,,"29.70","69","79","0.00",,,,"72","29.70","SCT:04 60 SCT:04 130 BKN:07 250","29.67","10.00","72","170",,"14",,,,,,,,,,,,,,,,,,,,,,,,,,,,,,,,,,,,,"MET12206/28/20 16:51:02 METAR KJFK 282151Z 17012KT 10SM SCT060 SCT130 BKN250 26/21 A2970 RMK AO2 SLP057 CB DSNT W T02610206 (RG)","FM-15","7",,,,,,,,,,,,,,,,,,,,,,,,,,,,"2009-05-01"
"74486094789","2020-06-28T17:51:00","FM-15","7",,"ESE","1.5","mi","TEMP, PRECIP, SNOW",,,"PSY, SRG, SNOWBOARD",,,"FAA CWO",,,,,,,,,,,,,,,,,,,,,,,,,,,"29.71","69","77","0.00",,,,"77","29.71","BKN:07 65 BKN:07 150 BKN:07 250","29.69","10.00","72","080",,"7",,,,,,,,,,,,,,,,,,,,,,,,,,,,,,,,,,,,,"MET13006/28/20 17:51:02 METAR KJFK 282251Z 08006KT 10SM BKN065 BKN150 BKN250 25/21 A2971 RMK AO2 LTG DSNT W AND NW SLP060 T02500206 (RG)","FM-15","7",,,,,,,,,,,,,,,,,,,,,,,,,,,,"2009-05-01"
"74486094789","2020-06-28T18:00:00","FM-16","7",,"ESE","1.5","mi","TEMP, PRECIP, SNOW",,,"PSY, SRG, SNOWBOARD",,,"FAA CWO",,,,,,,,,,,,,,,,,,,,,,,,,,,"29.72","69","77","T","TS:7 -RA:02 |RA TS TS |RA",,,"77",,"SCT:04 50 BKN:07 75 BKN:07 100","29.70","10.00","72","120",,"5",,,,,,,,,,,,,,,,,,,,,,,,,,,,,,,,,,,,,"MET17406/28/20 18:00:02 SPECI KJFK 282300Z 12004KT 10SM -TSRA SCT050CB BKN075 BKN100 25/21 A2972 RMK AO2 LTG DSNT W AND NW RAB00 TSB00 FRQ LTGICCG W TS W MOV E P0000 T02500206 (RG)","FM-16","7",,,,,,,,,,,,,,,,,,,,,,,,,,,,"2009-05-01"
"74486094789","2020-06-28T18:27:00","FM-16","7",,"ESE","1.5","mi","TEMP, PRECIP, SNOW",,,"PSY, SRG, SNOWBOARD",,,"FAA CWO",,,,,,,,,,,,,,,,,,,,,,,,,,,"29.76","64","68","0.21","TS:7 +RA:02 BR:1 |RA TS |RA",,,"87",,"SCT:04 38 BKN:07 60 BKN:07 110","29.74","2.00","66","230","31","17",,,,,,,,,,,,,,,,,,,,,,,,,,,,,,,,,,,,,"MET21206/28/20 18:27:02 SPECI KJFK 282327Z 23015G27KT 2SM R04R/1800V4500FT +TSRA BR SCT038CB BKN060 BKN110 20/18 A2976 RMK AO2 PK WND 22038/2317 LTG DSNT NW RAB00 TSB00 FRQ LTGICCG OHD TS OHD MOV E P0021 T02000178 (RG)","FM-16","7",,,,,,,,,,,,,,,,,,,,,,,,,,,,"2009-05-01"
"74486094789","2020-06-28T18:36:00","FM-16","7",,"ESE","1.5","mi","TEMP, PRECIP, SNOW",,,"PSY, SRG, SNOWBOARD",,,"FAA CWO",,,,,,,,,,,,,,,,,,,,,,,,,,,"29.72","66","71","0.42","TS:7 +RA:02 |RA TS TS |RA",,,"84",,"BKN:07 30 BKN:07 60 BKN:07 110","29.70","2.00","68","340","33","17",,,,,,,,,,,,,,,,,,,,,,,,,,,,,,,,,,,,,"MET20406/28/20 18:36:02 SPECI KJFK 282336Z 34015G29KT 2SM R04R/2000V5000FT +TSRA BKN030CB BKN060 BKN110 22/19 A2972 RMK AO2 PK WND 22038/2317 WSHFT 2318 RAB00 TSB00 FRQ LTGICCG E TS E MOV E P0042 T02170189 (RG)","FM-16","7",,,,,,,,,,,,,,,,,,,,,,,,,,,,"2009-05-01"
"74486094789","2020-06-28T18:41:00","FM-16","7",,"ESE","1.5","mi","TEMP, PRECIP, SNOW",,,"PSY, SRG, SNOWBOARD",,,"FAA CWO",,,,,,,,,,,,,,,,,,,,,,,,,,,"29.71","68","71","0.51","TS:7 +RA:02 BR:1 |RA TS |RA",,,"90",,"BKN:07 30 BKN:07 60 BKN:07 110","29.69","2.00","69","060",,"15",,,,,,,,,,,,,,,,,,,,,,,,,,,,,,,,,,,,,"MET22406/28/20 18:41:02 SPECI KJFK 282341Z 06013KT 2SM R04R/2000VP6000FT +TSRA BR BKN030CB BKN060 BKN110 22/20 A2971 RMK AO2 PK WND 22038/2317 WSHFT 2327 LTG DSNT SW RAB00 TSB00 PRESFR FRQ LTGICCG E TS E MOV E P0051 T02170200 (RG)","FM-16","7",,,,,,,,,,,,,,,,,,,,,,,,,,,,"2009-05-01"
"74486094789","2020-06-28T18:44:00","FM-16","7",,"ESE","1.5","mi","TEMP, PRECIP, SNOW",,,"PSY, SRG, SNOWBOARD",,,"FAA CWO",,,,,,,,,,,,,,,,,,,,,,,,,,,"29.72","68","71","0.52","TS:7 RA:02 BR:1 |RA TS |RA",,,"90",,"SCT:04 30 BKN:07 55 BKN:07 80","29.70","4.00","69","070",,"13",,,,,,,,,,,,,,,,,,,,,,,,,,,,,,,,,,,,,"MET22306/28/20 18:44:02 SPECI KJFK 282344Z 07011KT 4SM R04R/2800VP6000FT TSRA BR SCT030CB BKN055 BKN080 22/20 A2972 RMK AO2 PK WND 22038/2317 WSHFT 2328 LTG DSNT S AND SW RAB00 TSB00 OCNL LTGICCG E TS E MOV E P0052 T02170200 (RG)","FM-16","7",,,,,,,,,,,,,,,,,,,,,,,,,,,,"2009-05-01"
"74486094789","2020-06-28T18:51:00","FM-15","7",,"ESE","1.5","mi","TEMP, PRECIP, SNOW",,,"PSY, SRG, SNOWBOARD",,,"FAA CWO",,,,,,,,,,,,,,,,,,,,,,,,,,,"29.73","68","73","0.52","TS:7 -RA:02 |RA TS TS |RA","-0.02","3","84","29.72","BKN:07 30 BKN:07 60 BKN:07 100","29.70","4.00","70","120",,"9",,,,,,,,,,,,,,,,,,,,,,,,,,,,,,,,,,,,,"MET22606/28/20 18:51:02 METAR KJFK 282351Z 12008KT 4SM -TSRA BKN030CB BKN060 BKN100 23/20 A2973 RMK AO2 PK WND 22038/2317 WSHFT 2328 LTG DSNT SE-SW RAB00 TSB00 SLP066 OCNL LTGICCG E TS E MOV E P0052 60052 T02280200 10300 20200 53008","FM-15","7",,,,,,,,,,,,,,,,,,,,,,,,,,,,"2009-05-01"
"74486094789","2020-06-28T19:00:00","FM-12","4",,"ESE","1.5","mi","TEMP, PRECIP, SNOW",,,"PSY, SRG, SNOWBOARD",,,"FAA CWO",,,,,,,,,,,,,,,,,,,,,,,,,,,,"68","73",,,"-0.02","3","84","29.72","26","29.70","3.73","70","120",,"9",,,,,,,,,,,,,,,,,,,,,,,,,,,,,,,,,,,,,"SYN08674486 11556 61208 10228 20200 30056 40066 53008 60131 92351 333 10300 20200 555 92900=","FM-12","4",,,,,,,,,,,,,,,,,,,,,,,,,,,,"2009-05-01"
"74486094789","2020-06-28T19:02:00","FM-16","7",,"ESE","1.5","mi","TEMP, PRECIP, SNOW",,,"PSY, SRG, SNOWBOARD",,,"FAA CWO",,,,,,,,,,,,,,,,,,,,,,,,,,,"29.73","68","72","T","VCTS:7 ||",,,"87",,"SCT:04 26 BKN:07 80 BKN:07 150","29.70","10.00","69","150",,"10",,,,,,,,,,,,,,,,,,,,,,,,,,,,,,,,,,,,,"MET14806/28/20 19:02:03 SPECI KJFK 290002Z 15009KT 10SM VCTS SCT026 BKN080 BKN150 22/20 A2973 RMK AO2 LTG DSNT S AND SW RAE2357 TSE02 P0000 T02220200 (RG)","FM-16","7",,,,,,,,,,,,,,,,,,,,,,,,,,,,"2009-05-01"
"74486094789","2020-06-28T19:08:00","FM-16","7",,"ESE","1.5","mi","TEMP, PRECIP, SNOW",,,"PSY, SRG, SNOWBOARD",,,"FAA CWO",,,,,,,,,,,,,,,,,,,,,,,,,,,"29.72","69","72","T",,,,"91",,"SCT:04 26 BKN:07 80 BKN:07 150","29.70","10.00","70","000",,"0",,,,,,,,,,,,,,,,,,,,,,,,,,,,,,,,,,,,,"MET14306/28/20 19:08:03 SPECI KJFK 290008Z 00000KT 10SM SCT026 BKN080 BKN150 22/21 A2972 RMK AO2 LTG DSNT S AND SW RAE2357 TSE02 P0000 T02220206 (RG)","FM-16","7",,,,,,,,,,,,,,,,,,,,,,,,,,,,"2009-05-01"
"74486094789","2020-06-28T19:51:00","FM-15","7",,"ESE","1.5","mi","TEMP, PRECIP, SNOW",,,"PSY, SRG, SNOWBOARD",,,"FAA CWO",,,,,,,,,,,,,,,,,,,,,,,,,,,"29.73","68","73","0.00",,,,"84","29.72","SCT:04 30 BKN:07 80 BKN:07 100","29.70","10.00","70","180",,"3",,,,,,,,,,,,,,,,,,,,,,,,,,,,,,,,,,,,,"MET15006/28/20 19:51:03 METAR KJFK 290051Z 18003KT 10SM SCT030 BKN080 BKN100 23/20 A2973 RMK AO2 LTG DSNT SE AND S RAE2357 TSE02 SLP066 P0000 T02280200 (RG)","FM-15","7",,,,,,,,,,,,,,,,,,,,,,,,,,,,"2009-05-01"
"74486094789","2020-06-28T20:51:00","FM-15","7",,"ESE","1.5","mi","TEMP, PRECIP, SNOW",,,"PSY, SRG, SNOWBOARD",,,"FAA CWO",,,,,,,,,,,,,,,,,,,,,,,,,,,"29.74","69","73","0.00",,,,"87","29.74","FEW:02 70 BKN:07 110","29.72","10.00","70","000",,"0",,,,,,,,,,,,,,,,,,,,,,,,,,,,,,,,,,,,,"MET13206/28/20 20:51:03 METAR KJFK 290151Z 00000KT 10SM FEW070 BKN110 23/21 A2974 RMK AO2 SLP071 FRQ LTGIC DSNT S CB DSNT S T02280206 (RG)","FM-15","7",,,,,,,,,,,,,,,,,,,,,,,,,,,,"2009-05-01"
"74486094789","2020-06-28T21:51:00","FM-15","7",,"ESE","1.5","mi","TEMP, PRECIP, SNOW",,,"PSY, SRG, SNOWBOARD",,,"FAA CWO",,,,,,,,,,,,,,,,,,,,,,,,,,,"29.75","70","73","0.00",,"-0.02","3","90","29.75","BKN:07 120","29.72","10.00","71","220",,"8",,,,,,,,,,,,,,,,,,,,,,,,,,,,,,,,,,,,,"MET11006/28/20 21:51:03 METAR KJFK 290251Z 22007KT 10SM BKN120 23/21 A2975 RMK AO2 SLP074 60000 T02280211 53008 (JC)","FM-15","7",,,,,,,,,,,,,,,,,,,,,,,,,,,,"2009-05-01"
"74486094789","2020-06-28T22:00:00","FM-12","4",,"ESE","1.5","mi","TEMP, PRECIP, SNOW",,,"PSY, SRG, SNOWBOARD",,,"FAA CWO",,,,,,,,,,,,,,,,,,,,,,,,,,,,"70","73",,,"-0.02","3","90","29.75",,"29.72","9.94","71","220",,"8",,,,,,,,,,,,,,,,,,,,,,,,,,,,,,,,,,,,,"SYN07074486 12966 62207 10228 20211 30063 40074 53008 69907 90251 555 92903=","FM-12","4",,,,,,,,,,,,,,,,,,,,,,,,,,,,"2009-05-01"
"74486094789","2020-06-28T22:51:00","FM-15","7",,"ESE","1.5","mi","TEMP, PRECIP, SNOW",,,"PSY, SRG, SNOWBOARD",,,"FAA CWO",,,,,,,,,,,,,,,,,,,,,,,,,,,"29.75","68","71","0.00",,,,"90","29.75","SCT:04 130","29.72","10.00","69","210",,"7",,,,,,,,,,,,,,,,,,,,,,,,,,,,,,,,,,,,,"MET09806/28/20 22:51:03 METAR KJFK 290351Z 21006KT 10SM SCT130 22/20 A2975 RMK AO2 SLP075 T02170200 (JC)","FM-15","7",,,,,,,,,,,,,,,,,,,,,,,,,,,,"2009-05-01"
"74486094789","2020-06-28T23:51:00","FM-15","7",,"ESE","1.5","mi","TEMP, PRECIP, SNOW",,,"PSY, SRG, SNOWBOARD",,,"FAA CWO",,,,,,,,,,,,,,,,,,,,,,,,,,,"29.74","69","73","0.00",,,,"87","29.74","FEW:02 130","29.72","10.00","70","320",,"8",,,,,,,,,,,,,,,,,,,,,,,,,,,,,,,,,,,,,"MET10806/28/20 23:51:03 METAR KJFK 290451Z 32007KT 10SM FEW130 23/21 A2974 RMK AO2 SLP071 T02280206 403000200 (JC)","FM-15","7",,,,,,,,,,,,,,,,,,,,,,,,,,,,"2009-05-01"
"74486094789","2020-06-28T23:59:00","SOD  ","6",,"ESE","1.5","mi","TEMP, PRECIP, SNOW",,,"PSY, SRG, SNOWBOARD",,,"FAA CWO",,,,"69","77","78","29.73","29.71","72","8.2","12","3.1","0","86","68","220","43","0.52","0","0.0","220","32","TS RA BR",,,,,,,,,,,,,,,,,,,,,,,,,,,,,,,,,,,,,,,,,,,,,,,,,,,,,,,,"SOD75724 HR PRECIPITATION (IN): 0.52 SNOW DEPTH (IN):0     24 HR SNOWFALL (IN):0.0  WEATHER(CODE):13  24 HR MAX TEMP (F): 8624 HR MIN TEMP (F): 68AVERAGE STATION PRESSURE:29.710 MINIMUM SEA LEVEL PRESSURE:29.69 TIME OF OCCURRENCE:1708 PEAK WIND SPEED (MPH): 43 PEAK WIND DIR (DEG):220 PEAK WIND TIME (LST):      FASTEST 2MIN SPEED (MPH): 32FASTEST 2MIN DIR (DEG):220 FASTEST 2MIN TIME (LST):     AVERAGE WIND SPEED (MPH): 8.2 24 HR AVG TEMP (F): 77DEPART FROM NORMAL:  3  HEATING DEGREE DAYS:  0 COOLING DEGREE DAYS: 12 LATEST DAY MAX TEMP (0700-1900 LST):86  LATEST NIGHT MIN TEMP(1900-0800 LST):71 HOURLY INCREMENTAL PRECIPITATION VALUES (IN):.00 0.00 0.00 0.00 0.00 0.00 0.00 0.00 0.00 0.00 0.00 0.00 0.00 0.00 0.00 0.00 0.00 0.00 0.52 0.00 0.00 0.00 0.00 0.00","SOD  ","6",,,,,,,,,,,,,,,,,,,,,,,,,"0427","1930",,"2009-05-01"
"74486094789","2020-06-29T00:51:00","FM-15","7",,"ESE","1.5","mi","TEMP, PRECIP, SNOW",,,"PSY, SRG, SNOWBOARD",,,"FAA CWO",,,,,,,,,,,,,,,,,,,,,,,,,,,"29.74","68","73","0.00",,"+0.01","8","84","29.73","FEW:02 130","29.72","10.00","70","310",,"9",,,,,,,,,,,,,,,,,,,,,,,,,,,,,,,,,,,,,"MET12206/29/20 00:51:02 METAR KJFK 290551Z 31008KT 10SM FEW130 23/20 A2974 RMK AO2 SLP069 60000 T02280200 10233 20217 58005 (JC)","FM-15","7",,,,,,,,,,,,,,,,,,,,,,,,,,,,"2009-05-01"
"74486094789","2020-06-29T01:00:00","FM-12","4",,"ESE","1.5","mi","TEMP, PRECIP, SNOW",,,"PSY, SRG, SNOWBOARD",,,"FAA CWO",,,,,,,,,,,,,,,,,,,,,,,,,,,,"68","73",,,"+0.01","8","84","29.73",,"29.71","9.94","70","310",,"9",,,,,,,,,,,,,,,,,,,,,,,,,,,,,,,,,,,,,"SYN08674486 12966 23108 10228 20200 30060 40069 58005 69901 90551 333 10244 20217 555 92906=","FM-12","4",,,,,,,,,,,,,,,,,,,,,,,,,,,,"2009-05-01"
"74486094789","2020-06-29T01:51:00","FM-15","7",,"ESE","1.5","mi","TEMP, PRECIP, SNOW",,,"PSY, SRG, SNOWBOARD",,,"FAA CWO",,,,,,,,,,,,,,,,,,,,,,,,,,,"29.74","67","73","0.00",,,,"81","29.73","FEW:02 130","29.72","10.00","69","280",,"6",,,,,,,,,,,,,,,,,,,,,,,,,,,,,,,,,,,,,"MET09806/29/20 01:51:02 METAR KJFK 290651Z 28005KT 10SM FEW130 23/19 A2974 RMK AO2 SLP069 T02280194 (JC)","FM-15","7",,,,,,,,,,,,,,,,,,,,,,,,,,,,"2009-05-01"
"74486094789","2020-06-29T02:51:00","FM-15","7",,"ESE","1.5","mi","TEMP, PRECIP, SNOW",,,"PSY, SRG, SNOWBOARD",,,"FAA CWO",,,,,,,,,,,,,,,,,,,,,,,,,,,"29.75","66","72","0.00",,,,"82","29.74","FEW:02 130","29.72","10.00","68","330",,"10",,,,,,,,,,,,,,,,,,,,,,,,,,,,,,,,,,,,,"MET09806/29/20 02:51:02 METAR KJFK 290751Z 33009KT 10SM FEW130 22/19 A2975 RMK AO2 SLP072 T02220189 (JC)","FM-15","7",,,,,,,,,,,,,,,,,,,,,,,,,,,,"2009-05-01"
"74486094789","2020-06-29T03:51:00","FM-15","7",,"ESE","1.5","mi","TEMP, PRECIP, SNOW",,,"PSY, SRG, SNOWBOARD",,,"FAA CWO",,,,,,,,,,,,,,,,,,,,,,,,,,,"29.75","66","72","0.00",,"-0.01","3","82","29.75","FEW:02 100","29.72","10.00","68","340",,"10",,,,,,,,,,,,,,,,,,,,,,,,,,,,,,,,,,,,,"MET10406/29/20 03:51:02 METAR KJFK 290851Z 34009KT 10SM FEW100 22/19 A2975 RMK AO2 SLP074 T02220189 53005 (JC)","FM-15","7",,,,,,,,,,,,,,,,,,,,,,,,,,,,"2009-05-01"
"74486094789","2020-06-29T04:00:00","FM-12","4",,"ESE","1.5","mi","TEMP, PRECIP, SNOW",,,"PSY, SRG, SNOWBOARD",,,"FAA CWO",,,,,,,,,,,,,,,,,,,,,,,,,,,,"66","72",,,"-0.01","3","82","29.75",,"29.72","9.94","68","340",,"10",,,,,,,,,,,,,,,,,,,,,,,,,,,,,,,,,,,,,"SYN06474486 32966 23409 10222 20189 30063 40074 53005 90851 555 92909=","FM-12","4",,,,,,,,,,,,,,,,,,,,,,,,,,,,"2009-05-01"
"74486094789","2020-06-29T04:51:00","FM-15","7",,"ESE","1.5","mi","TEMP, PRECIP, SNOW",,,"PSY, SRG, SNOWBOARD",,,"FAA CWO",,,,,,,,,,,,,,,,,,,,,,,,,,,"29.77","66","71","0.00",,,,"84","29.77","FEW:02 100","29.75","10.00","68","020",,"7",,,,,,,,,,,,,,,,,,,,,,,,,,,,,,,,,,,,,"MET09806/29/20 04:51:02 METAR KJFK 290951Z 02006KT 10SM FEW100 22/19 A2977 RMK AO2 SLP080 T02170189 (JC)","FM-15","7",,,,,,,,,,,,,,,,,,,,,,,,,,,,"2009-05-01"
"74486094789","2020-06-29T05:51:00","FM-15","7",,"ESE","1.5","mi","TEMP, PRECIP, SNOW",,,"PSY, SRG, SNOWBOARD",,,"FAA CWO",,,,,,,,,,,,,,,,,,,,,,,,,,,"29.79","65","73","0.00",,,,"76","29.79","FEW:02 47 SCT:04 100","29.77","10.00","68","330",,"9",,,,,,,,,,,,,,,,,,,,,,,,,,,,,,,,,,,,,"MET10506/29/20 05:51:02 METAR KJFK 291051Z 33008KT 10SM FEW047 SCT100 23/18 A2979 RMK AO2 SLP089 T02280183 (BH)","FM-15","7",,,,,,,,,,,,,,,,,,,,,,,,,,,,"2009-05-01"
"74486094789","2020-06-29T06:51:00","FM-15","7",,"ESE","1.5","mi","TEMP, PRECIP, SNOW",,,"PSY, SRG, SNOWBOARD",,,"FAA CWO",,,,,,,,,,,,,,,,,,,,,,,,,,,"29.80","65","75","0.00",,"-0.05","1","71","29.80","FEW:02 47 FEW:02 100","29.78","10.00","69","360",,"7",,,,,,,,,,,,,,,,,,,,,,,,,,,,,,,,,,,,,"MET12906/29/20 06:51:02 METAR KJFK 291151Z 36006KT 10SM FEW047 FEW100 24/18 A2980 RMK AO2 SLP092 70052 T02390183 10239 20200 51018 (BH)","FM-15","7",,,,,,,,,,,,,,,,,,,,,,,,,,,,"2009-05-01"
"74486094789","2020-06-29T07:00:00","FM-12","4",,"ESE","1.5","mi","TEMP, PRECIP, SNOW",,,"PSY, SRG, SNOWBOARD",,,"FAA CWO",,,,,,,,,,,,,,,,,,,,,,,,,,,,"65","75",,,"-0.05","1","71","29.80","41","29.77","9.94","69","360",,"7",,,,,,,,,,,,,,,,,,,,,,,,,,,,,,,,,,,,,"SYN08674486 32666 23606 10239 20183 30080 40092 51018 91151 333 10300 20200 70132 555 92912=","FM-12","4",,,,,,,,,,,,,,,,,,,,,,,,,,,,"2009-05-01"
"74486094789","2020-06-29T07:51:00","FM-15","7",,"ESE","1.5","mi","TEMP, PRECIP, SNOW",,,"PSY, SRG, SNOWBOARD",,,"FAA CWO",,,,,,,,,,,,,,,,,,,,,,,,,,,"29.81","65","78","0.00",,,,"64","29.81","FEW:02 50 FEW:02 100 FEW:02 250","29.78","10.00","70","360",,"6",,,,,,,,,,,,,,,,,,,,,,,,,,,,,,,,,,,,,"MET11206/29/20 07:51:02 METAR KJFK 291251Z 36005KT 10SM FEW050 FEW100 FEW250 26/18 A2981 RMK AO2 SLP094 T02560183 (BH)","FM-15","7",,,,,,,,,,,,,,,,,,,,,,,,,,,,"2009-05-01"
"74486094789","2020-06-29T08:51:00","FM-15","7",,"ESE","1.5","mi","TEMP, PRECIP, SNOW",,,"PSY, SRG, SNOWBOARD",,,"FAA CWO",,,,,,,,,,,,,,,,,,,,,,,,,,,"29.81","65","81","0.00",,,,"58","29.80","FEW:02 34 SCT:04 100","29.78","10.00","71","350",,"15",,,,,,,,,,,,,,,,,,,,,,,,,,,,,,,,,,,,,"MET10506/29/20 08:51:02 METAR KJFK 291351Z 35013KT 10SM FEW034 SCT100 27/18 A2981 RMK AO2 SLP093 T02720183 (BH)","FM-15","7",,,,,,,,,,,,,,,,,,,,,,,,,,,,"2009-05-01"
"74486094789","2020-06-29T09:51:00","FM-15","7",,"ESE","1.5","mi","TEMP, PRECIP, SNOW",,,"PSY, SRG, SNOWBOARD",,,"FAA CWO",,,,,,,,,,,,,,,,,,,,,,,,,,,"29.82","64","81","0.00",,"-0.01","3","57","29.82","SCT:04 36","29.80","10.00","70","010",,"15",,,,,,,,,,,,,,,,,,,,,,,,,,,,,,,,,,,,,"MET10406/29/20 09:51:02 METAR KJFK 291451Z 01013KT 10SM SCT036 27/18 A2982 RMK AO2 SLP097 T02720178 53005 (BH)","FM-15","7",,,,,,,,,,,,,,,,,,,,,,,,,,,,"2009-05-01"
"74486094789","2020-06-29T10:00:00","FM-12","4",,"ESE","1.5","mi","TEMP, PRECIP, SNOW",,,"PSY, SRG, SNOWBOARD",,,"FAA CWO",,,,,,,,,,,,,,,,,,,,,,,,,,,,"64","81",,,"-0.01","3","57","29.82","41","29.79","9.94","70","010",,"15",,,,,,,,,,,,,,,,,,,,,,,,,,,,,,,,,,,,,"SYN06474486 32666 40113 10272 20178 30087 40097 53005 91451 555 92915=","FM-12","4",,,,,,,,,,,,,,,,,,,,,,,,,,,,"2009-05-01"
"74486094789","2020-06-29T10:51:00","FM-15","7",,"ESE","1.5","mi","TEMP, PRECIP, SNOW",,,"PSY, SRG, SNOWBOARD",,,"FAA CWO",,,,,,,,,,,,,,,,,,,,,,,,,,,"29.82","65","83","0.00",,,,"55","29.82","SCT:04 37 SCT:04 50","29.80","10.00","71","010","20","11",,,,,,,,,,,,,,,,,,,,,,,,,,,,,,,,,,,,,"MET10806/29/20 10:51:02 METAR KJFK 291551Z 01010G17KT 10SM SCT037 SCT050 28/18 A2982 RMK AO2 SLP097 T02830183 (BH)","FM-15","7",,,,,,,,,,,,,,,,,,,,,,,,,,,,"2009-05-01"
"74486094789","2020-06-29T11:51:00","FM-15","7",,"ESE","1.5","mi","TEMP, PRECIP, SNOW",,,"PSY, SRG, SNOWBOARD",,,"FAA CWO",,,,,,,,,,,,,,,,,,,,,,,,,,,"29.82","64","81","0.00",,,,"57","29.81","SCT:04 35 BKN:07 49","29.80","10.00","70","350",,"8",,,,,,,,,,,,,,,,,,,,,,,,,,,,,,,,,,,,,"MET10506/29/20 11:51:02 METAR KJFK 291651Z 35007KT 10SM SCT035 BKN049 27/18 A2982 RMK AO2 SLP096 T02720178 (BH)","FM-15","7",,,,,,,,,,,,,,,,,,,,,,,,,,,,"2009-05-01"
"74486094789","2020-06-29T12:51:00","FM-15","7",,"ESE","1.5","mi","TEMP, PRECIP, SNOW",,,"PSY, SRG, SNOWBOARD",,,"FAA CWO",,,,,,,,,,,,,,,,,,,,,,,,,,,"29.80","64","84","0.00",,"+0.02","8","51","29.80","SCT:04 43 SCT:04 250","29.78","10.00","71","010","22","16",,,,,,,,,,,,,,,,,,,,,,,,,,,,,,,,,,,,,"MET14306/29/20 12:51:02 METAR KJFK 291751Z 01014G19KT 10SM SCT043 SCT250 29/18 A2980 RMK AO2 SLP090 CB DSNT NE MOV S T02890178 10294 20239 58007 (BH)","FM-15","7",,,,,,,,,,,,,,,,,,,,,,,,,,,,"2009-05-01"
"74486094789","2020-06-29T13:00:00","FM-12","4",,"ESE","1.5","mi","TEMP, PRECIP, SNOW",,,"PSY, SRG, SNOWBOARD",,,"FAA CWO",,,,,,,,,,,,,,,,,,,,,,,,,,,,"64","84",,,"+0.02","8","51","29.80","41","29.77","9.94","71","010",,"16",,,,,,,,,,,,,,,,,,,,,,,,,,,,,,,,,,,,,"SYN08674486 32666 40114 10289 20178 30080 40090 58007 91751 333 10294 20200 91019 555 92918=","FM-12","4",,,,,,,,,,,,,,,,,,,,,,,,,,,,"2009-05-01"
"74486094789","2020-06-29T13:51:00","FM-15","7",,"ESE","1.5","mi","TEMP, PRECIP, SNOW",,,"PSY, SRG, SNOWBOARD",,,"FAA CWO",,,,,,,,,,,,,,,,,,,,,,,,,,,"29.79","60","85","0.00",,,,"43","29.79","SCT:04 49 SCT:04 250","29.77","10.00","69","020","22","15",,,,,,,,,,,,,,,,,,,,,,,,,,,,,,,,,,,,,"MET10806/29/20 13:51:02 METAR KJFK 291851Z 02013G19KT 10SM SCT049 SCT250 29/16 A2979 RMK AO2 SLP088 T02940156 (RR)","FM-15","7",,,,,,,,,,,,,,,,,,,,,,,,,,,,"2009-05-01"
"74486094789","2020-06-29T14:51:00","FM-15","7",,"ESE","1.5","mi","TEMP, PRECIP, SNOW",,,"PSY, SRG, SNOWBOARD",,,"FAA CWO",,,,,,,,,,,,,,,,,,,,,,,,,,,"29.80","60","87","0.00",,,,"40","29.79","SCT:04 55 SCT:04 250","29.78","10.00","70","350",,"17",,,,,,,,,,,,,,,,,,,,,,,,,,,,,,,,,,,,,"MET10506/29/20 14:51:02 METAR KJFK 291951Z 35015KT 10SM SCT055 SCT250 31/16 A2980 RMK AO2 SLP089 T03060156 (RR)","FM-15","7",,,,,,,,,,,,,,,,,,,,,,,,,,,,"2009-05-01"
"74486094789","2020-06-29T15:51:00","FM-15","7",,"ESE","1.5","mi","TEMP, PRECIP, SNOW",,,"PSY, SRG, SNOWBOARD",,,"FAA CWO",,,,,,,,,,,,,,,,,,,,,,,,,,,"29.79","59","85","0.00",,"+0.01","6","42","29.79","SCT:04 55 SCT:04 250","29.77","10.00","69","010",,"14",,,,,,,,,,,,,,,,,,,,,,,,,,,,,,,,,,,,,"MET12206/29/20 15:51:02 METAR KJFK 292051Z 01012KT 10SM SCT055 SCT250 29/15 A2979 RMK AO2 SLP088 CB DSNT NW T02940150 56002 (RR)","FM-15","7",,,,,,,,,,,,,,,,,,,,,,,,,,,,"2009-05-01"
"74486094789","2020-06-29T16:00:00","FM-12","4",,"ESE","1.5","mi","TEMP, PRECIP, SNOW",,,"PSY, SRG, SNOWBOARD",,,"FAA CWO",,,,,,,,,,,,,,,,,,,,,,,,,,,,"59","85",,,"+0.01","6","42","29.79","57","29.76","9.94","69","010",,"14",,,,,,,,,,,,,,,,,,,,,,,,,,,,,,,,,,,,,"SYN06474486 32766 40112 10294 20150 30077 40088 56002 92051 555 92921=","FM-12","4",,,,,,,,,,,,,,,,,,,,,,,,,,,,"2009-05-01"
"74486094789","2020-06-29T16:51:00","FM-15","7",,"ESE","1.5","mi","TEMP, PRECIP, SNOW",,,"PSY, SRG, SNOWBOARD",,,"FAA CWO",,,,,,,,,,,,,,,,,,,,,,,,,,,"29.80","59","87","0.00",,,,"39","29.80","SCT:04 60 SCT:04 90 BKN:07 250","29.78","10.00","69","010",,"11",,,,,,,,,,,,,,,,,,,,,,,,,,,,,,,,,,,,,"MET14306/29/20 16:51:02 METAR KJFK 292151Z 01010KT 10SM SCT060 SCT090 BKN250 31/15 A2980 RMK AO2 LTG DSNT N AND NW SLP092 CB DSNT NW-N T03060150 (RR)","FM-15","7",,,,,,,,,,,,,,,,,,,,,,,,,,,,"2009-05-01"
"74486094789","2020-06-29T17:27:00","FM-16","7",,"ESE","1.5","mi","TEMP, PRECIP, SNOW",,,"PSY, SRG, SNOWBOARD",,,"FAA CWO",,,,,,,,,,,,,,,,,,,,,,,,,,,"29.81","61","85",,"TS:7 |TS TS |",,,"45",,"FEW:02 30 SCT:04 60","29.78","10.00","70","020",,"9",,,,,,,,,,,,,,,,,,,,,,,,,,,,,,,,,,,,,"MET17206/29/20 17:27:02 SPECI KJFK 292227Z 02008KT 10SM TS FEW030 SCT060CB BKN0 29/16 A2981 RMK AO2 LTG DSNT N AND NW TSB27 OCNL LTGIC NW-N TS NW-N MOV S VCSH NW-N T02940161 (RR)","FM-16","7",,,,,,,,,,,,,,,,,,,,,,,,,,,,"2009-05-01"
"74486094789","2020-06-29T17:51:00","FM-15","7",,"ESE","1.5","mi","TEMP, PRECIP, SNOW",,,"PSY, SRG, SNOWBOARD",,,"FAA CWO",,,,,,,,,,,,,,,,,,,,,,,,,,,"29.85","64","80","T","TS:7 -RA:02 |RA TS TS |RA",,,"58","29.85","FEW:02 30 BKN:07 55 BKN:07 100","29.83","10.00","70","030","26","15",,,,,,,,,,,,,,,,,,,,,,,,,,,,,,,,,,,,,"MET19206/29/20 17:51:02 METAR KJFK 292251Z 03013G23KT 10SM -TSRA FEW030 BKN055CB BKN1 27/18 A2985 RMK AO2 RAB44 TSB27 PRESRR SLP109 OCNL LTGIC OHD AND W-NW TS OHD AND W-NW MOV S P0000 T02670178 (RR)","FM-15","7",,,,,,,,,,,,,,,,,,,,,,,,,,,,"2009-05-01"
"74486094789","2020-06-29T18:38:00","FM-16","7",,"ESE","1.5","mi","TEMP, PRECIP, SNOW",,,"PSY, SRG, SNOWBOARD",,,"FAA CWO",,,,,,,,,,,,,,,,,,,,,,,,,,,"29.85","63","76","0.02",,,,"64",,"FEW:02 37 SCT:04 55 SCT:04 95","29.83","10.00","68","060",,"13",,,,,,,,,,,,,,,,,,,,,,,,,,,,,,,,,,,,,"MET14406/29/20 18:38:02 SPECI KJFK 292338Z 06011KT 10SM FEW037 SCT055 SCT095 24/17 A2985 RMK AO2 LTG DSNT S RAE22 TSE38 CB DSNT S P0002 T02440172 (RR)","FM-16","7",,,,,,,,,,,,,,,,,,,,,,,,,,,,"2009-05-01"
"74486094789","2020-06-29T18:51:00","FM-15","7",,"ESE","1.5","mi","TEMP, PRECIP, SNOW",,,"PSY, SRG, SNOWBOARD",,,"FAA CWO",,,,,,,,,,,,,,,,,,,,,,,,,,,"29.86","64","75","0.02",,"-0.06","1","69","29.85","FEW:02 37 SCT:04 55 SCT:04 80","29.83","10.00","68","080",,"8",,,,,,,,,,,,,,,,,,,,,,,,,,,,,,,,,,,,,"MET17506/29/20 18:51:02 METAR KJFK 292351Z 08007KT 10SM FEW037 SCT055 SCT080 24/18 A2986 RMK AO2 LTG DSNT S RAE22 TSE38 SLP110 CB DSNT S P0002 60002 T02390178 10317 20239 51022 (RR)","FM-15","7",,,,,,,,,,,,,,,,,,,,,,,,,,,,"2009-05-01"
"74486094789","2020-06-29T19:00:00","FM-12","4",,"ESE","1.5","mi","TEMP, PRECIP, SNOW",,,"PSY, SRG, SNOWBOARD",,,"FAA CWO",,,,,,,,,,,,,,,,,,,,,,,,,,,,"64","75",,,"-0.06","1","69","29.85","41","29.83","9.94","68","080",,"8",,,,,,,,,,,,,,,,,,,,,,,,,,,,,,,,,,,,,"SYN08674486 12666 60807 10239 20178 30100 40110 51022 69951 92351 333 10317 20200 555 93000=","FM-12","4",,,,,,,,,,,,,,,,,,,,,,,,,,,,"2009-05-01"
"74486094789","2020-06-29T19:51:00","FM-15","7",,"ESE","1.5","mi","TEMP, PRECIP, SNOW",,,"PSY, SRG, SNOWBOARD",,,"FAA CWO",,,,,,,,,,,,,,,,,,,,,,,,,,,"29.86","64","74","0.00",,,,"71","29.86","FEW:02 55 FEW:02 80 SCT:04 130","29.83","10.00","68","020",,"7",,,,,,,,,,,,,,,,,,,,,,,,,,,,,,,,,,,,,"MET11206/29/20 19:51:03 METAR KJFK 300051Z 02006KT 10SM FEW055 FEW080 SCT130 23/18 A2986 RMK AO2 SLP111 T02330178 (RR)","FM-15","7",,,,,,,,,,,,,,,,,,,,,,,,,,,,"2009-05-01"
"74486094789","2020-06-29T20:51:00","FM-15","7",,"ESE","1.5","mi","TEMP, PRECIP, SNOW",,,"PSY, SRG, SNOWBOARD",,,"FAA CWO",,,,,,,,,,,,,,,,,,,,,,,,,,,"29.87","64","73","0.00",,,,"74","29.87","FEW:02 55 FEW:02 80 SCT:04 250","29.85","10.00","67","010",,"7",,,,,,,,,,,,,,,,,,,,,,,,,,,,,,,,,,,,,"MET11206/29/20 20:51:03 METAR KJFK 300151Z 01006KT 10SM FEW055 FEW080 SCT250 23/18 A2987 RMK AO2 SLP115 T02280178 (RR)","FM-15","7",,,,,,,,,,,,,,,,,,,,,,,,,,,,"2009-05-01"
"74486094789","2020-06-29T21:51:00","FM-15","7",,"ESE","1.5","mi","TEMP, PRECIP, SNOW",,,"PSY, SRG, SNOWBOARD",,,"FAA CWO",,,,,,,,,,,,,,,,,,,,,,,,,,,"29.88","64","72","0.00",,"-0.02","2","76","29.87","FEW:02 55","29.85","10.00","67","360",,"3",,,,,,,,,,,,,,,,,,,,,,,,,,,,,,,,,,,,,"MET10406/29/20 21:51:03 METAR KJFK 300251Z 36003KT 10SM FEW055 22/18 A2988 RMK AO2 SLP116 T02220178 52007 (JC)","FM-15","7",,,,,,,,,,,,,,,,,,,,,,,,,,,,"2009-05-01"
"74486094789","2020-06-29T22:00:00","FM-12","4",,"ESE","1.5","mi","TEMP, PRECIP, SNOW",,,"PSY, SRG, SNOWBOARD",,,"FAA CWO",,,,,,,,,,,,,,,,,,,,,,,,,,,,"64","72",,,"-0.02","2","76","29.87","57","29.85","9.94","67","360",,"3",,,,,,,,,,,,,,,,,,,,,,,,,,,,,,,,,,,,,"SYN06474486 32766 23603 10222 20178 30107 40116 52007 90251 555 93003=","FM-12","4",,,,,,,,,,,,,,,,,,,,,,,,,,,,"2009-05-01"
"74486094789","2020-06-29T22:51:00","FM-15","7",,"ESE","1.5","mi","TEMP, PRECIP, SNOW",,,"PSY, SRG, SNOWBOARD",,,"FAA CWO",,,,,,,,,,,,,,,,,,,,,,,,,,,"29.88","65","71","0.00",,,,"81","29.88","FEW:02 50","29.85","10.00","67","330",,"7",,,,,,,,,,,,,,,,,,,,,,,,,,,,,,,,,,,,,"MET09806/29/20 22:51:03 METAR KJFK 300351Z 33006KT 10SM FEW050 22/18 A2988 RMK AO2 SLP118 T02170183 (JC)","FM-15","7",,,,,,,,,,,,,,,,,,,,,,,,,,,,"2009-05-01"
"74486094789","2020-06-29T23:51:00","FM-15","7",,"ESE","1.5","mi","TEMP, PRECIP, SNOW",,,"PSY, SRG, SNOWBOARD",,,"FAA CWO",,,,,,,,,,,,,,,,,,,,,,,,,,,"29.88","64","71","0.00",,,,"79","29.88","FEW:02 50","29.85","10.00","67","360",,"9",,,,,,,,,,,,,,,,,,,,,,,,,,,,,,,,,,,,,"MET10806/29/20 23:51:03 METAR KJFK 300451Z 36008KT 10SM FEW050 22/18 A2988 RMK AO2 SLP118 T02170178 403170200 (JC)","FM-15","7",,,,,,,,,,,,,,,,,,,,,,,,,,,,"2009-05-01"
"74486094789","2020-06-29T23:59:00","SOD  ","6",,"ESE","1.5","mi","TEMP, PRECIP, SNOW",,,"PSY, SRG, SNOWBOARD",,,"FAA CWO",,,,"64","79","65","29.81","29.77","69","10.3","14","4.9","0","89","68","040","26","0.02","0","0.0","040","21","TS RA",,,,,,,,,,,,,,,,,,,,,,,,,,,,,,,,,,,,,,,,,,,,,,,,,,,,,,,,"SOD75624 HR PRECIPITATION (IN): 0.02 SNOW DEPTH (IN):0     24 HR SNOWFALL (IN):0.0  WEATHER(CODE):3  24 HR MAX TEMP (F): 8924 HR MIN TEMP (F): 68AVERAGE STATION PRESSURE:29.770 MINIMUM SEA LEVEL PRESSURE:29.73 TIME OF OCCURRENCE:0212 PEAK WIND SPEED (MPH): 26 PEAK WIND DIR (DEG): 40 PEAK WIND TIME (LST):      FASTEST 2MIN SPEED (MPH): 21FASTEST 2MIN DIR (DEG): 40 FASTEST 2MIN TIME (LST):     AVERAGE WIND SPEED (MPH):10.3 24 HR AVG TEMP (F): 79DEPART FROM NORMAL:  5  HEATING DEGREE DAYS:  0 COOLING DEGREE DAYS: 14 LATEST DAY MAX TEMP (0700-1900 LST):89  LATEST NIGHT MIN TEMP(1900-0800 LST):68 HOURLY INCREMENTAL PRECIPITATION VALUES (IN):.00 0.00 0.00 0.00 0.00 0.00 0.00 0.00 0.00 0.00 0.00 0.00 0.00 0.00 0.00 0.00 0.00 T    0.02 0.00 0.00 0.00 0.00 0.00","SOD  ","6",,,,,,,,,,,,,,,,,,,,,,,,,"0427","1930",,"2009-05-01"
"74486094789","2020-06-30T00:51:00","FM-15","7",,"ESE","1.5","mi","TEMP, PRECIP, SNOW",,,"PSY, SRG, SNOWBOARD",,,"FAA CWO",,,,,,,,,,,,,,,,,,,,,,,,,,,"29.88","64","70","0.00",,"-0.01","1","82","29.88","FEW:02 25 FEW:02 120","29.85","10.00","66","360",,"9",,,,,,,,,,,,,,,,,,,,,,,,,,,,,,,,,,,,,"MET12306/30/20 00:51:02 METAR KJFK 300551Z 36008KT 10SM FEW025 FEW120 21/18 A2988 RMK AO2 SLP118 T02110178 10239 20211 51002 (JC)","FM-15","7",,,,,,,,,,,,,,,,,,,,,,,,,,,,"2009-05-01"
"74486094789","2020-06-30T01:00:00","FM-12","4",,"ESE","1.5","mi","TEMP, PRECIP, SNOW",,,"PSY, SRG, SNOWBOARD",,,"FAA CWO",,,,,,,,,,,,,,,,,,,,,,,,,,,,"64","70",,,"-0.01","1","82","29.88","26","29.85","9.94","66","360",,"9",,,,,,,,,,,,,,,,,,,,,,,,,,,,,,,,,,,,,"SYN08074486 32566 23608 10211 20178 30107 40118 51002 90551 333 10239 20200 555 93006=","FM-12","4",,,,,,,,,,,,,,,,,,,,,,,,,,,,"2009-05-01"
"74486094789","2020-06-30T01:51:00","FM-15","7",,"ESE","1.5","mi","TEMP, PRECIP, SNOW",,,"PSY, SRG, SNOWBOARD",,,"FAA CWO",,,,,,,,,,,,,,,,,,,,,,,,,,,"29.87","64","69","0.00",,,,"84","29.87","FEW:02 120 FEW:02 250","29.85","10.00","66","360",,"10",,,,,,,,,,,,,,,,,,,,,,,,,,,,,,,,,,,,,"MET10506/30/20 01:51:02 METAR KJFK 300651Z 36009KT 10SM FEW120 FEW250 21/18 A2987 RMK AO2 SLP114 T02060178 (JC)","FM-15","7",,,,,,,,,,,,,,,,,,,,,,,,,,,,"2009-05-01"
"74486094789","2020-06-30T02:51:00","FM-15","7",,"ESE","1.5","mi","TEMP, PRECIP, SNOW",,,"PSY, SRG, SNOWBOARD",,,"FAA CWO",,,,,,,,,,,,,,,,,,,,,,,,,,,"29.87","63","68","0.00",,,,"84","29.87","FEW:02 50 FEW:02 250","29.85","10.00","65","360",,"7",,,,,,,,,,,,,,,,,,,,,,,,,,,,,,,,,,,,,"MET10506/30/20 02:51:02 METAR KJFK 300751Z 36006KT 10SM FEW050 FEW250 20/17 A2987 RMK AO2 SLP114 T02000172 (JC)","FM-15","7",,,,,,,,,,,,,,,,,,,,,,,,,,,,"2009-05-01"
"74486094789","2020-06-30T03:51:00","FM-15","7",,"ESE","1.5","mi","TEMP, PRECIP, SNOW",,,"PSY, SRG, SNOWBOARD",,,"FAA CWO",,,,,,,,,,,,,,,,,,,,,,,,,,,"29.88","63","68","0.00",,"-0.00","3","84","29.88","FEW:02 50 FEW:02 250","29.85","10.00","65","340",,"10",,,,,,,,,,,,,,,,,,,,,,,,,,,,,,,,,,,,,"MET11106/30/20 03:51:02 METAR KJFK 300851Z 34009KT 10SM FEW050 FEW250 20/17 A2988 RMK AO2 SLP119 T02000172 53001 (JC)","FM-15","7",,,,,,,,,,,,,,,,,,,,,,,,,,,,"2009-05-01"
"74486094789","2020-06-30T04:00:00","FM-12","4",,"ESE","1.5","mi","TEMP, PRECIP, SNOW",,,"PSY, SRG, SNOWBOARD",,,"FAA CWO",,,,,,,,,,,,,,,,,,,,,,,,,,,,"63","68",,,"-0.00","3","84","29.88","57","29.85","9.94","65","340",,"10",,,,,,,,,,,,,,,,,,,,,,,,,,,,,,,,,,,,,"SYN06474486 32766 23409 10200 20172 30107 40119 53001 90851 555 93009=","FM-12","4",,,,,,,,,,,,,,,,,,,,,,,,,,,,"2009-05-01"
"74486094789","2020-06-30T04:51:00","FM-15","7",,"ESE","1.5","mi","TEMP, PRECIP, SNOW",,,"PSY, SRG, SNOWBOARD",,,"FAA CWO",,,,,,,,,,,,,,,,,,,,,,,,,,,"29.89","63","68","0.00",,,,"84","29.89","FEW:02 22 SCT:04 55 SCT:04 250","29.87","10.00","65","350",,"9",,,,,,,,,,,,,,,,,,,,,,,,,,,,,,,,,,,,,"MET11206/30/20 04:51:02 METAR KJFK 300951Z 35008KT 10SM FEW022 SCT055 SCT250 20/17 A2989 RMK AO2 SLP122 T02000172 (JC)","FM-15","7",,,,,,,,,,,,,,,,,,,,,,,,,,,,"2009-05-01"
"74486094789","2020-06-30T05:51:00","FM-15","7",,"ESE","1.5","mi","TEMP, PRECIP, SNOW",,,"PSY, SRG, SNOWBOARD",,,"FAA CWO",,,,,,,,,,,,,,,,,,,,,,,,,,,"29.88","63","70","0.00",,,,"79","29.88","FEW:02 23 SCT:04 55 BKN:07 250","29.85","10.00","66","360",,"13",,,,,,,,,,,,,,,,,,,,,,,,,,,,,,,,,,,,,"MET11206/30/20 05:51:02 METAR KJFK 301051Z 36011KT 10SM FEW023 SCT055 BKN250 21/17 A2988 RMK AO2 SLP118 T02110172 (DM)","FM-15","7",,,,,,,,,,,,,,,,,,,,,,,,,,,,"2009-05-01"
"74486094789","2020-06-30T06:51:00","FM-15","7",,"ESE","1.5","mi","TEMP, PRECIP, SNOW",,,"PSY, SRG, SNOWBOARD",,,"FAA CWO",,,,,,,,,,,,,,,,,,,,,,,,,,,"29.89","63","72","0.00",,"-0.01","3","73","29.89","SCT:04 25 SCT:04 150 SCT:04 250","29.87","10.00","66","010",,"8",,,,,,,,,,,,,,,,,,,,,,,,,,,,,,,,,,,,,"MET13606/30/20 06:51:02 METAR KJFK 301151Z 01007KT 10SM SCT025 SCT150 SCT250 22/17 A2989 RMK AO2 SLP122 70002 T02220172 10222 20194 53003 (DM)","FM-15","7",,,,,,,,,,,,,,,,,,,,,,,,,,,,"2009-05-01"
"74486094789","2020-06-30T07:00:00","FM-12","4",,"ESE","1.5","mi","TEMP, PRECIP, SNOW",,,"PSY, SRG, SNOWBOARD",,,"FAA CWO",,,,,,,,,,,,,,,,,,,,,,,,,,,,"63","72",,,"-0.01","3","73","29.89","26","29.86","9.94","66","010",,"8",,,,,,,,,,,,,,,,,,,,,,,,,,,,,,,,,,,,,"SYN08674486 32566 40107 10222 20172 30111 40122 53003 91151 333 10317 20194 70005 555 93012=","FM-12","4",,,,,,,,,,,,,,,,,,,,,,,,,,,,"2009-05-01"
"74486094789","2020-06-30T07:51:00","FM-15","7",,"ESE","1.5","mi","TEMP, PRECIP, SNOW",,,"PSY, SRG, SNOWBOARD",,,"FAA CWO",,,,,,,,,,,,,,,,,,,,,,,,,,,"29.90","63","73","0.00",,,,"71","29.90","SCT:04 22 SCT:04 130 SCT:04 250","29.88","10.00","67","020",,"8",,,,,,,,,,,,,,,,,,,,,,,,,,,,,,,,,,,,,"MET12506/30/20 07:51:02 METAR KJFK 301251Z 02007KT 10SM SCT022 SCT130 SCT250 23/17 A2990 RMK AO2 SLP124 SCT022 V BKN T02280172 (DM)","FM-15","7",,,,,,,,,,,,,,,,,,,,,,,,,,,,"2009-05-01"
"74486094789","2020-06-30T08:51:00","FM-15","7",,"ESE","1.5","mi","TEMP, PRECIP, SNOW",,,"PSY, SRG, SNOWBOARD",,,"FAA CWO",,,,,,,,,,,,,,,,,,,,,,,,,,,"29.91","62","74","0.00",,,,"67","29.91","SCT:04 26 BKN:07 50 BKN:07 120","29.88","10.00","67","040",,"7",,,,,,,,,,,,,,,,,,,,,,,,,,,,,,,,,,,,,"MET11206/30/20 08:51:02 METAR KJFK 301351Z 04006KT 10SM SCT026 BKN050 BKN120 23/17 A2991 RMK AO2 SLP127 T02330167 (DM)","FM-15","7",,,,,,,,,,,,,,,,,,,,,,,,,,,,"2009-05-01"
"74486094789","2020-06-30T09:51:00","FM-15","7",,"ESE","1.5","mi","TEMP, PRECIP, SNOW",,,"PSY, SRG, SNOWBOARD",,,"FAA CWO",,,,,,,,,,,,,,,,,,,,,,,,,,,"29.91","61","77","0.00",,"-0.02","1","58","29.91","FEW:02 27 BKN:07 35 BKN:07 55","29.88","10.00","67","010",,"6",,,,,,,,,,,,,,,,,,,,,,,,,,,,,,,,,,,,,"MET11806/30/20 09:51:02 METAR KJFK 301451Z 01005KT 10SM FEW027 BKN035 BKN055 25/16 A2991 RMK AO2 SLP128 T02500161 51006 (DM)","FM-15","7",,,,,,,,,,,,,,,,,,,,,,,,,,,,"2009-05-01"
"74486094789","2020-06-30T10:00:00","FM-12","4",,"ESE","1.5","mi","TEMP, PRECIP, SNOW",,,"PSY, SRG, SNOWBOARD",,,"FAA CWO",,,,,,,,,,,,,,,,,,,,,,,,,,,,"61","77",,,"-0.02","1","58","29.91","26","29.88","9.94","67","010",,"6",,,,,,,,,,,,,,,,,,,,,,,,,,,,,,,,,,,,,"SYN06474486 32566 60105 10250 20161 30117 40128 51006 91451 555 93015=","FM-12","4",,,,,,,,,,,,,,,,,,,,,,,,,,,,"2009-05-01"
"74486094789","2020-06-30T10:51:00","FM-15","7",,"ESE","1.5","mi","TEMP, PRECIP, SNOW",,,"PSY, SRG, SNOWBOARD",,,"FAA CWO",,,,,,,,,,,,,,,,,,,,,,,,,,,"29.91","64","75","0.00",,,,"69","29.91","FEW:02 28 BKN:07 35 BKN:07 65","29.88","10.00","68","200",,"10",,,,,,,,,,,,,,,,,,,,,,,,,,,,,,,,,,,,,"MET11206/30/20 10:51:02 METAR KJFK 301551Z 20009KT 10SM FEW028 BKN035 BKN065 24/18 A2991 RMK AO2 SLP127 T02390178 (DM)","FM-15","7",,,,,,,,,,,,,,,,,,,,,,,,,,,,"2009-05-01"
"74486094789","2020-06-30T11:51:00","FM-15","7",,"ESE","1.5","mi","TEMP, PRECIP, SNOW",,,"PSY, SRG, SNOWBOARD",,,"FAA CWO",,,,,,,,,,,,,,,,,,,,,,,,,,,"29.90","64","73","0.00",,,,"74","29.90","SCT:04 29 BKN:07 36 BKN:07 70","29.88","10.00","67","170",,"9",,,,,,,,,,,,,,,,,,,,,,,,,,,,,,,,,,,,,"MET13306/30/20 11:51:02 METAR KJFK 301651Z 17008KT 10SM SCT029 BKN036 BKN070 23/18 A2990 RMK AO2 LTG DSNT NW SLP124 VCSH W-E T02280178 (DM)","FM-15","7",,,,,,,,,,,,,,,,,,,,,,,,,,,,"2009-05-01"
"74486094789","2020-06-30T12:51:00","FM-15","7",,"ESE","1.5","mi","TEMP, PRECIP, SNOW",,,"PSY, SRG, SNOWBOARD",,,"FAA CWO",,,,,,,,,,,,,,,,,,,,,,,,,,,"29.89","64","75","0.00",,"+0.01","7","69","29.89","FEW:02 29 SCT:04 40","29.87","10.00","68","190",,"11",,,,,,,,,,,,,,,,,,,,,,,,,,,,,,,,,,,,,"MET16006/30/20 12:51:02 METAR KJFK 301751Z 19010KT 10SM FEW029 SCT040TCU BKN 24/18 A2989 RMK AO2 LTG DSNT E SLP123 TCU ALQDS VCSH W-E T02390178 10256 20222 57005 (DM)","FM-15","7",,,,,,,,,,,,,,,,,,,,,,,,,,,,"2009-05-01"
"74486094789","2020-06-30T13:00:00","FM-12","4",,"ESE","1.5","mi","TEMP, PRECIP, SNOW",,,"PSY, SRG, SNOWBOARD",,,"FAA CWO",,,,,,,,,,,,,,,,,,,,,,,,,,,,"64","75",,,"+0.01","7","69","29.89","26","29.86","9.94","68","190",,"11",,,,,,,,,,,,,,,,,,,,,,,,,,,,,,,,,,,,,"SYN08074486 32566 61910 10239 20178 30111 40123 57005 91751 333 10256 20222 555 93018=","FM-12","4",,,,,,,,,,,,,,,,,,,,,,,,,,,,"2009-05-01"
"74486094789","2020-06-30T13:51:00","FM-15","7",,"ESE","1.5","mi","TEMP, PRECIP, SNOW",,,"PSY, SRG, SNOWBOARD",,,"FAA CWO",,,,,,,,,,,,,,,,,,,,,,,,,,,"29.88","64","78","0.00",,,,"62","29.88","SCT:04 36 BKN:07 60","29.85","10.00","69","080",,"7",,,,,,,,,,,,,,,,,,,,,,,,,,,,,,,,,,,,,"MET13906/30/20 13:51:02 METAR KJFK 301851Z 08006KT 10SM SCT036TCU BKN060 BKN 26/18 A2988 RMK AO2 SLP117 TCU OHD AND NE-E VCSH NE-E T02560178 (RR)","FM-15","7",,,,,,,,,,,,,,,,,,,,,,,,,,,,"2009-05-01"
"74486094789","2020-06-30T14:51:00","FM-15","7",,"ESE","1.5","mi","TEMP, PRECIP, SNOW",,,"PSY, SRG, SNOWBOARD",,,"FAA CWO",,,,,,,,,,,,,,,,,,,,,,,,,,,"29.88","64","73","0.00",,,,"74","29.88","FEW:02 32 BKN:07 41 BKN:07 120","29.85","10.00","67","130",,"8",,,,,,,,,,,,,,,,,,,,,,,,,,,,,,,,,,,,,"MET11906/30/20 14:51:02 METAR KJFK 301951Z 13007KT 10SM FEW032 BKN041 BKN120 23/18 A2988 RMK AO2 SLP117 VCSH W T02280178 (RR)","FM-15","7",,,,,,,,,,,,,,,,,,,,,,,,,,,,"2009-05-01"
"74486094789","2020-06-30T15:51:00","FM-15","7",,"ESE","1.5","mi","TEMP, PRECIP, SNOW",,,"PSY, SRG, SNOWBOARD",,,"FAA CWO",,,,,,,,,,,,,,,,,,,,,,,,,,,"29.87","65","76","0.00",,"+0.02","6","69","29.87","FEW:02 27 SCT:04 45 SCT:04 80","29.85","10.00","69","120",,"8",,,,,,,,,,,,,,,,,,,,,,,,,,,,,,,,,,,,,"MET13106/30/20 15:51:02 METAR KJFK 302051Z 12007KT 10SM FEW027 SCT045TCU SCT 24/18 A2987 RMK AO2 SLP116 TCU W VCSH W T02440183 56007 (RR)","FM-15","7",,,,,,,,,,,,,,,,,,,,,,,,,,,,"2009-05-01"
"74486094789","2020-06-30T16:00:00","FM-12","4",,"ESE","1.5","mi","TEMP, PRECIP, SNOW",,,"PSY, SRG, SNOWBOARD",,,"FAA CWO",,,,,,,,,,,,,,,,,,,,,,,,,,,,"65","76",,,"+0.02","6","69","29.87","26","29.84","9.94","69","120",,"8",,,,,,,,,,,,,,,,,,,,,,,,,,,,,,,,,,,,,"SYN06474486 32566 61207 10244 20183 30104 40116 56007 92051 555 93021=","FM-12","4",,,,,,,,,,,,,,,,,,,,,,,,,,,,"2009-05-01"
"74486094789","2020-06-30T16:51:00","FM-15","7",,"ESE","1.5","mi","TEMP, PRECIP, SNOW",,,"PSY, SRG, SNOWBOARD",,,"FAA CWO",,,,,,,,,,,,,,,,,,,,,,,,,,,"29.88","65","76","0.00",,,,"69","29.88","FEW:02 32 SCT:04 47 BKN:07 75","29.85","10.00","69","180",,"10",,,,,,,,,,,,,,,,,,,,,,,,,,,,,,,,,,,,,"MET13106/30/20 16:51:02 METAR KJFK 302151Z 18009KT 10SM FEW032 SCT047 BKN075 24/18 A2988 RMK AO2 SLP117 TCU DSNT E VCSH SW T02440183 (RR)","FM-15","7",,,,,,,,,,,,,,,,,,,,,,,,,,,,"2009-05-01"
"74486094789","2020-06-30T17:51:00","FM-15","7",,"ESE","1.5","mi","TEMP, PRECIP, SNOW",,,"PSY, SRG, SNOWBOARD",,,"FAA CWO",,,,,,,,,,,,,,,,,,,,,,,,,,,"29.88","64","75","0.00",,,,"69","29.88","FEW:02 32 SCT:04 47 BKN:07 110","29.85","10.00","68","240",,"7",,,,,,,,,,,,,,,,,,,,,,,,,,,,,,,,,,,,,"MET11206/30/20 17:51:02 METAR KJFK 302251Z 24006KT 10SM FEW032 SCT047 BKN110 24/18 A2988 RMK AO2 SLP118 T02390178 (RR)","FM-15","7",,,,,,,,,,,,,,,,,,,,,,,,,,,,"2009-05-01"
"74486094789","2020-06-30T18:51:00","FM-15","7",,"ESE","1.5","mi","TEMP, PRECIP, SNOW",,,"PSY, SRG, SNOWBOARD",,,"FAA CWO",,,,,,,,,,,,,,,,,,,,,,,,,,,"29.88","64","73","0.00",,"-0.01","1","74","29.88","FEW:02 33 SCT:04 47 BKN:07 130","29.85","10.00","67","230",,"6",,,,,,,,,,,,,,,,,,,,,,,,,,,,,,,,,,,,,"MET13006/30/20 18:51:02 METAR KJFK 302351Z 23005KT 10SM FEW033 SCT047 BKN130 23/18 A2988 RMK AO2 SLP119 T02280178 10272 20222 51003 (RR)","FM-15","7",,,,,,,,,,,,,,,,,,,,,,,,,,,,"2009-05-01"
"74486094789","2020-06-30T19:00:00","FM-12","4",,"ESE","1.5","mi","TEMP, PRECIP, SNOW",,,"PSY, SRG, SNOWBOARD",,,"FAA CWO",,,,,,,,,,,,,,,,,,,,,,,,,,,,"64","73",,,"-0.01","1","74","29.88","26","29.85","9.94","67","230",,"6",,,,,,,,,,,,,,,,,,,,,,,,,,,,,,,,,,,,,"SYN08074486 32566 62305 10228 20178 30107 40119 51003 92351 333 10272 20222 555 90100=","FM-12","4",,,,,,,,,,,,,,,,,,,,,,,,,,,,"2009-05-01"
"74486094789","2020-06-30T19:51:00","FM-15","7",,"ESE","1.5","mi","TEMP, PRECIP, SNOW",,,"PSY, SRG, SNOWBOARD",,,"FAA CWO",,,,,,,,,,,,,,,,,,,,,,,,,,,"29.88","64","70","0.00",,,,"82","29.88","FEW:02 29 SCT:04 47 SCT:04 80","29.85","10.00","66","230",,"5",,,,,,,,,,,,,,,,,,,,,,,,,,,,,,,,,,,,,"MET12106/30/20 19:51:03 METAR KJFK 010051Z 23004KT 10SM FEW029 SCT047TCU SCT 21/18 A2988 RMK AO2 SLP119 TCU N-NE T02110178 (RR)","FM-15","7",,,,,,,,,,,,,,,,,,,,,,,,,,,,"2009-05-01"
"74486094789","2020-06-30T20:51:00","FM-15","7",,"ESE","1.5","mi","TEMP, PRECIP, SNOW",,,"PSY, SRG, SNOWBOARD",,,"FAA CWO",,,,,,,,,,,,,,,,,,,,,,,,,,,"29.90","66","70","0.00",,,,"87","29.90","SCT:04 31 SCT:04 45 SCT:04 130","29.88","10.00","67","100",,"5",,,,,,,,,,,,,,,,,,,,,,,,,,,,,,,,,,,,,"MET11206/30/20 20:51:03 METAR KJFK 010151Z 10004KT 10SM SCT031 SCT045 SCT130 21/19 A2990 RMK AO2 SLP125 T02110189 (RR)","FM-15","7",,,,,,,,,,,,,,,,,,,,,,,,,,,,"2009-05-01"
"74486094789","2020-06-30T21:51:00","FM-15","7",,"ESE","1.5","mi","TEMP, PRECIP, SNOW",,,"PSY, SRG, SNOWBOARD",,,"FAA CWO",,,,,,,,,,,,,,,,,,,,,,,,,,,"29.90","66","70","0.00",,"-0.01","0","87","29.89","FEW:02 31 FEW:02 130 SCT:04 250","29.88","10.00","67","VRB",,"3",,,,,,,,,,,,,,,,,,,,,,,,,,,,,,,,,,,,,"MET11806/30/20 21:51:03 METAR KJFK 010251Z VRB03KT 10SM FEW031 FEW130 SCT250 21/19 A2990 RMK AO2 SLP123 T02110189 50004 (JC)","FM-15","7",,,,,,,,,,,,,,,,,,,,,,,,,,,,"2009-05-01"
"74486094789","2020-06-30T22:00:00","FM-12","4",,"ESE","1.5","mi","TEMP, PRECIP, SNOW",,,"PSY, SRG, SNOWBOARD",,,"FAA CWO",,,,,,,,,,,,,,,,,,,,,,,,,,,,"66","70",,,"0.01","9","87","29.89","26","29.87","9.94","67",,,"3",,,,,,,,,,,,,,,,,,,,,,,,,,,,,,,,,,,,,"SYN06474486 32566 4//03 10211 20189 30114 40123 50004 90251 555 90103=","FM-12","4",,,,,,,,,,,,,,,,,,,,,,,,,,,,"2009-05-01"
"74486094789","2020-06-30T22:51:00","FM-15","7",,"ESE","1.5","mi","TEMP, PRECIP, SNOW",,,"PSY, SRG, SNOWBOARD",,,"FAA CWO",,,,,,,,,,,,,,,,,,,,,,,,,,,"29.90","65","68","0.00",,,,"90","29.89","FEW:02 35 FEW:02 130 SCT:04 250","29.88","10.00","66","090",,"3",,,,,,,,,,,,,,,,,,,,,,,,,,,,,,,,,,,,,"MET11206/30/20 22:51:03 METAR KJFK 010351Z 09003KT 10SM FEW035 FEW130 SCT250 20/18 A2990 RMK AO2 SLP123 T02000183 (JC)","FM-15","7",,,,,,,,,,,,,,,,,,,,,,,,,,,,"2009-05-01"
"74486094789","2020-06-30T23:51:00","FM-15","7",,"ESE","1.5","mi","TEMP, PRECIP, SNOW",,,"PSY, SRG, SNOWBOARD",,,"FAA CWO",,,,,,,,,,,,,,,,,,,,,,,,,,,"29.90","66","68","0.00",,,,"93","29.89","FEW:02 35 FEW:02 120 SCT:04 250","29.88","10.00","67","090",,"3",,,,,,,,,,,,,,,,,,,,,,,,,,,,,,,,,,,,,"MET12206/30/20 23:51:03 METAR KJFK 010451Z 09003KT 10SM FEW035 FEW120 SCT250 20/19 A2990 RMK AO2 SLP123 T02000189 402720194 (JC)","FM-15","7",,,,,,,,,,,,,,,,,,,,,,,,,,,,"2009-05-01"
"74486094789","2020-06-30T23:59:00","SOD  ","6",,"ESE","1.5","mi","TEMP, PRECIP, SNOW",,,"PSY, SRG, SNOWBOARD",,,"FAA CWO",,,,,"74",,,"29.86",,"7.7","9","-0.3","0","81","67",,,"0.00","0","0.0","160","21",,,,,,,,,,,,,,,,,,,,,,,,,,,,,,,,,,,,,,,,,,,,,,,,,,,,,,,,,"SOD73924 HR PRECIPITATION (IN): 0.00 SNOW DEPTH (IN):0     24 HR SNOWFALL (IN):0.0  24 HR MAX TEMP (F): 8124 HR MIN TEMP (F): 67AVERAGE STATION PRESSURE:29.860 MINIMUM SEA LEVEL PRESSURE:29.86 TIME OF OCCURRENCE:0219 PEAK WIND SPEED (MPH): 68 PEAK WIND DIR (DEG):210 PEAK WIND TIME (LST):      FASTEST 2MIN SPEED (MPH): 21FASTEST 2MIN DIR (DEG):160 FASTEST 2MIN TIME (LST):     AVERAGE WIND SPEED (MPH): 7.7 24 HR AVG TEMP (F): 74DEPART FROM NORMAL:  0  HEATING DEGREE DAYS:  0 COOLING DEGREE DAYS:  9 LATEST DAY MAX TEMP (0700-1900 LST):81  LATEST NIGHT MIN TEMP(1900-0800 LST):67 HOURLY INCREMENTAL PRECIPITATION VALUES (IN):.00 0.00 0.00 0.00 0.00 0.00 0.00 0.00 0.00 0.00 0.00 0.00 0.00 0.00 0.00 0.00 0.00 0.00 0.00 0.00 0.00 0.00 0.00 0.00","SOD  ","6",,,,,,,,,,,,,,,,,,,,,,,,,"0428","1930",,"2009-05-01"
"74486094789","2020-06-30T23:59:00","SOM  ","6","10.1","ESE","1.5","mi","TEMP, PRECIP, SNOW",,,"PSY, SRG, SNOWBOARD",,,"FAA CWO","213","201","0",,,,,,,,,,,,,,,,,,,,,"4545","7",,,,,,,,,,,,,,,,,,,"8","7","0","0","0","0","1.1","18","-14","2.0","0.1","-0.70",,"0.82","04-05","0",,"0.0",,"30.43","15","0751","80.0","71.5","29.62","03","1551","62.9","29.99","29.96","3.16",,,"183","21","SOM843PCP MTOT:3.16 PCP GT 24HRS:0.82 DATE(S):4-5 DAYS W/PCP >=.01:7  DAYS W/PCP >=.10:6  DAYS W/ PCP >=.50:3 DAYS W/PCP >=1.00:0 MSDP AMTS W/DATE-TIME TAGS:MIN:5 0.16  05/1601 MIN:10 0.25  28/1835 MIN:15 0.35  28/1835 MIN:20 0.44  28/1840 MIN:30 0.58  11/1347 MIN:45 0.64  11/1401 MIN:60 0.69  11/1415 MIN:80 0.71  11/1421 MIN:100 0.76  11/1456 MIN:120 0.76  11/1456 MIN:150 0.76  11/1456 MIN:180 0.77  11/1602 SN GT DP ON GRND:0 SN GT IN 24HRS:0.0 SN MTOT:0.0 AVG DLY MIN:62.9  AVG DLY MAX:80.0  AVG MLY TMP:71.5  MIN TMP:51 DATE(S):01 MAX TMP:89  DATE(S):29 DAYS MAX <=32:0 DAYS MAX >=90:0  DAYS MIN <=32:0  DAYS MIN  <=0:0  AVG STP:29.965 LWST SLP:29.57 DATE/TIME:031322 HGST SLP:30.44 DATE/TIME:150746 HDD MTH TOT:5 DEP NORM:-2553 SEASON(JUL 1-JUN 30):4463 DEP NORM:-25536 CDD MTH TOT:206 DEP NORM:-2553 SEASON(JAN 1-DEC 31):220 DEP NORM:-25536","SOM  ","6","2020-06-05 16:01","2020-06-28 18:35","2020-06-28 18:35","2020-06-28 18:40","2020-06-11 13:47","2020-06-11 14:01","2020-06-11 14:15","2020-06-11 14:21","2020-06-11 14:56","2020-06-11 14:56","2020-06-11 14:56","2020-06-11 16:02","0.16","0.25","0.35","0.44","0.58","0.64","0.69","0.71","0.76","0.76","0.76","0.77",,,,"2009-05-01"
"74486094789","2020-07-01T00:51:00","FM-15","7",,"ESE","1.5","mi","TEMP, PRECIP, SNOW",,,"PSY, SRG, SNOWBOARD",,,"FAA CWO",,,,,,,,,,,,,,,,,,,,,,,,,,,"29.89","67","69","0.00",,"+0.00","8","93","29.89","BKN:07 46 BKN:07 250","29.87","10.00","68","000",,"0",,,,,,,,,,,,,,,,,,,,,,,,,,,,,,,,,,,,,"MET12307/01/20 00:51:02 METAR KJFK 010551Z 00000KT 10SM BKN046 BKN250 21/19 A2989 RMK AO2 SLP122 T02060194 10228 20200 58001 (JC)","FM-15","7",,,,,,,,,,,,,,,,,,,,,,,,,,,,"2009-05-01"
"74486094789","2020-07-01T01:00:00","FM-12","4",,"ESE","1.5","mi","TEMP, PRECIP, SNOW",,,"PSY, SRG, SNOWBOARD",,,"FAA CWO",,,,,,,,,,,,,,,,,,,,,,,,,,,,"67","69",,,"+0.00","8","93","29.89","41","29.86","9.94","68","000",,"0",,,,,,,,,,,,,,,,,,,,,,,,,,,,,,,,,,,,,"SYN08074486 32666 60000 10206 20194 30111 40122 58001 90551 333 10256 20200 555 90106=","FM-12","4",,,,,,,,,,,,,,,,,,,,,,,,,,,,"2009-05-01"
"74486094789","2020-07-01T01:51:00","FM-15","7",,"ESE","1.5","mi","TEMP, PRECIP, SNOW",,,"PSY, SRG, SNOWBOARD",,,"FAA CWO",,,,,,,,,,,,,,,,,,,,,,,,,,,"29.88","66","68","0.00",,,,"93","29.88","FEW:02 11 SCT:04 49 BKN:07 240","29.85","10.00","67","040",,"3",,,,,,,,,,,,,,,,,,,,,,,,,,,,,,,,,,,,,"MET11207/01/20 01:51:02 METAR KJFK 010651Z 04003KT 10SM FEW011 SCT049 BKN240 20/19 A2988 RMK AO2 SLP117 T02000189 (JC)","FM-15","7",,,,,,,,,,,,,,,,,,,,,,,,,,,,"2009-05-01"
"74486094789","2020-07-01T02:51:00","FM-15","7",,"ESE","1.5","mi","TEMP, PRECIP, SNOW",,,"PSY, SRG, SNOWBOARD",,,"FAA CWO",,,,,,,,,,,,,,,,,,,,,,,,,,,"29.88","65","67","0.00",,,,"93","29.88","FEW:02 11 FEW:02 49 BKN:07 160","29.85","10.00","66","000",,"0",,,,,,,,,,,,,,,,,,,,,,,,,,,,,,,,,,,,,"MET11207/01/20 02:51:02 METAR KJFK 010751Z 00000KT 10SM FEW011 FEW049 BKN160 19/18 A2988 RMK AO2 SLP117 T01940183 (JC)","FM-15","7",,,,,,,,,,,,,,,,,,,,,,,,,,,,"2009-05-01"
"74486094789","2020-07-01T03:51:00","FM-15","7",,"ESE","1.5","mi","TEMP, PRECIP, SNOW",,,"PSY, SRG, SNOWBOARD",,,"FAA CWO",,,,,,,,,,,,,,,,,,,,,,,,,,,"29.88","65","68","0.00",,"+0.01","5","90","29.88","FEW:02 11 SCT:04 170 BKN:07 250","29.85","10.00","66","000",,"0",,,,,,,,,,,,,,,,,,,,,,,,,,,,,,,,,,,,,"MET11807/01/20 03:51:02 METAR KJFK 010851Z 00000KT 10SM FEW011 SCT170 BKN250 20/18 A2988 RMK AO2 SLP119 T02000183 55003 (JC)","FM-15","7",,,,,,,,,,,,,,,,,,,,,,,,,,,,"2009-05-01"
"74486094789","2020-07-01T04:00:00","FM-12","4",,"ESE","1.5","mi","TEMP, PRECIP, SNOW",,,"PSY, SRG, SNOWBOARD",,,"FAA CWO",,,,,,,,,,,,,,,,,,,,,,,,,,,,"65","68",,,"+0.01","5","90","29.88","15","29.85","9.94","66","000",,"0",,,,,,,,,,,,,,,,,,,,,,,,,,,,,,,,,,,,,"SYN06474486 32466 60000 10200 20183 30107 40119 55003 90851 555 90109=","FM-12","4",,,,,,,,,,,,,,,,,,,,,,,,,,,,"2009-05-01"
"74486094789","2020-07-01T04:51:00","FM-15","7",,"ESE","1.5","mi","TEMP, PRECIP, SNOW",,,"PSY, SRG, SNOWBOARD",,,"FAA CWO",,,,,,,,,,,,,,,,,,,,,,,,,,,"29.89","65","67","0.00",,,,"93","29.89","FEW:02 11 SCT:04 160 BKN:07 250","29.87","10.00","66","050",,"5",,,,,,,,,,,,,,,,,,,,,,,,,,,,,,,,,,,,,"MET11207/01/20 04:51:02 METAR KJFK 010951Z 05004KT 10SM FEW011 SCT160 BKN250 19/18 A2989 RMK AO2 SLP122 T01940183 (JC)","FM-15","7",,,,,,,,,,,,,,,,,,,,,,,,,,,,"2009-05-01"
"74486094789","2020-07-01T05:51:00","FM-15","7",,"ESE","1.5","mi","TEMP, PRECIP, SNOW",,,"PSY, SRG, SNOWBOARD",,,"FAA CWO",,,,,,,,,,,,,,,,,,,,,,,,,,,"29.89","67","69","0.00",,,,"93","29.89","FEW:02 11 FEW:02 24 SCT:04 180","29.87","10.00","68","040",,"5",,,,,,,,,,,,,,,,,,,,,,,,,,,,,,,,,,,,,"MET11207/01/20 05:51:02 METAR KJFK 011051Z 04004KT 10SM FEW011 FEW024 SCT180 21/19 A2989 RMK AO2 SLP121 T02060194 (BH)","FM-15","7",,,,,,,,,,,,,,,,,,,,,,,,,,,,"2009-05-01"
"74486094789","2020-07-01T06:51:00","FM-15","7",,"ESE","1.5","mi","TEMP, PRECIP, SNOW",,,"PSY, SRG, SNOWBOARD",,,"FAA CWO",,,,,,,,,,,,,,,,,,,,,,,,,,,"29.89","66","71","0.00",,"-0.01","1","84","29.89","FEW:02 13 FEW:02 24 SCT:04 140","29.87","10.00","68","040",,"6",,,,,,,,,,,,,,,,,,,,,,,,,,,,,,,,,,,,,"MET13007/01/20 06:51:02 METAR KJFK 011151Z 04005KT 10SM FEW013 FEW024 SCT140 22/19 A2989 RMK AO2 SLP123 T02170189 10217 20189 51004 (BH)","FM-15","7",,,,,,,,,,,,,,,,,,,,,,,,,,,,"2009-05-01"
"74486094789","2020-07-01T07:00:00","FM-12","4",,"ESE","1.5","mi","TEMP, PRECIP, SNOW",,,"PSY, SRG, SNOWBOARD",,,"FAA CWO",,,,,,,,,,,,,,,,,,,,,,,,,,,,"66","71",,,"-0.01","1","84","29.89","15","29.86","9.94","68","040",,"6",,,,,,,,,,,,,,,,,,,,,,,,,,,,,,,,,,,,,"SYN08074486 32466 60405 10217 20189 30111 40123 51004 91151 333 10272 20189 555 90112=","FM-12","4",,,,,,,,,,,,,,,,,,,,,,,,,,,,"2009-05-01"
"74486094789","2020-07-01T07:51:00","FM-15","7",,"ESE","1.5","mi","TEMP, PRECIP, SNOW",,,"PSY, SRG, SNOWBOARD",,,"FAA CWO",,,,,,,,,,,,,,,,,,,,,,,,,,,"29.90","66","73","0.00",,,,"79","29.90","FEW:02 15 SCT:04 25 BKN:07 150","29.88","10.00","69","110",,"3",,,,,,,,,,,,,,,,,,,,,,,,,,,,,,,,,,,,,"MET11207/01/20 07:51:02 METAR KJFK 011251Z 11003KT 10SM FEW015 SCT025 BKN150 23/19 A2990 RMK AO2 SLP126 T02280189 (BH)","FM-15","7",,,,,,,,,,,,,,,,,,,,,,,,,,,,"2009-05-01"
"74486094789","2020-07-01T08:51:00","FM-15","7",,"ESE","1.5","mi","TEMP, PRECIP, SNOW",,,"PSY, SRG, SNOWBOARD",,,"FAA CWO",,,,,,,,,,,,,,,,,,,,,,,,,,,"29.91","65","76","0.00",,,,"69","29.91","FEW:02 17 SCT:04 25 BKN:07 140","29.88","10.00","69","VRB",,"3",,,,,,,,,,,,,,,,,,,,,,,,,,,,,,,,,,,,,"MET11207/01/20 08:51:02 METAR KJFK 011351Z VRB03KT 10SM FEW017 SCT025 BKN140 24/18 A2991 RMK AO2 SLP127 T02440183 (BH)","FM-15","7",,,,,,,,,,,,,,,,,,,,,,,,,,,,"2009-05-01"
"74486094789","2020-07-01T09:51:00","FM-15","7",,"ESE","1.5","mi","TEMP, PRECIP, SNOW",,,"PSY, SRG, SNOWBOARD",,,"FAA CWO",,,,,,,,,,,,,,,,,,,,,,,,,,,"29.91","64","78","0.00",,"-0.01","0","62","29.90","BKN:07 28 BKN:07 140 BKN:07 250","29.88","10.00","69","VRB",,"3",,,,,,,,,,,,,,,,,,,,,,,,,,,,,,,,,,,,,"MET15307/01/20 09:51:02 METAR KJFK 011451Z VRB03KT 10SM BKN028CB BKN140 BKN250 26/18 A2991 RMK AO2 SLP126 CB NW MOV SE TCU DSNT SW VCSH NW T02560178 50004 (BH)","FM-15","7",,,,,,,,,,,,,,,,,,,,,,,,,,,,"2009-05-01"
"74486094789","2020-07-01T09:55:00","FM-16","7",,"ESE","1.5","mi","TEMP, PRECIP, SNOW",,,"PSY, SRG, SNOWBOARD",,,"FAA CWO",,,,,,,,,,,,,,,,,,,,,,,,,,,"29.91","64","79",,"TS:7 |TS TS |",,,"60",,"BKN:07 28 BKN:07 140 BKN:07 250","29.88","10.00","69","VRB",,"5",,,,,,,,,,,,,,,,,,,,,,,,,,,,,,,,,,,,,"MET16707/01/20 09:55:02 SPECI KJFK 011455Z VRB04KT 10SM TS BKN028CB BKN140 BKN250 26/18 A2991 RMK AO2 TSB55 OCNL LTGICCG NW TS NW MOV SE TCU DSNT SW VCSH NW T02610178 $ (BH)","FM-16","7",,,,,,,,,,,,,,,,,,,,,,,,,,,,"2009-05-01"
"74486094789","2020-07-01T10:00:00","FM-12","4",,"ESE","1.5","mi","TEMP, PRECIP, SNOW",,,"PSY, SRG, SNOWBOARD",,,"FAA CWO",,,,,,,,,,,,,,,,,,,,,,,,,,,,"64","78",,,"0.01","9","62","29.90","26","29.88","9.94","69",,,"3",,,,,,,,,,,,,,,,,,,,,,,,,,,,,,,,,,,,,"SYN06474486 32566 6//03 10256 20178 30117 40126 50004 91451 555 90115=","FM-12","4",,,,,,,,,,,,,,,,,,,,,,,,,,,,"2009-05-01"
"74486094789","2020-07-01T10:33:00","FM-16","7",,"ESE","1.5","mi","TEMP, PRECIP, SNOW",,,"PSY, SRG, SNOWBOARD",,,"FAA CWO",,,,,,,,,,,,,,,,,,,,,,,,,,,"29.90","69","72","0.04","-RA:02 BR:1 |RA |",,,"91",,"SCT:04 24 BKN:07 36 BKN:07 140","29.88","8.00","70","260",,"8",,,,,,,,,,,,,,,,,,,,,,,,,,,,,,,,,,,,,"MET18207/01/20 10:33:02 SPECI KJFK 011533Z 26007KT 8SM +RA SCT024 BKN036CB BKN1 22/21 A2990 RMK AO2 LTG DSNT SW AND W RAB10 TSB1455E32 CB OHD-E AND DSNT SW-NW MOV SE P0004 T02220206 $ (BH)","FM-16","7",,,,,,,,,,,,,,,,,,,,,,,,,,,,"2009-05-01"
"74486094789","2020-07-01T10:51:00","FM-15","7",,"ESE","1.5","mi","TEMP, PRECIP, SNOW",,,"PSY, SRG, SNOWBOARD",,,"FAA CWO",,,,,,,,,,,,,,,,,,,,,,,,,,,"29.90","69","73","0.05",,,,"87","29.90","FEW:02 27 SCT:04 36","29.88","10.00","70","210",,"6",,,,,,,,,,,,,,,,,,,,,,,,,,,,,,,,,,,,,"MET20307/01/20 10:51:02 METAR KJFK 011551Z 21005KT 10SM FEW027 SCT036TCU BKN 23/21 A2990 RMK AO2 LTG DSNT SW-NW RAB10E50 TSB1455E32 SLP124 CB DSNT SW-NW MOV SE TCU E AND SW VCSH E AND SW P0005 T02280206 $ (BH)","FM-15","7",,,,,,,,,,,,,,,,,,,,,,,,,,,,"2009-05-01"
"74486094789","2020-07-01T11:33:00","FM-16","7",,"ESE","1.5","mi","TEMP, PRECIP, SNOW",,,"PSY, SRG, SNOWBOARD",,,"FAA CWO",,,,,,,,,,,,,,,,,,,,,,,,,,,"29.89","69","75",,"|TS |",,,"82",,"FEW:02 17 SCT:04 38","29.87","10.00","71","180",,"8",,,,,,,,,,,,,,,,,,,,,,,,,,,,,,,,,,,,,"MET18907/01/20 11:33:02 SPECI KJFK 011633Z 18007KT 10SM TS FEW017 SCT038CB BKN0 24/21 A2989 RMK AO2 LTG DSNT SW-NW TSB33 OCNL LTGCG NW TS NW MOV SE TCU NE AND SE VCSH SE AND W-NW T02390206 $ (BH)","FM-16","7",,,,,,,,,,,,,,,,,,,,,,,,,,,,"2009-05-01"
"74486094789","2020-07-01T11:51:00","FM-15","7",,"ESE","1.5","mi","TEMP, PRECIP, SNOW",,,"PSY, SRG, SNOWBOARD",,,"FAA CWO",,,,,,,,,,,,,,,,,,,,,,,,,,,"29.90","67","74","0.00","|TS |",,,"79","29.90","FEW:02 17 SCT:04 34","29.88","10.00","69","200",,"11",,,,,,,,,,,,,,,,,,,,,,,,,,,,,,,,,,,,,"MET20007/01/20 11:51:02 METAR KJFK 011651Z 20010KT 10SM TS FEW017 SCT034CB BKN0 23/19 A2990 RMK AO2 LTG DSNT SW-NW TSB33 SLP124 OCNL LTGICCG W-NW TS W-NW MOV SE TCU NE AND DSNT SE VCSH W-NW T02330194 $ (BH)","FM-15","7",,,,,,,,,,,,,,,,,,,,,,,,,,,,"2009-05-01"
"74486094789","2020-07-01T12:49:00","FM-16","6",,"ESE","1.5","mi","TEMP, PRECIP, SNOW",,,"PSY, SRG, SNOWBOARD",,,"FAA CWO",,,,,,,,,,,,,,,,,,,,,,,,,,,"29.88","68","72",,,,,"88",,"FEW:02 15 SCT:04 36","29.85","10.00","69","230",,"7",,,,,,,,,,,,,,,,,,,,,,,,,,,,,,,,,,,,,"MET16307/01/20 12:49:02 SPECI KJFK 011749Z 23006KT 10SM -RA FEW015 SCT036TCU BKN 22/20 A2988 RMK AO2 RAB35 TSE49 CB DSNT NE AND DSNT SW MOV SE TCU E-SE P0000 $ FIBI (BH)","FM-16","6",,,,,,,,,,,,,,,,,,,,,,,,,,,,"2009-05-01"
"74486094789","2020-07-01T12:51:00","FM-15","7",,"ESE","1.5","mi","TEMP, PRECIP, SNOW",,,"PSY, SRG, SNOWBOARD",,,"FAA CWO",,,,,,,,,,,,,,,,,,,,,,,,,,,"29.88","68","72","T","|RA |","+0.02","8","87","29.88","FEW:02 15 SCT:04 36","29.85","10.00","69","240",,"7",,,,,,,,,,,,,,,,,,,,,,,,,,,,,,,,,,,,,"MET19907/01/20 12:51:02 METAR KJFK 011751Z 24006KT 10SM -RA FEW015 SCT036TCU BKN 22/20 A2988 RMK AO2 RAB35 TSE49 SLP118 CB DSNT NE AND DSNT SW MOV SE TCU E-SE P0000 60005 T02220200 10267 20217 58008 $ (BH)","FM-15","7",,,,,,,,,,,,,,,,,,,,,,,,,,,,"2009-05-01"
"74486094789","2020-07-01T13:00:00","FM-12","4",,"ESE","1.5","mi","TEMP, PRECIP, SNOW",,,"PSY, SRG, SNOWBOARD",,,"FAA CWO",,,,,,,,,,,,,,,,,,,,,,,,,,,,"68","72",,"||RA","+0.02","8","87","29.88","15","29.85","9.94","69","240",,"7",,,,,,,,,,,,,,,,,,,,,,,,,,,,,,,,,,,,,"SYN09274486 11466 62406 10222 20200 30107 40118 58008 60011 761// 91751 333 10267 20217 555 90118=","FM-12","4",,,,,,,,,,,,,,,,,,,,,,,,,,,,"2009-05-01"
"74486094789","2020-07-01T13:51:00","FM-15","7",,"ESE","1.5","mi","TEMP, PRECIP, SNOW",,,"PSY, SRG, SNOWBOARD",,,"FAA CWO",,,,,,,,,,,,,,,,,,,,,,,,,,,"29.86","67","73","T",,,,"81","29.86","FEW:02 15 FEW:02 36 SCT:04 130","29.83","10.00","69","220",,"7",,,,,,,,,,,,,,,,,,,,,,,,,,,,,,,,,,,,,"MET14907/01/20 13:51:02 METAR KJFK 011851Z 22006KT 10SM FEW015 FEW036 SCT130 23/19 A2986 RMK AO2 RAE26 SLP111 CB DSNT SW AND DSNT NW P0000 T02280194 $ (RR)","FM-15","7",,,,,,,,,,,,,,,,,,,,,,,,,,,,"2009-05-01"
"74486094789","2020-07-01T14:51:00","FM-15","7",,"ESE","1.5","mi","TEMP, PRECIP, SNOW",,,"PSY, SRG, SNOWBOARD",,,"FAA CWO",,,,,,,,,,,,,,,,,,,,,,,,,,,"29.85","66","76","0.00",,,,"72","29.85","FEW:02 36 SCT:04 130 BKN:07 250","29.83","10.00","70","200",,"6",,,,,,,,,,,,,,,,,,,,,,,,,,,,,,,,,,,,,"MET13807/01/20 14:51:02 METAR KJFK 011951Z 20005KT 10SM FEW036 SCT130 BKN250 24/19 A2985 RMK AO2 SLP109 CB DSNT NW-N TCU DSNT W T02440189 $ (RR)","FM-15","7",,,,,,,,,,,,,,,,,,,,,,,,,,,,"2009-05-01"
"74486094789","2020-07-01T15:51:00","FM-15","7",,"ESE","1.5","mi","TEMP, PRECIP, SNOW",,,"PSY, SRG, SNOWBOARD",,,"FAA CWO",,,,,,,,,,,,,,,,,,,,,,,,,,,"29.85","66","76","0.00",,"+0.03","6","72","29.85","SCT:04 36 SCT:04 100 SCT:04 250","29.83","10.00","70","210",,"14",,,,,,,,,,,,,,,,,,,,,,,,,,,,,,,,,,,,,"MET16907/01/20 15:51:02 METAR KJFK 012051Z 21012KT 10SM SCT036 SCT100 SCT250 24/19 A2985 RMK AO2 LTG DSNT NE AND NW SLP107 CB DSNT NW-N TCU DSNT N 60000 T02440189 56011 $ (RR)","FM-15","7",,,,,,,,,,,,,,,,,,,,,,,,,,,,"2009-05-01"
"74486094789","2020-07-01T16:00:00","FM-12","4",,"ESE","1.5","mi","TEMP, PRECIP, SNOW",,,"PSY, SRG, SNOWBOARD",,,"FAA CWO",,,,,,,,,,,,,,,,,,,,,,,,,,,,"66","76",,,"+0.03","6","72","29.85","41","29.82","9.94","70","210",,"14",,,,,,,,,,,,,,,,,,,,,,,,,,,,,,,,,,,,,"SYN07074486 12666 42112 10244 20189 30097 40107 56011 69907 92051 555 90121=","FM-12","4",,,,,,,,,,,,,,,,,,,,,,,,,,,,"2009-05-01"
"74486094789","2020-07-01T16:51:00","FM-15","7",,"ESE","1.5","mi","TEMP, PRECIP, SNOW",,,"PSY, SRG, SNOWBOARD",,,"FAA CWO",,,,,,,,,,,,,,,,,,,,,,,,,,,"29.84","66","74","0.00",,,,"76","29.84","SCT:04 36 BKN:07 130 BKN:07 250","29.82","10.00","69","200",,"15",,,,,,,,,,,,,,,,,,,,,,,,,,,,,,,,,,,,,"MET17307/01/20 16:51:02 METAR KJFK 012151Z 20013KT 10SM SCT036 BKN130 BKN250 23/19 A2984 RMK AO2 LTG DSNT ALQDS SLP105 CB DSNT SW AND DSNT NW TCU DSNT W-N VCSH NW T02330189 $ (RR)","FM-15","7",,,,,,,,,,,,,,,,,,,,,,,,,,,,"2009-05-01"
"74486094789","2020-07-01T17:51:00","FM-15","7",,"ESE","1.5","mi","TEMP, PRECIP, SNOW",,,"PSY, SRG, SNOWBOARD",,,"FAA CWO",,,,,,,,,,,,,,,,,,,,,,,,,,,"29.85","67","74","T","|RA |",,,"79","29.85","SCT:04 36 BKN:07 80","29.83","10.00","69","200",,"11",,,,,,,,,,,,,,,,,,,,,,,,,,,,,,,,,,,,,"MET17207/01/20 17:51:02 METAR KJFK 012251Z 20010KT 10SM -RA SCT036CB BKN080 BKN1 23/19 A2985 RMK AO2 LTG DSNT N AND E RAB51 SLP108 CB N-NE MOV SE VCSH N-NE P0000 T02330194 $ (RR)","FM-15","7",,,,,,,,,,,,,,,,,,,,,,,,,,,,"2009-05-01"
"74486094789","2020-07-01T18:51:00","FM-15","7",,"ESE","1.5","mi","TEMP, PRECIP, SNOW",,,"PSY, SRG, SNOWBOARD",,,"FAA CWO",,,,,,,,,,,,,,,,,,,,,,,,,,,"29.85","65","73","T",,"-0.00","3","76","29.85","SCT:04 36 SCT:04 80 BKN:07 110","29.83","10.00","68","200",,"8",,,,,,,,,,,,,,,,,,,,,,,,,,,,,,,,,,,,,"MET16207/01/20 18:51:02 METAR KJFK 012351Z 20007KT 10SM SCT036 SCT080 BKN110 23/18 A2985 RMK AO2 RAE24 SLP107 TCU DSNT NW P0000 60000 T02280183 10250 20222 53001 $ (RR)","FM-15","7",,,,,,,,,,,,,,,,,,,,,,,,,,,,"2009-05-01"
"74486094789","2020-07-01T19:00:00","FM-12","4",,"ESE","1.5","mi","TEMP, PRECIP, SNOW",,,"PSY, SRG, SNOWBOARD",,,"FAA CWO",,,,,,,,,,,,,,,,,,,,,,,,,,,,"65","73",,,"-0.00","3","76","29.85","41","29.82","9.94","68","200",,"8",,,,,,,,,,,,,,,,,,,,,,,,,,,,,,,,,,,,,"SYN08674486 12666 62007 10228 20183 30097 40107 53001 69901 92351 333 10267 20189 555 90200=","FM-12","4",,,,,,,,,,,,,,,,,,,,,,,,,,,,"2009-05-01"
"74486094789","2020-07-01T19:51:00","FM-15","7",,"ESE","1.5","mi","TEMP, PRECIP, SNOW",,,"PSY, SRG, SNOWBOARD",,,"FAA CWO",,,,,,,,,,,,,,,,,,,,,,,,,,,"29.85","67","72","0.00",,,,"84","29.85","SCT:04 36 SCT:04 120 BKN:07 180","29.83","10.00","69","220",,"8",,,,,,,,,,,,,,,,,,,,,,,,,,,,,,,,,,,,,"MET13707/01/20 19:51:01 METAR KJFK 020051Z 22007KT 10SM SCT036 SCT120 BKN180 22/19 A2985 RMK AO2 SLP108 OCNL LTGIC DSNT W CB DSNT W T02220194 $","FM-15","7",,,,,,,,,,,,,,,,,,,,,,,,,,,,"2009-05-01"
"74486094789","2020-07-01T20:51:00","FM-15","7",,"ESE","1.5","mi","TEMP, PRECIP, SNOW",,,"PSY, SRG, SNOWBOARD",,,"FAA CWO",,,,,,,,,,,,,,,,,,,,,,,,,,,"29.87","68","73","0.00",,,,"84","29.86","SCT:04 36 BKN:07 110 BKN:07 250","29.85","10.00","70","250",,"8",,,,,,,,,,,,,,,,,,,,,,,,,,,,,,,,,,,,,"MET18307/01/20 20:51:01 METAR KJFK 020151Z 25007KT 10SM SCT036 BKN110 BKN250 23/20 A2987 RMK AO2 LTG DSNT NE SLP113 FRQ LTGIC DSNT N-NE CB DSNT N-NE FRQ LTGIC DSNT SE CB DSNT SE T02280200 $","FM-15","7",,,,,,,,,,,,,,,,,,,,,,,,,,,,"2009-05-01"
"74486094789","2020-07-01T21:51:00","FM-15","7",,"ESE","1.5","mi","TEMP, PRECIP, SNOW",,,"PSY, SRG, SNOWBOARD",,,"FAA CWO",,,,,,,,,,,,,,,,,,,,,,,,,,,"29.86","68","72","T",,"-0.01","0","87","29.86","FEW:02 40 SCT:04 80 BKN:07 110","29.83","10.00","69","000",,"0",,,,,,,,,,,,,,,,,,,,,,,,,,,,,,,,,,,,,"MET16107/01/20 21:51:01 METAR KJFK 020251Z 00000KT 10SM FEW040 SCT080 BKN110 22/20 A2986 RMK AO2 LTG DSNT NE AND E SLP112 OCNL LTGIC DSNT E CB DSNT E T02220200 50004 $","FM-15","7",,,,,,,,,,,,,,,,,,,,,,,,,,,,"2009-05-01"
"74486094789","2020-07-01T22:00:00","FM-12","4",,"ESE","1.5","mi","TEMP, PRECIP, SNOW",,,"PSY, SRG, SNOWBOARD",,,"FAA CWO",,,,,,,,,,,,,,,,,,,,,,,,,,,,"68","72",,,"0.01","9","87","29.86","41","29.83","9.94","69","000",,"0",,,,,,,,,,,,,,,,,,,,,,,,,,,,,,,,,,,,,"SYN06474486 32666 60000 10222 20200 30100 40112 50004 90251 555 90203=","FM-12","4",,,,,,,,,,,,,,,,,,,,,,,,,,,,"2009-05-01"
"74486094789","2020-07-01T22:18:00","FM-16","7",,"ESE","1.5","mi","TEMP, PRECIP, SNOW",,,"PSY, SRG, SNOWBOARD",,,"FAA CWO",,,,,,,,,,,,,,,,,,,,,,,,,,,"29.88","64","69","0.01","-RA:02 |RA |RA",,,"84",,"BKN:07 18 BKN:07 40 OVC:08 110","29.85","10.00","66","070",,"10",,,,,,,,,,,,,,,,,,,,,,,,,,,,,,,,,,,,,"MET15907/01/20 22:18:02 SPECI KJFK 020318Z 07009KT 10SM -RA BKN018 BKN040 OVC110 21/18 A2988 RMK AO2 LTG DSNT E RAB0254 OCNL LTGIC DSNT E CB DSNT E P0001 T02060178 $","FM-16","7",,,,,,,,,,,,,,,,,,,,,,,,,,,,"2009-05-01"
"74486094789","2020-07-01T22:51:00","FM-15","7",,"ESE","1.5","mi","TEMP, PRECIP, SNOW",,,"PSY, SRG, SNOWBOARD",,,"FAA CWO",,,,,,,,,,,,,,,,,,,,,,,,,,,"29.87","62","67","0.01",,,,"84","29.87","SCT:04 18 SCT:04 40 BKN:07 110","29.85","10.00","64","110",,"7",,,,,,,,,,,,,,,,,,,,,,,,,,,,,,,,,,,,,"MET16507/01/20 22:51:02 METAR KJFK 020351Z 11006KT 10SM SCT018 SCT040 BKN110 19/17 A2987 RMK AO2 LTG DSNT E RAB0254E33 SLP116 OCNL LTGIC DSNT E CB DSNT E P0001 T01940167 $","FM-15","7",,,,,,,,,,,,,,,,,,,,,,,,,,,,"2009-05-01"
"74486094789","2020-07-01T23:51:00","FM-15","7",,"ESE","1.5","mi","TEMP, PRECIP, SNOW",,,"PSY, SRG, SNOWBOARD",,,"FAA CWO",,,,,,,,,,,,,,,,,,,,,,,,,,,"29.86","63","66","0.00",,,,"90","29.86","BKN:07 60 BKN:07 110 BKN:07 250","29.83","10.00","64","140",,"5",,,,,,,,,,,,,,,,,,,,,,,,,,,,,,,,,,,,,"MET11907/01/20 23:51:02 METAR KJFK 020451Z 14004KT 10SM BKN060 BKN110 BKN250 19/17 A2986 RMK AO2 SLP111 T01890172 402670189 $","FM-15","7",,,,,,,,,,,,,,,,,,,,,,,,,,,,"2009-05-01"
"74486094789","2020-07-01T23:59:00","SOD  ","6",,"ESE","1.5","mi","TEMP, PRECIP, SNOW",,,"PSY, SRG, SNOWBOARD",,,"FAA CWO",,,,"66","73","83","29.87","29.85","68","5.9","8","-1.5","0","80","66","180","21","0.06","0","0.0","190","16","TS RA BR",,,,,,,,,,,,,,,,,,,,,,,,,,,,,,,,,,,,,,,,,,,,,,,,,,,,,,,,"SOD75724 HR PRECIPITATION (IN): 0.06 SNOW DEPTH (IN):0     24 HR SNOWFALL (IN):0.0  WEATHER(CODE):13  24 HR MAX TEMP (F): 8024 HR MIN TEMP (F): 66AVERAGE STATION PRESSURE:29.850 MINIMUM SEA LEVEL PRESSURE:29.84 TIME OF OCCURRENCE:1927 PEAK WIND SPEED (MPH): 21 PEAK WIND DIR (DEG):180 PEAK WIND TIME (LST):      FASTEST 2MIN SPEED (MPH): 16FASTEST 2MIN DIR (DEG):190 FASTEST 2MIN TIME (LST):     AVERAGE WIND SPEED (MPH): 5.9 24 HR AVG TEMP (F): 73DEPART FROM NORMAL: -1  HEATING DEGREE DAYS:  0 COOLING DEGREE DAYS:  8 LATEST DAY MAX TEMP (0700-1900 LST):80  LATEST NIGHT MIN TEMP(1900-0800 LST):66 HOURLY INCREMENTAL PRECIPITATION VALUES (IN):.00 0.00 0.00 0.00 0.00 0.00 0.00 0.00 0.00 0.00 0.05 0.00 T    T    0.00 0.00 0.00 T    T    0.00 0.00 T    0.01 0.00","SOD  ","6",,,,,,,,,,,,,,,,,,,,,,,,,"0428","1930",,"2009-05-01"
